,cityid,title,address,mobile,longitude,latitude
0,110100,绿源电动车(北七家镇店),北京市昌平区北七家镇东沙王府市场内,18701578809,116.41514274521,40.134421640582
1,110100,绿源电动车(商业街店),北京市昌平区商业街59号,13439250756,116.23728244211,40.221786750902
2,110100,绿源电动车(龙禧二街店),北京市昌平区回龙观龙禧二街184-8,13811566285,116.32211819886,40.086594342043
3,110100,绿源电动车(大黄庄店),北京市朝阳区高碑店定福庄大黄庄桥东10米路南,18610008210,116.55035845872,39.922838792373
4,110100,绿源电动车(双桥路店),北京市朝阳区双桥路3号双桥路,01087967487,116.58356498624,39.910678490648
5,110100,绿源电动车(南陈路店),北京市顺义区南陈路,13520470943,116.62341254349,40.148440621074
6,110100,绿源电动车(林校北路店),北京市大兴区林校北路10号林校北路,01069255137,116.34492540953,39.728554139255
7,110100,绿源电动车(安定门内大街店),北京市东城区安定门内大街39号（交道口）,01059564510,116.41440380114,39.953923463335
8,110100,绿源电动车(东四北大街店),北京市东城区东四北大街265号东四北大街,01064024486,116.42323285478,39.937761697889
9,110100,绿源电动车(成寿寺中路店),北京市丰台区成寿寺中路四方景园四区三号楼底商,13641234506,116.44590846742,39.860454582993
10,110100,绿源电动车(南顶路店),北京市丰台区南顶路281号,17733743855,116.41542737174,39.848640752029
11,110100,绿源电动车(新平东路店),北京市平谷区新平东路62号新平东路,15901201350,117.12976953806,40.145955294223
12,110100,打铁庄公交站销售门店,北京市平谷区密三路,01089960166,117.01529418758,40.074816628143
13,110100,绿源电动车(新华南路店),北京市通州区新华南路,,116.66396445804,39.911002970423
14,110100,绿源电动车(漷马路专卖店),北京市通州区漷马路旧线,18910268235,116.55342239894,39.769998230111
15,110100,绿源电动车(云景东路店),北京市通州区云景东路256号,01060543175,116.66824752971,39.884863840391
16,110100,绿源电动车(汉王路专卖店),北京市通州区宋庄镇（靠近三河市汉王路）,18810023389,116.83104674454,39.973327177619
17,110100,绿源电动车(西门外大街店),北京市密云区西门外大街,13501021014,116.83814316241,40.384900766788
18,120100,绿源电动车(咸阳路店),天津市红桥区咸阳路10号咸阳路,18722599117,117.14452515374,39.154926735696
19,120100,绿源电动车(杨王路店),天津市武清区黄花店镇杨王路,13821962688,116.91279954918,39.359482886677
20,130100,绿源电动车(文兴路店),河北省石家庄市井陉矿区矿市街道文兴路,13582175164,114.07000457121,38.067979420171
21,130100,绿源电动车(人民东路专卖店),河北省石家庄市灵寿县人民东路138号人民东路,82520178,114.39632341431,38.315753057216
22,130100,绿源电动车(石清路专卖店),河北省石家庄市鹿泉区石清路,15132171150,114.35398976742,38.204176360843
23,130100,绿源电动车(东回舍镇店),河北省石家庄市平山县东回舍镇,18348821447,114.10132741313,38.272325471441
24,130100,绿源电动车(岗南镇店),河北省石家庄市平山县岗南镇,13111578262,114.02582617289,38.327206557552
25,130100,绿源电动车(南甸镇店),河北省石家庄市平山县建设路,031182871318,114.13900034584,38.392978873417
26,130100,绿源电动车(中山东路店),河北省石家庄市平山县中山东路,13363829568,114.21122605232,38.263951243268
27,130100,绿源电动车(温塘镇专卖店),河北省石家庄市平山县温塘镇,13284430713,113.99536964805,38.263122369561
28,130100,绿源电动车(古月镇店),河北省石家庄市平山县古月镇新开路,13673182792,113.88657931579,38.292381388275
29,130100,绿源电动车(无极路专卖店),河北省石家庄市无极县无极西路65号,13463954333,114.97545633797,38.183434983155
30,130100,绿源电动车(香港路店),河北省石家庄市行唐县香港路133号,13832347836,114.56943539275,38.448476858958
31,130100,绿源电动车(马村镇店),河北省石家庄市元氏县马村镇,13582616942,114.51699411274,37.862651566394
32,130100,绿源电动车(槐泉东路店),河北省石家庄市赞皇县槐泉东路58号,15383015770,114.39681480913,37.67032595641
33,130100,绿源电动车(华安西路店),河北省石家庄市正定县曙光路华安西路37号,031188252566,114.56603316697,38.171788643807
34,130200,绿源电动车(港欣街店),河北省唐山市乐亭县海港区港欣街,15369592997,118.98436502758,39.240910024019
35,130200,绿源电动车(南大路店),河北省唐山市乐亭县南大路,03154626026,118.91855022018,39.429989571813
36,130200,绿源电动车(阎各庄店),河北省唐山市乐亭县阎各庄,13832564734,118.86851913903,39.336759225788
37,130200,绿源电动车(南大街专卖店),河北省唐山市滦南县和平广场33号,03153639966,118.68431175092,39.514289072407
38,130200,绿源电动车(复兴路专卖店),河北省唐山市路南区复兴路188号,2879272,118.21667671689,39.626834136352
39,130200,绿源电动车(昌盛大路店),河北省唐山市迁安市昌盛大路1062号昌盛大路,03157277166,118.70347135625,40.020617427203
40,130200,绿源电动车(五重安乡店),河北省唐山市迁安市五重安乡,7091659,118.66144739148,40.193696599433
41,130200,绿源电动车(赵店子镇店),河北省唐山市迁安市赵店子镇,15131509780,118.65957367104,39.93528664314
42,130300,绿源电动车(石门寨镇店),河北省秦皇岛市抚宁县251省道,18230286855,119.61775853732,40.102907701871
43,130400,绿源电动车(双庙村店),河北省邯郸市磁县讲武城镇从峰线,13700309525,114.32991425889,36.28950728232
44,130400,绿源电动车(滨河东路专卖店),河北省邯郸市峰峰矿区滨河东路,13171547462,114.22344442162,36.423940124439
45,130400,绿源电动车(人民路19店),河北省邯郸市广平县人民路中段91号,03102516669,114.95166552665,36.488533688573
46,130400,绿源电动车(平固店镇专卖店),河北省邯郸市广平县平固店镇大牙线,15133070667,115.07960999922,36.577568319023
47,130400,绿源电动车(王禅东路店),河北省邯郸市临漳县临漳镇王禅东路,15931042518,114.62102089431,36.337780886579
48,130400,绿源电动车(柳园镇店),河北省邯郸市临漳县柳园镇,13932024066,114.6027041548,36.180526265692
49,130400,绿源电动车(前屯村店),河北省邯郸市临漳县砖寨营乡前屯村,15931042518,114.69707606304,36.18187657715
50,130400,绿源电动车(牌坊路店),河北省邯郸市涉县牌坊路,18832044518,113.67576365226,36.566568326152
51,130400,绿源电动车(北安乐乡专卖店),河北省邯郸市武安市北安乐乡,15831813688,114.37114602832,36.789670998029
52,130400,绿源电动车（伯延镇店）,河北省邯郸市武安市伯延镇,15033087921,114.18710106287,36.624832033452
53,130400,绿源电动车(石洞乡店),河北省邯郸市武安市石洞乡,15233848880,114.03781485603,36.687826716775
54,130400,绿源电动车(桥西路店),河北省邯郸市武安市桥西路251号桥西路,15831825351,114.21315409583,36.694604406893
55,130400,绿源电动车(午汲镇专卖店),河北省邯郸市武安市,13111323607,114.16239804573,36.667554000977
56,130400,绿源电动车(阳邑镇店),河北省邯郸市武安市阳邑镇,15027910673,113.91120009562,36.737451611779
57,130400,绿源电动车(固镇店),河北省邯郸市武安市固镇,13730085556,113.97834969363,36.645950873836
58,130400,绿源电动车(泉上中心街店),河北省邯郸武安市泉上中心街1号,15081708075,114.24510144733,36.733381029287
59,130400,绿源电动车(赵店专卖店),河北省邯郸市武安市赵店,15511035796,114.32130318822,36.819370244013
60,130400,绿源电动车(新洺南路店),河北省邯郸市永年区新洺南路12号新洺路,0310.6827510,114.50081520928,36.777770021366
61,130500,绿源电动车(兴广路专卖店),河北省邢台市广宗县兴广路广播局对面,03197211288,115.15165339052,37.082200205775
62,130500,绿源电动车(新华南街店),河北省邢台市巨鹿县新华南街,03194332126,115.0422752449,37.218448646879
63,130500,绿源电动车(河西镇店),河北省邢台市临西县河西镇先锋路,03198598065,115.68127086446,36.861881199674
64,130500,绿源电动车(大张庄乡店),河北省邢台市隆尧县大张庄乡,17731921678,114.85695702597,37.407207144757
65,130500,绿源电动车(昭庆北街店),河北省邢台市隆尧县昭庆北街1号新华路,03196661115,114.78170692836,37.35951452769
66,130500,绿源电动车(大宁铺村店),河北省邢台市隆尧县尹村镇大宁铺村,13930906879,114.63628870627,37.395676721823
67,130500,绿源电动车(大孟村镇店),河北省邢台市内丘县矿京路,13103399688,114.48378703138,37.233132091577
68,130500,绿源电动车(郝桥镇店),河北省邢台市南和县郝桥镇,13933743001,114.83306823087,37.077623687605
69,130500,绿源电动车(中华路4店),河北省邢台市平乡县中华路25号中华路,13363798354,115.02642463758,37.0692866758
70,130500,绿源电动车(节固镇店),河北省邢台市平乡县节固镇中心街55号,13623199150,114.98310447262,37.098326782247
71,130500,绿源电动车(中兴西大街专卖店),河北省邢台市桥西区冶金北路96号中兴西大街4店,03192608985,114.48223753868,37.067466370099
72,130500,绿源电动车(南园路店),河北省邢台市桥东区南园路2店,03198338865,114.49922290983,37.064659299649
73,130500,绿源电动车(守敬北路店),河北省邢台市桥西区守敬北路365号守敬北路1店,03192136666,114.48798227255,37.08849973132
74,130500,绿源电动车(守敬北路506号专卖店),河北省邢台市桥西区守敬北路506号,3868668,114.48784263879,37.087621119294
75,130500,绿源电动车(中兴东大街店),河北省邢台市桥东区中兴东大街248号中兴东大街5店,03193868668,114.50390990743,37.068994973598
76,130500,绿源电动车(西北留村店),河北省邢台市桥西区李村乡西北留村,03192599191,114.43977357237,37.014763542843
77,130500,绿源电动车（329省道店）,河北省邢台市沙河市329省道,8613101,114.30732719361,36.887929911397
78,130500,绿源电动车(振堂路店),河北省邢台市新河县振堂路,0319476100115531966118,115.25106806495,37.529811107925
79,130600,绿源电动车(药市南大街店),河北省保定市安国市药市南大街,15128259939,115.32819563012,38.419499875568
80,130600,绿源电动车(卷子村店),河北省保定市定兴县杨村乡卷子村9区45号,13731262537,115.81003314428,39.151614933723
81,130600,绿源电动车(保阜路店),河北省保定市阜平县东寺大街76号保阜路,18633224997,114.21278182185,38.850004790867
82,130600,绿源电动车(庞口镇店),河北省保定市高阳县331省道,15720020020,115.92427435673,38.590124101058
83,130600,绿源电动车(富昌乡店),河北省保定市竞秀区天威西路1425号天威西路,15383320136,115.44643138548,38.870936407283
84,130600,绿源电动车(东鲁岗村 店),河北省保定市竞秀区韩村乡东鲁岗村 ,18931278055,115.46643784023,38.901551365055
85,130600,绿源电动车(江城乡店),河北保定竞秀区江城乡天威西路4129号,15230276620,115.39595071251,38.869638888512
86,130600,绿源电动车(南奇乡店),河北省保定市竞秀区南奇乡,13082320956,115.41181591896,38.922512244264
87,130600,绿源电动车(韩庄乡店),河北省保定市莲池区华电路206号华电路,18132769963,115.52442303757,38.891235383102
88,130600,绿源电动车(建国路店),河北省保定市竞秀区建国路,17778889952,115.43853145236,38.839539328588
89,130600,绿源电动车(西大街四专卖店),河北省保定市莲池区西大街29号西大街,,115.50614698134,38.86722853428
90,130600,绿源电动车(瑞祥大街店),河北省保定市莲池区瑞祥大街768号,17332139668,115.49626350197,38.907118229808
91,130600,绿源电动车(燕赵北街专卖店),河北省保定市满城县燕赵北街18号,03127181888,115.32958158329,38.959453702307
92,130600,绿源电动车(杨庄村店),河北省保定市清苑区大庄镇杨庄村,13931340640,115.64311385856,38.687304238148
93,130600,绿源电动车(冉庄村店),河北省保定市清苑区冉庄镇冉庄村,15131228368,115.37992152748,38.684128331708
94,130600,绿源电动车(南邓村店),河北省保定市清苑区南邓村温蠡路北侧,13273200636,115.50938476825,38.594805473735
95,130600,绿源电动车(党城乡店),河北省保定市曲阳县党城乡,18733849998,114.58332380552,38.743325647478
96,130600,绿源电动车(灵山镇店),河北省保定市曲阳县中兴大街,13102917183,114.65177482056,38.796175532121
97,130600,绿源电动车(古城乡店),河北省保定市唐县,15932244631,114.95690024892,38.69401792255
98,130600,绿源电动车(安肃镇店),河北省保定市徐水区城内北大街169号城内北大街,13472224608,115.66412141554,39.033378819735
99,130600,绿源电动车(大因镇店),河北省保定市徐水区,13833005062,115.72055509698,38.930776988607
100,130600,绿源电动车(正村乡店),河北省保定市徐水区永兴西路,13933273580,115.54579041027,39.039510987173
101,130600,绿源电动车(紫荆关镇店),河北省保定市易县紫荆关镇紫荆大街,15931274580,115.18012641113,39.433945405377
102,130800,绿源电动车(宁丰路店),河北省承德市丰宁满族自治县大阁镇宁丰路228号,03148274699,116.65308915913,41.218385829215
103,130800,绿源电动车(滦河大街专卖店),河北省承德市双滦区滦河大街114号滦河大街,03144219305,117.74898372748,40.961943615802
104,130800,绿源电动车(都统府大街专卖店),河北省承德市双桥区都统府大街,13032090318,117.94891717268,40.984728566012
105,130900,绿源电动车(新华街店),河北省沧州市泊头市新华街227号,03178299876,116.57796497762,38.079714023695
106,130900,绿源电动车(朝阳街专卖店),河北省沧州市运河区朝阳街36号朝阳街,15632731231,116.84333318028,38.301976772241
107,131100,绿源电动车(辰时镇店),河北省衡水市深州市282省道,031835692671,115.70518931335,38.06296233449
108,131100,绿源电动车(护驾迟镇专卖店),河北省衡水市深州市282省道中国移动通信(智富合作厅),15130868088,115.7164944835,37.894104557982
109,140100,绿源电动车(腾达北大街店),山西省太原市古交市金牛大街24号,15303516150,112.17476636367,37.918764170111
110,140100,绿源电动车(尖草坪街专卖店),山西省太原市杏花岭区尖草坪街道尖草坪街41号,18734866334,112.57813213935,37.921961222354
111,140100,绿源电动车(贞观街店),山西省太原市晋源区贞观街,13934538252,112.47364840422,37.723602830336
112,140100,绿源电动车(南大街店),山西省太原市娄烦县南大街,03515830551,111.81851042096,38.080054739277
113,140100,绿源电动车(徐沟镇店),山西省太原市清徐县徐沟镇,15234181886,112.5291198403,37.563475844187
114,140100,绿源电动车(西铭路专卖店),山西省太原市万柏林区西铭路107号西铭路,18636197372,112.4529734002,37.865993322112
115,140100,绿源电动车(东化南路专卖店),山西省太原市杏花岭区东化南路订好市场绿源专卖,,112.595994162,37.892380060689
116,140100,绿源电动车(尖草坪解放北路专卖店),山西省太原市尖草坪区解放北路108号,,112.56918047863,37.919798022988
117,140100,绿源电动车(体育路服务站),山西省太原市小店区二营盘街15号体育路,,112.57524098045,37.837846285702
118,140100,绿源电动车(迎新路专卖店),山西省太原市尖草坪区迎新路,15635186220,112.53986625586,37.957379114451
119,140100,绿源电动车(文源路专卖店),山西省太原市清徐县文源路南门十字口,,112.35374500721,37.615543617404
120,140100,绿源电动车(和平北路店),山西省太原市万柏林区和平街道和平北路,,112.50996102979,37.88061409083
121,140100,绿源电动车(和平南路店),山西省太原市万柏林区和平南路117号,13513516562,112.51711332101,37.850772981378
122,140100,绿源电动车(北格镇店),山西省太原市小店区北格镇,13313513406,112.54469674714,37.642560346222
123,140100,绿源电动车(康宁东街专卖店),山西省太原市小店区康宁东街,18903406801,112.5825423205,37.749429493397
124,140100,绿源电动车(人民南路专卖店),山西省太原市小店区人民南路19号,18903406801,112.57475445274,37.739071178624
125,140100,绿源电动车(二营盘街店),山西省太原市小店区二营盘街15号,03518338329,112.57549254567,37.837615353434
126,140100,绿源电动车（体育路专卖店）,山西省太原市小店区体育路9号体育路,03518338329,112.57498024111,37.841411288024
127,140100,绿源电动车(王村南街专卖店),山西省太原市小店区王村南街1号体育路3店,15103436590,112.57492802443,37.837276304837
128,140100,绿源电动车(长风街店),山西省太原市小店区长风街15号长风街,13835199459,112.58904668953,37.823813514538
129,140100,绿源电动车(坞城路店),山西省太原市长风街与坞城路交叉口33所68号绿源电动车专卖店,15513292218,112.5890872352,37.82369893662
130,140100,绿源电动车(解放北路专卖店),山西省太原市杏花岭区解放北路11号,3087726,112.56798436062,37.891892764073
131,140200,绿源电动车(法院对面店),山西省大同市矿务局新一区法院对面,03524507386,113.16278690274,40.026785395011
132,140200,绿源电动车(广泰西街店),山西省大同市广灵县广泰西街精华大厦楼下,18335280116,114.28370902236,39.770411135559
133,140200,绿源电动车(新华东街店),山西省大同市灵丘县新华东街1107号,03528601408,114.25284843655,39.446841028422
134,140400,绿源电动车(新建南路店),山西省长治市长治县新建南路,03558101518,113.05561152612,36.058359447293
135,140400,绿源电动车(迎宾街店),山西省长治市武乡县迎宾街119号迎宾街,03556393002,112.87589660236,36.840662338916
136,140500,绿源电动车(建设南路店),山西省晋城市高平市建设南路161号,18235668669,112.93446598711,35.793991945199
137,140500,绿源电动车(神农镇店),山西省晋城市高平市建设南路神农镇政府,18234663886,112.93634992052,35.794671227886
138,140500,绿源电动车(永录乡店),山西省晋城市高平市永录乡,13293860559,112.90337770199,35.86096053234
139,140500,绿源电动车(河滨南路店),山西省晋城市城区新市西街1391号,03563067676,112.8453672846,35.505765025093
140,140600,绿源电动车(广场路专卖店),山西省朔州市山阴县广场路岱岳站,15903495058,112.83444793056,39.526980417109
141,140600,绿源电动车(开发南路店),山西省朔州市朔城区开发南路26号,13934967517,112.44142051158,39.330838639166
142,140600,绿源电动车(长虹东街专卖店),山西省朔州市右玉县长虹东街,03498031393,112.47487942191,39.993150712302
143,140700,绿源电动车(泰山街北一巷1号店),山西省晋中市和顺县泰山街北一巷1号,18635091365,113.58170566551,37.334593127003
144,140700,绿源电动车(南王里村店),山西省晋中市介休市连福镇南王里村,03547467302,112.04792568672,37.097323438573
145,140700,绿源电动车(新建西路店),山西省晋中市介休市新建西路158号,03547228926,111.92713201879,37.027703777479
146,140700,绿源电动车(下曹麻村店),山西省晋中市介休市三佳乡下曹麻文泉绿源电动车,13593066306,111.99275174138,37.048312217128
147,140700,绿源电动车(义棠镇店),山西省晋中市介休市412县道,15534442824,111.84907966055,37.010533052742
148,140700,绿源电动车(张兰镇店),山西省晋中市介休市221省道,13152915505,112.07719659053,37.137724225014
149,140700,绿源电动车(中都中街专卖店),山西省晋中市平遥县中都中街53号,0354,112.18175816447,37.216990661158
150,140700,绿源电动车(创新北路与南外环路交叉口专卖店),山西省晋中市平遥县富城家园南外环路南50米,018306819407,112.19271131131,37.192924897776
151,140700,绿源电动车(洪善镇襄平线店),山西省晋中市平遥县襄平线,18035415209,112.25470252429,37.286261202123
152,140700,绿源电动车(左家堡村专卖店),山西省晋中市平遥县宁固镇左家堡村,15935446805,112.10088342332,37.220968985449
153,140700,绿源电动车(襄垣乡店),山西省晋中市平遥县襄垣乡襄平线,15535442207,112.29417621673,37.279214481302
154,140700,绿源电动车(福田路85号专卖店),山西省晋中市寿阳县福田路85号,03544624459,113.18673363202,37.896483022699
155,140700,绿源电动车(箕城东街店),山西省晋中市太谷县箕城东街阳光小区B18号,15303543025,112.57166613416,37.427219386083
156,140700,绿源电动车(昔阳步行街店),山西省晋中市昔阳县昔阳步行街,03544123645,113.7147498652,37.61822446752
157,140700,绿源电动车(北田镇店),山西省晋中市榆次区北田镇102省道,2733530,112.77813269231,37.587269018905
158,140700,绿源电动车(长凝镇店),山西省晋中市榆次区长凝镇318省道,18335443881,112.88780400761,37.64200028415
159,140700,绿源电动车（陵园东街店）,山西省晋中市左权县陵园东街汽车站旁三晋美佳装饰城南门口商铺,13935438829,113.38891560583,37.083950252355
160,140800,绿源电动车(晋铝西路店),山西省运城市河津市晋铝西路,13453989905,110.67634594994,35.645990134791
161,140800,绿源电动车(赵东路店),山西省运城市河津市赵东路,13994894001,110.78351388595,35.625413041885
162,140800,绿源电动车(大交镇店),山西省运城市绛县临磨线大交镇,13466942540,111.68361842441,35.638149388477
163,140800,绿源电动车(文公路店),山西省运城市绛县文公路城关加油站南100米,03596528798,111.5900803868,35.495522861087
164,140800,绿源电动车（北辛乡专卖店）,山西省运城市临猗县北辛乡,13191194042,110.59018022519,35.214797354234
165,140800,绿源电动车(临晋镇专卖店),山西省运城市临猗县临晋镇,15333046068,110.56205088429,35.099283976978
166,140800,绿源电动车(双塔南路店),山西省运城市临猗县双塔南路258号,13835990700,110.78421253643,35.14136974931
167,140800,绿源电动车(常乐镇店),山西省运城市平陆县常乐镇,15934440659,111.0241712512,34.787092897035
168,140800,绿源电动车(五一街店),山西省运城市平陆县五一街老太阳城大酒店旁,14797499333,111.22002670146,34.845066689881
169,140800,绿源电动车(华泰南路店),山西省运城市芮城县华泰南路,3025721,110.71577946656,34.694339712668
170,140800,绿源电动车(农民街4店),山西省运城市万荣县农民街,13097517177,110.84413058483,35.425707660103
171,140800,绿源电动车(北相镇店),山西省运城市盐湖区北相镇,13935908204,111.00240116484,35.021704689961
172,140800,绿源电动车(临陌线专卖店),山西省运城市盐湖区临陌线,13835899674,110.80615884676,34.999771416675
173,140800,绿源电动车(迎新东街店),山西省运城市永济市迎新东街家电市场,03598052098,110.45665841716,34.876834374529
174,140800,绿源电动车(舜王北街店),山西省运城市垣曲县舜王北街啤酒厂楼下,03596021789,111.67522320738,35.310525854901
175,140900,绿源电动车(东大街专卖店),山西省忻州市代县东大街54号,13994146465,112.96688659152,39.073887438923
176,140900,绿源电动车(城中街专卖店),山西省忻州市定襄县城中街汇金商厦A8号,13111201655,112.96619325419,38.496821843425
177,140900,绿源电动车(金砂线店),山西省忻州市繁峙县金砂线,15513238911,113.56304201733,39.272455621318
178,140900,绿源电动车(镇西路3店),山西省忻州市岢岚县镇西路,13994116825,111.56770892269,38.710572288445
179,140900,绿源电动车(光明西街店),山西省忻州市忻府区秀容街道光明西街11号,13994183619,112.74014099829,38.406627883898
180,140900,绿源电动车(崞阳镇专卖店),山西省忻州市原平市崞阳镇,13835070326,112.75708069629,38.894022273409
181,140900,绿源电动车(京原南路店),山西省忻州市原平市京原南路1938-2146号京原南路,8230688,112.72470951755,38.729484407748
182,141000,绿源电动车(尧山西路店),山西省临汾市浮山县老菜市场中段,03578125998,111.85563841328,35.981652037746
183,141000,绿源电动车(南王村专卖店),山西省临汾市洪洞县大槐树镇南王村,13753121916,111.71146342322,36.312840336925
184,141000,绿源电动车(涧桥北路店),山西省临汾市洪洞县涧桥北路,03576531666,111.6753602998,36.26311397357
185,141000,绿源电动车(广胜寺镇店),山西省临汾市洪洞县广胜寺镇,15536797294,111.79670723055,36.317385680117
186,141000,绿源电动车(龙马镇店),山西省临汾市洪洞县龙马镇,13753763759,111.56072659925,36.269213151137
187,141000,绿源电动车(明姜镇店),山西省临汾市洪洞县108国道,13835782421,111.73731918822,36.337982062946
188,141000,绿源电动车(万安镇店),万安镇政府对面,13233128282,111.58788834666,36.316090830093
189,141000,绿源电动车(丁陶大道专卖店),山西省临汾市襄汾县丁陶大道东丁陶大卖场电动车市场,13834877308,111.43354373721,35.888305484435
190,141100,绿源电动车(峪口镇店),山西省吕梁市方山县松峪线峪口镇,13593394126,111.22925233294,37.746383666562
191,141100,绿源电动车(沙河街店),山西省吕梁市交城县沙河街广场西200米原运输一公司,03583535982,112.1593354317,37.558456665767
192,141100,绿源电动车(秀容街店),山西省吕梁市岚县秀容街,13753880323,111.68259453262,38.28002726023
193,141100,绿源电动车(货源街专卖店),山西省吕梁市离石区货源街储蓄银行旁,03588252208,111.15304762638,37.523656977139
194,141100,绿源电动车(货源街服务站),山西省吕梁市离石区货源街22号货源街,03583388931,111.15262907623,37.52398245633
195,141100,绿源电动车（延安街专卖店）,山西省吕梁市石楼县延安街,13753392403,110.83321985211,37.007394617155
196,141100,绿源电动车(章多村专卖店),山西省吕梁市文水县城关镇章多村,13333581361,112.03209626625,37.454400524857
197,141100,绿源电动车(则天大街店),山西省吕梁市文水县则天大街,03583408568,112.04993851311,37.442736253325
198,141100,绿源电动车(刘胡兰镇店),山西省吕梁市文水县刘胡兰镇,03582348433,112.1988459659,37.403588206031
199,141100,绿源电动车(段马线店),山西省吕梁市文水县段马线,15935162896,111.95942595529,37.399610555799
200,141100,绿源电动车（307国道店）,山西省吕梁市文水县307国道,15135296613,112.02087954044,37.417255189458
201,141100,绿源电动车(锦绣路店),山西省吕梁市孝义市锦绣路,13453871223,111.71992378369,37.149440079975
202,141100,绿源电动车(南梧桐村专卖店),山西省吕梁市孝义市梧桐镇南梧桐村,13803482214,111.81188314665,37.112683495672
203,141100,绿源电动车(梧桐新区店),山西省吕梁市孝义市朝阳街梧桐新区,13191183439,111.79914495799,37.113514748721
204,141100,绿源电动车(新义街店),山西省吕梁市孝义市新义街628号新义街,13935819562,111.77735130842,37.148686471234
205,141100,绿源电动车(永义路店),山西省吕梁市孝义市永义路赵家庄,18534796202,111.78289723448,37.115076463902
206,141100,绿源电动车(中阳楼街店),山西省吕梁市孝义市冀孝线中阳楼街道,13593430487,111.81676296174,37.142139114856
207,141100,绿源电动车(晋绥东路店),山西省吕梁市兴县晋绥东路,13753898549,111.13818642581,38.468562959291
208,150100,绿源电动车(云中中路店),内蒙古自治区呼和浩特市托克托县云中中路,04718517283,111.2057195381,40.281986791276
209,150200,绿源电动车(南门外大街店),内蒙古自治区包头市东河区南门外大街17号,18648601961,110.03430010788,40.585194491231
210,150300,绿源电动车(瑞联大道店),内蒙古自治区阿拉善盟阿拉善左旗瑞联大道,15848350025,106.70655691032,39.442619571227
211,150300,绿源电动车(解放北路店),内蒙古自治区乌海市乌达区解放北路33-6号,15174714101,106.72119215675,39.510844642602
212,150400,绿源电动车(牛家营子镇店),内蒙古自治区赤峰市喀喇沁旗206省道,04763818011,118.79828225142,42.111334165334
213,150400,绿源电动车(乃林镇店),内蒙古自治区赤峰市喀喇沁旗平锦线,04763451778,119.28689233703,41.917824651089
214,150400,绿源电动车(大双庙镇店),内蒙古自治区赤峰市宁城县大双庙镇,13948965511,118.98522843467,41.496149937091
215,150400,绿源电动车(天义镇店),内蒙古自治区赤峰市宁城县天义镇兴隆街18-21号,04762280368,119.34022981202,41.602282888887
216,150400,绿源电动车(三中街街道店),内蒙古自治区赤峰市红山区三中街街道办事处楼下63-1号,04768223301,118.9678587889,42.285484457563
217,150400,绿源电动车(五三镇店),内蒙古自治区赤峰市松山区111国道（北辰市场附近）,13848899955,118.86749506928,42.302316032972
218,150400,绿源电动车(王府镇店),内蒙古自治区赤峰市松山区111国道（王府小学对过）,13848560730,118.4417467023,42.22425568587
219,150600,绿源电动车(树林召大街店),内蒙古自治区鄂尔多斯市达拉特旗树林召大街,15754775466,110.04008810223,40.410147454231
220,150600,绿源电动车(芒哈图路店),内蒙古自治区鄂尔多斯市鄂托克前旗芒哈图路,13848574957,107.4920286308,38.191861254228
221,150600,绿源电动车(嘎鲁图镇店),内蒙古自治区鄂尔多斯市乌审旗嘎鲁图镇世纪家园门口B座104,13848790223,108.84994048076,38.60560727728
222,150700,绿源电动车(中央大街店),内蒙古自治区呼伦贝尔市阿荣旗中央大街（中央街高三部与二小步行街内）,04704252797,123.47022679973,48.140369309062
223,150700,绿源电动车(中央路店),内蒙古自治区呼伦贝尔市根河市中央路,04705238845,121.54770276842,50.787509179052
224,150700,绿源电动车(兴安西街店),内蒙古自治区呼伦贝尔市海拉尔区兴安西街,04708378755,119.74776420002,49.222156067526
225,150800,绿源电动车(红卫中路店),内蒙古自治区巴彦淖尔市乌拉特前旗红卫中路,13847856960,108.65939888903,40.731955478523
226,150900,绿源电动车(文卫南路店),内蒙古自治区乌兰察布市察哈尔右翼后旗文卫南路,13190653768,113.19841199088,41.449400126178
227,150900,绿源电动车(哈尔大街店),内蒙古自治区乌兰察布市察哈尔右翼中旗察哈尔大街,15004742284,112.6372516652,41.28288328685
228,150900,绿源电动车(光明街店),内蒙古自治区乌兰察布市察哈尔右翼前旗光明街,04743910188,113.21317575637,40.792967427658
229,150900,绿源电动车(统建西路店),内蒙古自治区乌兰察布市四子王旗统建西路8号楼,04745217959,111.70317660032,41.539900532206
230,152200,绿源电动车(华丰街店),内蒙古自治区兴安盟突泉县华丰街,15024821101,121.56825274546,45.388317877858
231,210100,绿源电动车(观泉路店),辽宁省沈阳市大东区望花中街13号观泉路,13804973783,123.48531020508,41.858127607773
232,210100,绿源电动车(龙山东路店),辽宁省沈阳市法库县龙山东路,15840082266,123.43468887647,42.516925277123
233,210100,绿源电动车(依牛堡子镇店),辽宁省沈阳市法库县依牛堡子镇,13654068290,123.37243092955,42.220179926646
234,210100,绿源电动车(昆山西路店),辽宁省沈阳市皇姑区明廉街道昆山西路87号向阳小区,02486722221,123.38130032441,41.835308955123
235,210100,绿源电动车(康方家屯镇店),辽宁省沈阳市康平县胜利街道康平县中心幼儿园,02487349221,123.35514265623,42.749216231904
236,210100,绿源电动车(牛心坨乡店),辽宁省沈阳市辽中区304省道牛心坨镇,02487918257,122.5678304346,41.602455511036
237,210100,宏宇输送设备制造厂综合门店,辽宁省沈阳市辽中区102省道,13654144128,122.76870612675,41.506537993894
238,210100,绿源电动车(东陵西路店),辽宁省沈阳市沈河区东陵西路,13704034366,123.52530050616,41.819468886839
239,210100,绿源电动车(丰乐二街店),辽宁省沈阳市沈河区丰乐二街,02424226380,123.49142323659,41.772682742924
240,210100,绿源电动车(南七中路店),辽宁省沈阳市铁西区南七中路6乙号南七中路,13940414422,123.37240012702,41.797450125049
241,210100,绿源电动车(102省道专卖店),辽宁省沈阳市铁西区102省道,15541994489,123.28026610512,41.763021368734
242,210100,绿源电动车(重工南街店),辽宁省沈阳市铁西区重工南街100号重工南街,13147812645,123.33241110363,41.791836007748
243,210100,绿源电动车(金星街店),辽宁省沈阳市沈北新区金星街,13840012900,123.52460655039,42.057200228086
244,210100,绿源电动车(大红旗镇店),辽宁省新民市大红旗镇63号,,122.61700011752,41.913537901751
245,210100,绿源电动车(大柳乡镇店),辽宁省沈阳市新民市沈于线,13889848498,122.80619297514,42.191234374365
246,210100,绿源电动车(公主屯镇店),辽宁省沈阳市新民市新民市公主屯中心卫生院,02487661360,123.03171887387,42.174106887589
247,210100,绿源电动车(兴隆镇店),辽宁省沈阳市新民市兴隆镇,13478841706,123.06175502567,41.984282524846
248,210100,绿源电动车(平罗镇店),辽宁省沈阳市于洪区北街13号新蔡线,15940505958,123.34335675814,41.946223855954
249,210100,绿源电动车(东平湖街店),辽宁省沈阳市于洪区东平湖街36-1号洪汇路,13504296936,123.2912354383,41.809503748915
250,210100,绿源电动车(沈大路店),辽宁省沈阳市于洪区沈大路12号沈大路,18604035637,123.31741684071,41.808470027117
251,210200,绿源电动车(芳源街店),辽宁省大连市金州区芳源街北里53-6,041187548763,121.82810030126,39.066739061924
252,210200,绿源电动车(体育场店),辽宁省大连市金州区中长街道体育路大连金州体育场15-16号门,15998400858,121.72904752013,39.101802874057
253,210200,绿源电动车（盐北路专卖店）,辽宁省大连市旅顺口区盐北路39号,18004264866,121.19333357265,38.803453521692
254,210300,绿源电动车(南台镇店),辽宁省鞍山市海城市南台镇中国邮政(南台邮政支局)北60米,04123565369,122.81283213826,40.930234051375
255,210500,绿源电动车(碱厂镇店),辽宁省本溪市本溪满族自治县碱黄线,18604144641,124.48972563001,41.258220569445
256,210600,绿源电动车(通远堡镇店),辽宁省丹东市凤城市203省道通远堡镇,13624956790,123.93185217517,40.788049011354
257,210600,绿源电动车（中山南路店）,辽宁省丹东市凤城市中山南路421号,13842553436,123.9320595045,40.789476604502
258,210700,绿源电动车(解放路店),辽宁省锦州市古塔区保安街道解放路2段70-7号,15941676517,121.13150937371,41.122526702492
259,210700,绿源电动车(义县东街店),辽宁省锦州市义县东街11-3号,04167711444,121.25235496138,41.549730153856
260,210800,绿源电动车(昆仑大街店),辽宁省营口市鲅鱼圈区昆仑大街,04172197286,122.13768761038,40.278592423767
261,210800,绿源电动车(红旗大街2店),辽宁省营口市盖州市红旗大街102号红旗大街,04177822683,122.35529796551,40.417556319873
262,210900,绿源电动车(34省道店),辽宁省阜新市阜新蒙古族自治县314省道,04188200335,122.02847939386,41.975661126089
263,210900,绿源电动车(徐家子镇店),辽宁省阜新市阜新蒙古族自治县徐家子镇,04188261105,122.24983265924,42.104216948734
264,210900,绿源电动车(新民镇店),辽宁省阜新市阜新蒙古族自治县东新线,13898549324,121.71233920466,41.891555758673
265,210900,绿源电动车(解放大街店),辽宁省阜新市彰武县解放大街108号解放大街,04187710282,122.53914449576,42.391470115316
266,211000,绿源电动车(二堡镇店),辽宁省辽阳市灯塔市佟二堡镇新民街348号,13674216808,123.04283521527,41.450610938067
267,211000,绿源电动车(新华路店),辽宁省辽阳市文圣区新华路252号,04193782229,123.19215184282,41.276340399129
268,211200,绿源电动车(李千户镇店),辽宁省铁岭市铁岭县李千户镇榛子交易市场,13841078103,123.88997911532,42.146003783356
269,211200,绿源电动车(中央街店),辽宁省铁岭市铁岭县中央街,13470150180,123.6111194801,42.134485487921
270,211200,绿源电动车(本街店),辽宁省铁岭市西丰县安民镇本街,,124.90096498168,42.759042649721
271,211300,绿源电动车(台吉镇店),辽宁省朝阳市北票市兴南线,13470227122,120.70587137139,41.803176263487
272,211300,绿源电动车(人民路店),辽宁省朝阳市北票市人民路,15042127122,120.77411636671,41.818824689253
273,211400,绿源电动车(新华大街店),辽宁省葫芦岛市连山区新华大街24-7号,04292237966,120.85334018684,40.756457776958
274,211400,绿源电动车(虹螺岘镇店),辽宁省葫芦岛市南票区虹螺岘镇306省道,15184070101,120.88448317212,41.026414002777
275,211400,绿源电动车(永宁街店),辽宁省葫芦岛市兴城市永宁街,04295456777,120.7147682327,40.628597122421
276,211400,绿源电动车(药王满族乡店),辽宁省锦州市义县东街11-3号药王满族乡,04295803059,121.25235496138,41.549730153856
277,220100,绿源电动车(大青嘴镇店),吉林省长春市德惠市0025县道,87190822,125.84860846975,44.428861584972
278,220100,绿源电动车(卡伦镇专卖店),吉林省长春市九台区卡伦老街,15944084131,125.54858293172,44.026891915645
279,220100,绿源电动车(龙家堡店),吉林省长春市九台区101省道(旧),15944106118,125.66268012329,44.07419036648
280,220100,绿源电动车(大马路店),吉林省长春市南关区大马路868号,13174431777,125.34603408255,43.901402678849
281,220100,绿源电动车(工农大街店),吉林省长春市榆树市工农大街15号工农大街,15567035597,126.55790894508,44.844561795446
282,220200,绿源电动车(吉林大街店),吉林省吉林市船营区吉林大街306号,13578557642,126.57251845172,43.863039657562
283,220500,绿源电动车(鸭江路店),吉林省通化市集安市鸭江路1839号,04356212562,126.20958920208,41.139105508124
284,220500,绿源电动车(梅河大街店),吉林省通化市梅河口市梅河大街2466号梅河大街,13694413335,125.68643118867,42.530676579499
285,220600,绿源电动车(建设街店),吉林省白山市浑江区建设街32-36号,13624394775,126.43822287735,41.94779506017
286,220800,绿源电动车(广源西路店),吉林省白城市大安市广源西路,18904463123,123.77893984509,45.59475586529
287,222401,绿源电动车(解放路店),吉林省延边朝鲜族自治州延吉市解放路985号,04332555825,129.52400623436,42.913491176006
288,230100,绿源电动车(富锦街店),黑龙江省哈尔滨市道外区富锦街82-4号,045188308557,126.65372965105,45.797483356632
289,230100,绿源电动车(苇河镇店),黑龙江省哈尔滨市尚志市苇河镇中心路108号,045153483399,128.3882114457,44.965704479789
290,230200,绿源电动车(新华路店),黑龙江省齐齐哈尔市富拉尔基区新华路,04526889739,123.65318605179,47.213885803086
291,230200,绿源电动车(拉哈镇大街店),黑龙江省齐齐哈尔市讷河市拉哈镇大街,,124.61597262914,48.211698470247
292,230400,绿源电动车(向阳大街店),黑龙江省鹤岗市东山区向阳大街,13846810918,130.31069459803,47.119338855346
293,230400,绿源电动车(鹤北林业局店),黑龙江省鹤岗市鹤北林业局五委七号,,130.46397683618,47.561810789671
294,230700,绿源电动车(正阳大街店),黑龙江省伊春市铁力市正阳大街178号正阳大街,13895932807,128.04648516758,46.992229316871
295,230800,绿源电动车(中央大街店),黑龙江省富锦市中央大街96号,,132.05604178702,47.260812908073
296,231100,绿源电动车(连池镇店),黑龙江省黑河市五大连池市五大连池镇二龙泉路五大连池风景区,,126.14906002589,48.650194646569
297,231100,绿源电动车(逊克农场场部店),黑龙江省黑河市逊克县逊克农场场部,,127.87607682962,49.224372555533
298,231200,绿源电动车(海北镇店),黑龙江省绥化市海伦市海北镇1号,,126.8600935097,47.664789153808
299,231200,绿源电动车(中央东大街店),黑龙江省绥化市庆安县中央东大街124号中央东大街,04554326388,127.52283171052,46.887078951521
300,310100,绿源电动车(南华苑路店),上海市宝山区大场镇南华苑路164号,02166401770,121.4263035482,31.277345917708
301,310100,绿源电动车(南奉公路店),上海市奉贤区南桥镇南奉公路9332-9336号南奉公路,02157494255,121.47200560448,30.91936310956
302,310100,绿源电动车(场中路店),上海市虹口区场中路844号场中路,15921355439,121.47196932495,31.312418701176
303,310100,绿源电动车(娄塘路店),上海市嘉定区娄塘路728号娄塘路,13761002070,121.22209923842,31.437556497228
304,310100,绿源电动车(曹安公路店),上海市嘉定区江桥镇曹安公路2206号,13524522738,121.35037477876,31.26671080097
305,310100,绿源电动车(封周路店),上海市嘉定区封周路6号,15324465820,121.28763012793,31.342598895474
306,310100,绿源电动车(民主东街店),上海市嘉定区南翔镇民主东街181号,02159502695,121.32111175882,31.299844095649
307,310100,绿源电动车(宝钱公路店),上海市嘉定区宝钱公路3731号,02159963126,121.19598686697,31.415810813703
308,310100,绿源电动车(红光路店),上海市金山区红光路130号红光路,18019284566,121.24279690924,30.835635113322
309,310100,绿源电动车(学府路店),上海市金山区学府路865号,13120709361,121.32727482945,30.738549710504
310,310100,绿源电动车(山阳镇龙皓路店),上海市金山区龙皓路312号,18019289189,121.35757738287,30.765680344009
311,310100,绿源电动车(罗星南路店),上海市金山区朱泾镇罗星南路453号,18018648301,121.17510087794,30.898875514442
312,310100,绿源电动车(江文路店),上海市闵行区浦江镇江文路138号,18201951826,121.54924778899,31.070350783776
313,310100,绿源电动车（古龙路店）,上海市闵行区古龙路1181号,13651986561,121.39019067478,31.15203371428
314,310100,绿源电动车（古龙路二店）,上海市闵行区古龙路1116号,13651986561,121.39019067478,31.15203371428
315,310100,绿源电动车(颛建路店),上海市闵行区颛桥镇颛建路9号,13601804791,121.40551531419,31.076630134339
316,310100,绿源电动车(老芦路店),上海市浦东新区老芦公路,02133895466,121.87333526847,30.987260989412
317,310100,绿源电动车(沪南公路店),上海市浦东新区惠南镇城南路425号,02133895466,121.76044451291,31.047691913593
318,310100,绿源电动车(华夏东路店),上海市浦东新区华夏东路,02158583038,121.70320871731,31.20626879327
319,310100,绿源电动车(大同路店),上海市浦东新区大同路656号,13901865478,121.58266222775,31.34621979684
320,310100,绿源电动车(银山路店),上海市浦东新区银山路262号银山路,13817568761,121.58723313906,31.251177472354
321,310100,绿源电动车(人民村店),上海市浦东新区泥城镇南芦公路人民村高桥105号,02158075733,121.83062779025,30.910692879315
322,310100,绿源电动车(川北公路店),上海市浦东新区川北公路,13917082881,121.61849801975,31.211079176724
323,310100,绿源电动车(齐河路店),上海市浦东新区齐河路617号齐河路,02150864007,121.51684154899,31.187534971656
324,310100,绿源电动车(创新街店),上海市浦东新区祝桥镇创新街2号,02158107944,121.7636765121,31.122419523909
325,310100,绿源电动车(北青公路店),上海市青浦区凤溪镇北青公路4639号,13482887727,121.23697595236,31.202208998039
326,310100,绿源电动车(北松公路店),上海市松江区北松公路车墩镇5039号,13127592038,121.31394420345,31.020813032583
327,310100,绿源电动车(平原街店),上海市松江区平原街60号,02157762768,121.1460328009,31.041391880818
328,310100,绿源电动车(西林北路店),上海市松江区西林北路224号,02157808071,121.22785944582,31.017527933207
329,310100,绿源电动车(环城路店),上海市松江区环城路550号绿源电动车,13501786865,121.26114237558,31.017613509394
330,310100,绿源电动车(茸惠路店),上海市松江区茸惠路1099号茸惠路,15900896008,121.26444957206,31.070414749843
331,310100,绿源电动车(隆昌路店),上海市杨浦区隆昌路212号,13046624747,121.55453679795,31.276360270005
332,310100,绿源电动车(共和新路店),上海市静安区共和新路825号,02156629529,121.46977549249,31.264229654383
333,320100,绿源电动车(五佰村路店),江苏省南京市鼓楼区五佰村路2号,4000257770,118.78980731814,32.114686672461
334,320100,绿源电动车(小市地铁站店),江苏省南京市鼓楼区和燕路1号和燕路,4000257770,118.79198773291,32.103075966295
335,320100,绿源电动车(雄风路店),江苏省南京市雨花台区宁芜大道雄风路1号,4000257770,118.66965010787,31.928933862544
336,320100,绿源电动车(玉树路专卖店),江苏省南京市江宁区玉树路（淳化街道）,4000257770,118.91951673564,31.916323054983
337,320100,绿源电动车(天石路店),江苏省南京市六合区横梁镇天石路107号绿源电动车专卖店,02557602755,118.94220198607,32.330117005765
338,320100,绿源电动车(长桥路店),江苏省南京市浦口区长桥路桥林镇,4000257770,118.5347642916,31.947320158994
339,320100,绿源电动车(新马路专卖店),江苏省南京市浦口区新马路184号新马路,4000257770,118.71561634879,32.111908923651
340,320100,绿源电动车(丽岛路店),江苏省南京市浦口区泰山街道丽岛路52弘阳·旭日华庭西区,4000257770,118.73022271008,32.136213363859
341,320100,绿源电动车(金盛百货广场店),江苏省南京市栖霞区迈化路金盛百货广场,4000257770,118.83328194498,32.119045743846
342,320100,绿源电动车(金尧路店),江苏省南京市栖霞区金尧路2号,4000257770,118.87691424094,32.128625504086
343,320100,绿源电动车(金尧华府店),江苏省南京市栖霞区金尧路金尧华府专卖店,4000257770,118.89156868734,32.133069731976
344,320100,绿源电动车(石林百货店),江苏省南京市秦淮区光华路147号光华路,4000257770,118.85724687237,32.024190194798
345,320100,绿源电动车(江宁路店),江苏省南京市秦淮区江宁路26号,4000257770,118.79994827769,32.018315873291
346,320100,绿源电动车(苜蓿园东街专卖店),江苏省南京市秦淮区苜蓿园东街26号苜蓿园东街,4000257770,118.83829483338,32.044270401432
347,320100,绿源电动车（中山北路店）,江苏省南京市鼓楼区中山北路405号,4000257770,118.75617760852,32.093057689603
348,320100,绿源电动车（春江路专卖店）,江苏省南京市雨花台区春江路8号铁心桥大道2店,4000257770,118.76810302614,31.970488259514
349,320100,绿源电动车(和燕路店),江苏省南京市鼓楼区和燕路260号,4000257770,118.8089922079,32.105118775048
350,320100,绿源电动车(中华路9店),江苏省南京市秦淮区中华路491号中华路二店,58770976,118.7887541021,32.02230230257
351,320100,绿源电动车(泰山路店),江苏省南京市六合区泰山路99号,02557095159,118.85180631627,32.348472801618
352,320100,绿源电动车(建宁路专卖店),江苏省南京市鼓楼区建宁路57-2号,02583205262,118.77734269272,32.098870685594
353,320100,绿源电动车(珠江路专卖店),江苏省南京市玄武区珠江路699号,02584817161,118.81402978757,32.051785019117
354,320100,绿源电动车(凤凰西街专卖店),江苏省南京市鼓楼区凤凰西街182-7号,02586617235,118.75323896111,32.047012222682
355,320100,绿源电动车(后标营路专卖店),江苏省南京市秦淮区后标营路,02586800856,118.8272940946,32.037714665994
356,320100,绿源电动车(中华路专卖店),江苏省南京市秦淮区中华路秦淮区中华路347号,02552328722,118.78990245428,32.026062149816
357,320100,绿源电动车(铁心桥街店),江苏省南京市雨花区铁心桥街道铁心桥大道18-2号,4000257770,118.76794668267,31.971144210611
358,320200,绿源电动车(皮革城专卖店),江苏省无锡市锡山区万力大道,15806188688,120.37491400837,31.627693072917
359,320300,绿源电动车(大庙镇店),江苏省徐州市大庙镇五羊本田摩托车专卖店1号,,117.36993518589,34.282736761183
360,320300,绿源电动车(新夏路店),江苏省徐州市贾汪区新夏路34号校东西巷,18060313762,117.45514161414,34.428306978283
361,320300,绿源电动车(迎宾大道店),江苏省徐州市沛县迎宾大道人民医院向北200米,051689976688,116.94812522167,34.731463753986
362,320300,绿源电动车(港上镇店),江苏省徐州邳州市港上镇药材市场大门东侧 ,,118.12583669591,34.529068737258
363,320300,绿源电动车(建国西路专卖店),江苏省徐州市泉山区建国西路3号,051685609307,117.1915378542,34.265589156984
364,320300,绿源电动车(建国西路专卖店),江苏省徐州市泉山区建国西路永安广场店,,117.17939378757,34.265828891483
365,320300,绿源电动车(中山路店),江苏省徐州市睢宁县中山路凌城镇,15152528851,118.1272553445,33.827104866951
366,320300,绿源电动车(天虹大道50号店),江苏省徐州市睢宁县天虹大道50号,13815354188,117.96820138466,33.904501874763
367,320300,绿源电动车(沙集镇店),江苏省徐州市睢宁县沙集镇天猫路,,118.14286747248,33.897811615733
368,320300,绿源电动车(姚集镇专卖店),江苏省徐州市睢宁县姚集镇,13585491237,117.83328481607,34.071108445002
369,320300,绿源电动车(利国镇店),江苏省徐州市铜山区301县道利国镇,15852168101,117.34257702425,34.558361689301
370,320300,绿源电动车(棠张镇店),江苏省徐州市铜山区棠张镇蔬菜批发市场,15205219735,117.26740071339,34.155684607386
371,320300,绿源电动车(南京东路店),江苏徐州新沂棋盘镇南京东路150号（棋盘中学对面）,,118.23394646024,34.251756333269
372,320300,绿源电动车(邵店镇店),江苏省徐州市新沂市双邵线邵店镇,15996909256,118.4547363683,34.135911594008
373,320300,绿源电动车(通政路店),江苏省徐州市新沂市瓦窑镇通政路,15190701036,118.35725739733,34.383739903799
374,320300,绿源电动车(王楼街店),江苏省徐州市新沂王楼镇王楼街汽车站东80米,,118.10193545585,34.253475936902
375,320300,绿源电动车(惠民社区店),江苏省徐州市云龙区楚韵路惠民社区,13375133810,117.27676636242,34.183464036158
376,320400,绿源电动车(戴埠镇专卖店),江苏省常州市溧阳市戴埠镇镇善东路183号戴埠如意木业,13915881186,119.51399071258,31.31460952817
377,320400,绿源电动车(横涧镇专卖店),江苏省常州市溧阳市横涧镇松山路5号,,119.50904689237,31.22245898545
378,320400,绿源电动车(南大街店),江苏省常州市溧阳市上黄镇南大街1号,,119.57507348408,31.550164155727
379,320400,绿源电动车(南夏墅镇店),江苏省常州市武进区南夏墅镇中街2-2号,,119.94391595624,31.635126900094
380,320400,绿源电动车(湖塘镇店),江苏省常州市武进区湖塘镇武宜中路35-37号,,119.94164797987,31.68273310576
381,320400,绿源电动车(礼嘉镇店),江苏省常州市武进区礼嘉镇新东街21号,,119.76601093321,31.714258705379
382,320400,绿源电动车(戚墅堰街道店),江苏省常州市戚墅堰街道河苑家园东区绿源电动车,88777713,120.05679426313,31.728394215724
383,320500,绿源电动车(水潭头店),江苏省苏州市姑苏区水潭头9号,,120.647077662,31.342667728906
384,320500,绿源电动车(人民南路店),江苏省苏州市太仓市人民南路,051253520552,121.11000574533,31.457847886479
385,320500,绿源电动车(甪直镇店),江苏省苏州市吴中区甪直镇东方大道,,120.87193895149,31.277314065562
386,320500,绿源电动车(东吴南路专卖店),江苏省苏州市吴中区东吴南路153号东吴南路,051265653123,120.63553856231,31.256656892442
387,320500,绿源电动车(石路国际商城专卖店),江苏省苏州市姑苏区金门路40-70号石路,65653123,120.60878594758,31.316970160198
388,320500,绿源电动车(北灵路专卖店),江苏省苏州市相城区聚峰路48号北灵路,13913104948,120.61182673568,31.517854465944
389,320500,金星花苑(二区)销售门店,江苏省苏州市相城区黄埭镇春丰路7号绿源电动车,13771855597,120.5653046273,31.435918070925
390,320600,绿源电动车(横港镇店),江苏南通横港镇中心河路117号,,120.77401790544,32.075178374835
391,320600,绿源电动车(竹行镇店),江苏省南通市竹行镇政府向西30米1号,,120.99505869216,31.904455725501
392,320600,绿源电动车(秦灶新村专卖店),江苏省南通市港闸区石桥路秦灶新村,13912441119,120.87759791226,32.057918546584
393,320600,绿源电动车(环镇西路店),江苏省南通市海安县镇角斜环镇西路,13912441119,120.79163118073,32.580953722149
394,320600,绿源电动车(瑞祥镇店),江苏省海门瑞祥镇菜市场对面1号,,121.20094532554,31.967087026863
395,320600,绿源电动车(东洲路专卖店),江苏省南通市海门市东洲路27号,051382204177,121.17838846753,31.897995859225
396,320600,绿源电动车（北新镇专卖二店）,江苏省南通市启东市北新镇社区,13912441119,121.51762828904,31.828236923052
397,320600,绿源电动车(镇兴街店),江苏省启东市大兴镇镇兴街367号,13912441119,121.68192551727,31.760868935955
398,320600,绿源电动车(东海镇专卖店),江苏省南通市启东市东海镇,13912441119,121.85024103231,31.78184099973
399,320600,绿源电动车(向阳街专卖店),江苏省南通市启东市向阳街1号向阳街,13912441119,121.79656927571,31.877266581158
400,320600,绿源电动车(和合街专卖店),江苏省南通市启东市和合街,13912441119,121.81711087922,31.745140731676
401,320600,绿源电动车(南苑中路专卖店),江苏省南通市启东市南苑中路,13912441119,121.65867173867,31.808078925256
402,320600,绿源电动车(长龙家具城专卖店),江苏省南通市启东市汇龙镇长龙家具城南隔壁,13912441119,121.67992841724,31.829306528973
403,320600,绿源电动车(建新路专卖店),江苏省南通市启东市人民中路523号建新路,13912441119,121.66960376695,31.813497792771
404,320600,绿源电动车(圩角镇店),江苏省南通市启东市汇龙镇新时代购物广场(圩角店),13405721197,121.62148133098,31.850534335004
405,320600,绿源电动车(江海中路专卖店),江苏省南通市启东市汇龙镇江海中路414号南苑中路,13912441119,121.65867567509,31.808202172096
406,320600,绿源电动车(大同镇店),江苏省南通市启东市惠萍镇大同村,,121.7331891922,31.748733557907
407,320600,绿源电动车(惠萍镇金店),江苏省南通市启东市惠萍镇,13912441119,121.79896541089,31.819761837751
408,320600,绿源电动车(惠萍镇店),江苏省南通市启东市惠萍镇(惠萍镇金辉),13912441119,121.70222233227,31.992184794497
409,320600,绿源电动车(新生街店),江苏省南通启东久隆镇新生街317号,13912441119,121.57708200261,31.912330456392
410,320600,绿源电动车(秦潭镇店),江苏省南通市启东市秦潭镇,13912441119,121.7111155692,32.037744796163
411,320600,绿源电动车(向阳镇店),江苏省南通市启东市向阳街1号,13912441119,121.79660924129,31.877239859213
412,320600,绿源电动车(登丰路店),江苏省南通市如东县登丰路70号,13912441119,121.04539016221,32.451349959549
413,320600,绿源电动车(马塘镇专卖店),江苏省南通市如东县县道Z01马塘镇,13912441119,121.03824027027,32.326597131526
414,320600,绿源电动车(刘桥镇店),江苏省南通市通州区刘桥镇,13562355886,120.85009446037,32.165661648732
415,320700,绿源电动车(韩湖镇专卖店),江苏省连云港市东海县石房线韩湖镇,18248959266,118.8560077655,34.742690905251
416,320700,绿源电动车(白塔埠镇专卖店),江苏省连云港市东海县白塔埠镇,13675241390,118.94770327883,34.577569508454
417,320700,绿源电动车(房山镇店),江苏连云港市东海县房山镇,,118.85408626777,34.460744645265
418,320700,绿源电动车(菜市街店),江苏连云港市东海县菜市街57-35号（绿源电动车）,051887227681,118.77243117779,34.527056323323
419,320700,绿源电动车(平明乡店),江苏省连云港市东海县太平洋路平明乡,17826609998,118.97591899193,34.474750708488
420,320700,绿源电动车(驼峰乡店),江苏省连云港市东海县驼峰乡,15151272358,118.84368860335,34.602024964465
421,320700,绿源电动车(利民路专卖店),江苏省连云港市东海县张湾街利民路28号,,118.77095359616,34.531390422132
422,320700,绿源电动车(城头镇店),江苏省连云港市赣榆区青抗线城头镇,051886561316,118.96237166009,34.88665423365
423,320700,绿源电动车(海头镇店),江苏省连云港市赣榆区海头镇万达购物中心南路口向东60米,15061379480,119.18311424218,34.936709625924
424,320700,绿源电动车(黑林镇店),江苏省连云港市赣榆区黑林镇黑林派出所对面向西20米,051886759632,118.9105823998,35.01221665572
425,320700,绿源电动车(厉墩线店),江苏省连云港市赣榆区厉庄镇中心小学向西20米,13961346750,119.03247203704,34.978695599543
426,320700,绿源电动车(罗阳镇店),江苏省连云港市赣榆区火炬路罗阳镇,13151703887,119.12105656586,34.718329655978
427,320700,绿源电动车(丽景街店),江苏省连云港市赣榆区青口镇丽景街75号,051886236468,119.12732859558,34.850282814087
428,320700,绿源电动车(沙河镇店),江苏省连云港市赣榆沙河镇金桥富路86号,,118.9509389719,34.733377963221
429,320700,绿源电动车(青年路店),江苏省连云港市海州区路南街道青年路56-1号,,119.18367180605,34.604924483641
430,320800,绿源电动车(南京北路店),江苏省淮安市清江浦区南京北路2号南京路,13852387471,119.10027054391,33.5896118708
431,320800,绿源电动车(宏恒胜路店),江苏省淮安市清河区宏恒胜路,13337969350,119.14478108659,33.610356356708
432,320800,绿源电动车(南闸镇店),江苏省淮安市楚州区南闸镇1号,,119.1649172297,33.318492187791
433,320800,绿源电动车(林集镇店),江苏省淮安市淮安区林集镇1号,,119.1500828917,33.370748877474
434,320800,绿源电动车(施河镇店),江苏省淮安市淮安区施河镇永安路,13511536018,119.37740998099,33.406834243853
435,320800,绿源电动车(西长街店),江苏省淮安市楚州区淮城镇西长街,13626186577,119.16185273275,33.5132137543
436,320800,绿源电动车(康马路店),江苏省淮安市淮安区康马路淮城镇,15161719987,119.14243142839,33.545721679994
437,320800,绿源电动车(钦工镇店),江苏省淮安市淮安区235省道钦工镇,13952394639,119.23991987892,33.656730435137
438,320800,绿源电动车(马甸镇店),江苏省淮安市马甸镇三支老菜场桥头绿源电动车,,119.22701934426,33.460327187691
439,320800,绿源电动车(苏嘴镇店),江苏省淮安市楚州区苏嘴镇1号,,119.42792411167,33.65943666353
440,320800,绿源电动车(五里镇专卖店),淮阴区五里镇中门吴三电动车修理1号,,118.96198902929,33.76220833873
441,320800,绿源电动车(高沟镇店),江苏省淮安市涟水县高沟镇,18952358588,119.21357004334,34.02493311039
442,320800,绿源电动车(韩桥镇店),江苏省淮安市淮阴区韩桥镇洪湖路58号,,118.83501817457,33.456309144916
443,320800,绿源电动车(徐杨镇店),江苏省淮安市开发区徐杨镇,,119.16004442124,33.586319592529
444,320800,绿源电动车(岔庙镇店),江苏省淮安市涟水县岔庙镇1号,18015134141,119.2339206083,33.921849367261
445,320800,绿源电动车(金茂路店),江苏省淮安市涟水县前进镇金茂路,18360978101,119.13496196578,33.963889617314
446,320800,绿源电动车(时码镇店),江苏省淮安市涟水县时码镇1号,,119.34396909168,33.882916537847
447,320800,绿源电动车(黄码镇店),江苏省淮安市淮阴区黄码镇1号,,119.1499904277,33.515579138602
448,320800,绿源电动车(人民北路专卖店),江苏省淮安市清河区人民北路12号,051783937776,119.02757992056,33.600116165941
449,320900,绿源电动车(向阳大道专卖店),江苏省盐城市滨海县向阳大道50号,051584123889,119.84542201545,34.00064749918
450,320900,绿源电动车(白驹镇店),江苏省盐城市大丰区白驹镇大白路30,,120.31494636992,33.07792794815
451,320900,绿源电动车(范公中路专卖店),江苏省盐城市东台市范公中路162号范公中路,051588102560,120.33708218283,32.856769449257
452,320900,绿源电动车(富安镇店),江苏省盐城市东台市富安镇,13655110183,120.49186285229,32.676099104364
453,320900,绿源电动车(新曹镇店),江苏省盐城市东台市新曹镇,15301415921,120.73100166196,32.889886081087
454,320900,绿源电动车(施庄镇店),江苏省盐城市阜宁县射阜线施庄镇南苑小区,18014658279,119.84653710583,33.748796608619
455,320900,绿源电动车(通榆路店),江苏省盐城市阜宁县开发区施庄通榆路93号,13962079798,119.84080242056,33.753429782072
456,320900,绿源电动车(智谋路专卖店),江苏省盐城市建湖县冈东镇智谋路50号,13912579648,120.04960526391,33.604990627438
457,320900,绿源电动车(大崔西路店),江苏省盐城市建湖县芦沟镇大崔西路中海车行,,119.84996445303,33.39985670845
458,320900,绿源电动车(高作镇店),江苏省盐城市建湖县永甲线高作镇,15751120758,119.78573570478,33.558973351505
459,320900,绿源电动车(恒丰路店),江苏省盐城市建湖县恒丰路恒济镇,15051320092,119.66760089311,33.355065217614
460,320900,绿源电动车(建蒋中路店),江苏省盐城市建湖县蒋营镇建蒋中路207号,15961907921,119.66242045215,33.415851615055
461,320900,绿源电动车(沿河西路专卖店),江苏省盐城市建湖县沿河西路沿河镇,15195527878,119.77860158006,33.374900756126
462,320900,绿源电动车(大桥路店),江苏省盐城市射阳县千秋镇大桥路288号,13912554375,120.24285498253,33.884764853628
463,320900,绿源电动车(特庸镇店),江苏省盐城市射阳县特庸镇,15051060152,120.26622559516,33.514797057065
464,320900,绿源电动车(中舍花园店),江苏省盐城市开发区华山路中舍花园,,120.25110500232,33.366840890967
465,320900,绿源电动车(南洋镇店),江苏省盐城市亭湖区南洋镇市建军东路858号,13770073636,120.23504038382,33.439388041749
466,320900,绿源电动车(青墩镇专卖店),江苏省盐城市亭湖区青墩镇,13815586913,120.15216417351,33.433233721272
467,320900,绿源电动车(港湾明珠店店),江苏盐城市亭湖区城北港湾明珠店（黄海西路跟西环路交叉口路西）1号,,120.11603676063,33.387130382823
468,320900,绿源电动车(长坝路店),江苏省盐城市亭湖区长坝路11号（销售店）,88354458,120.12904058321,33.379281480966
469,320900,绿源电动车(金港大街专卖店),江苏省盐城市响水县陈家港金港大街,15195193036,119.82379997419,34.384198583305
470,320900,绿源电动车(长江路专卖3店),江苏省盐城市响水县长江路,18361692836,119.58510013151,34.201179648228
471,320900,绿源电动车(冈中街道店),江苏省盐城市盐都区冈中街道,15962081339,120.15811753743,33.257653667207
472,320900,绿源电动车（盐兴中路店）,江苏省盐城市盐都区龙冈镇盐兴中路,15859087746,120.04886509956,33.365248473128
473,320900,绿源电动车(神州路店),江苏省盐城市都区潘黄镇神州路,18705111121,120.15424427231,33.32981622934
474,320900,绿源电动车(鹿鸣路店),江苏省盐城市马沟镇鹿鸣路1555号,,120.16011067719,33.358374416575
475,321000,绿源电动车(溪河南路专卖店),江苏省扬州市宝应县溪河南路黄塍镇,15995109751,119.38572241097,33.315036829621
476,321000,绿源电动车(安宜东路专卖3店),江苏省扬州市宝应县安宜东路21号安宜东路1店,051488386576,119.32853823504,33.24161836025
477,321000,绿源电动车（安宜东路专卖二店）,江苏省扬州市宝应县安宜东路77-5号安宜东路2店,18052565198,119.33690659403,33.24228181803
478,321000,绿源电动车(小官庄镇店),江苏省扬州市宝应县小官庄镇官北路,13770550987,119.45009575721,33.184028349535
479,321000,绿源电动车(河口镇店),江苏省高邮市河口镇工业园区1号,,119.78192006006,32.832447920048
480,321000,绿源电动车(和润路店),江苏省扬州市高邮车罗镇和润路109号,,119.46690738612,32.713834302816
481,321000,绿源电动车(甘垛镇店),江苏省扬州市高邮市甘垛镇,15366855478,119.78540136547,32.838671589836
482,321000,绿源电动车(通湖路专卖店),江苏省扬州市高邮市通湖路103号,051485853118,119.44283732199,32.793876705292
483,321000,绿源电动车(郭集路专卖店),江苏省扬州市高邮市郭集路88号,13773578398,119.34012830093,32.704664220239
484,321000,绿源电动车(凌塘镇店),江苏省扬州高邮市凌塘镇1号,,119.23591414783,32.693775333278
485,321000,绿源电动车(龙虬路专卖店),江苏省扬州市高邮市龙虬路136号龙虬路,15152760188,119.5176492328,32.833415248017
486,321000,绿源电动车(马棚镇店),江苏省扬州高邮市马棚镇1号,,119.43209322279,32.8999352095
487,321000,绿源电动车(三阳北路店),江苏扬州高邮市甸垛镇三阳北路8号,,119.67811439021,32.770957515419
488,321000,绿源电动车(天山镇店),江苏省扬州高邮市天山镇1号,,119.25906386916,32.635491721167
489,321000,绿源电动车(海潮东路店),江苏省扬州高邮市龙奔镇海潮东路1号,,119.4590515585,32.787339205161
490,321000,绿源电动车(滨河路店),江苏省扬州市广陵区东关街道滨河路14号,13082577610,119.48866557252,32.392594179499
491,321000,绿源电动车(观潮路店),江苏省扬州市广陵区观潮路,13952579387,119.47313662281,32.416425961442
492,321000,绿源电动车(东花园路店),江苏省扬州市广陵区东花园路,051480115669,119.46559695896,32.382900136441
493,321000,绿源电动车(吉安路专卖店),江苏省扬州市邗江区吉安路汊河镇,13815827253,119.3946369334,32.34088801781
494,321000,绿源电动车(汊河镇店),江苏省扬州市邗江区汊河镇,13815827253,119.38839031074,32.342384277789
495,321000,绿源电动车(李典镇店),江苏省扬州市广陵区李典镇,13665275796,119.58017355483,32.323090773156
496,321000,绿源电动车(百祥园小区店),江苏省扬州市邗江区百祥园小区1号,,119.39901426905,32.380619989928
497,321000,绿源电动车(云霞路店),江苏省扬州市邗江区云霞路,13645258846,119.43292246689,32.348651871945
498,321000,绿源电动车(西大街店),江苏省扬州邗江区槐四镇西大街18号,,119.44892605958,32.458831424941
499,321000,绿源电动车(真武镇店),江苏省扬州市江都区真武镇,13605250330,119.57840974097,32.586020382474
500,321000,绿源电动车(长江路专卖店),江苏省扬州市江都区长江路,15952558008,119.58773046542,32.429940846126
501,321000,绿源电动车(吴堡镇店),江苏省扬州市江都区小纪镇吴堡,18952764800,119.86060198689,32.672348846631
502,321000,绿源电动车(人民街专卖店),江苏省扬州市仪征市真州镇人民街67号鼓楼（国庆路）,051483909359,119.18534247558,32.277140242681
503,321000,绿源电动车(汶河南路专卖店),江苏省扬州市广陵区汶河街道汶河南路17号,051487234616,119.43922806393,32.39247787899
504,321000,绿源电动车(文昌中路专卖店),江苏省扬州市广陵区文昌中路207号文昌中路,051487234616,119.45603997216,32.401461051641
505,321000,绿源电动车(人民街专卖店),江苏省扬州市仪征市真州镇人民街67号,051483582233,119.18534247558,32.277140242681
506,321000,绿源电动车(双塘东路专卖店),江苏省扬州市邗江区维扬经济开发区双塘东路147号,13004300398,119.41197348156,32.443121195783
507,321000,绿源电动车(马集镇店),江苏省扬州仪征市马集镇1号,,119.17993748581,32.359781352887
508,321000,绿源电动车(朴席镇店),江苏省扬州仪征市朴席镇1号,,119.32708177135,32.30206208561
509,321000,绿源电动车(隆觉路店),江苏省扬州市仪征市隆觉路朴席镇,13852516139,119.3236206817,32.301434109767
510,321100,绿源电动车(长虹路店),江苏省镇江市丹徒区长虹路大路镇,051183720110,119.74571923224,32.21691356152
511,321100,绿源电动车(大港新区店),江苏省镇江市镇江新区大港新区,051186019797,119.6763168584,32.192949954328
512,321100,绿源电动车(小米山路店),江苏省镇江市京口区健康了街道桃花山庄小米山路37号,13815151033,119.48727077278,32.212778907555
513,321100,绿源电动车(滨江路店),江苏省镇江市京口区四牌楼街道滨江路,13275117016,119.40235406928,32.221135358797
514,321100,绿源电动车(兴业街店),江苏省镇江市句容市郭庄镇兴业街55号,13952930376,119.0393862287,31.810570646333
515,321100,绿源电动车(东大街店),江苏省句容市天王镇东大街99号,,119.21791422444,31.750353740399
516,321200,绿源电动车(鹿鸣大街专卖店),江苏省泰州市姜堰区溱潼镇鹿鸣大街1号楼19号,13605268049,120.10555962091,32.655466880161
517,321200,绿源电动车(张甸镇店),江苏省泰州市姜堰区张甸镇,15195219902,120.05883850291,32.412840562474
518,321200,绿源电动车(新建街店),江苏省泰州市靖江市新建街,052384896119,120.27110485376,32.025908539477
519,321200,绿源电动车(扬州路店),江苏省泰州市海陵区扬州路,052389667558,119.90308689372,32.498015104431
520,321200,绿源电动车(青年北路专卖店),江苏省泰州市海陵区青年北路,052386222848,119.91881623751,32.494025632929
521,321200,绿源电动车(大庆路店),江苏省泰州泰兴市大庆西路25号绿源电动车,052387723086,120.02257961878,32.179247398031
522,321200,绿源电动车(安丰镇店),江苏省泰州市兴化市安丰镇工商所对面,15996092742,120.11539617664,33.097694198906
523,321200,绿源电动车(建设路专卖店),江苏省泰州市兴化市昭阳镇建设路52号,052383227909,119.84668517279,32.944030913046
524,321300,绿源电动车(半城镇专卖店),江苏省宿迁市泗洪县半城镇1号,,118.40606301488,33.353812376856
525,321300,绿源电动车(藏桥村店),江苏省宿迁市泗洪县藏桥村1号,18762172278,118.3539926066,33.521699106212
526,321300,绿源电动车(归仁镇店),江苏省宿迁市泗洪县归仁镇归七线,18851367106,118.20313548616,33.675068251329
527,321300,绿源电动车(界集镇店),江苏省宿迁市界集镇中心医院对面1号,,118.42090419017,33.560067264829
528,321300,绿源电动车(临淮镇店),江苏省宿迁市泗洪县临淮镇1号,,118.42507682407,33.239660304853
529,321300,绿源电动车(水岸城邦售后服务站),江苏省泗洪县水岸城邦西门售后店,13141567188,118.22763187903,33.461122452577
530,321300,绿源电动车(青阳南路店),江苏省宿迁市泗洪县青阳南路,13141567188,118.22687959749,33.466839200975
531,321300,绿源电动车(山河东路店),江苏省宿迁市泗洪县山河东路,13141567188,118.25083389591,33.460292682116
532,321300,绿源电动车(上塘镇店),江苏省宿迁市泗洪县上塘镇十字路口向南50米,13141567188.15950613685,118.0499782446,33.361053256261
533,321300,绿源电动车(水岸城邦店),江苏省宿迁市泗洪县水岸城邦西门,13141567188,118.22744304841,33.461364006318
534,321300,绿源电动车(双沟镇店),江苏省宿迁市泗洪县双沟镇东大路,13815763428,118.19455808287,33.230851524182
535,321300,绿源电动车(孙园镇店),江苏省宿迁市泗洪县孙园镇,15358367561,118.37558126833,33.39431089383
536,321300,绿源电动车(蔡集镇店),宿迁市宿城区蔡集镇农电站西50米,,118.16606050711,33.97982687422
537,321300,绿源电动车(府前路专卖店),江苏省宿迁市宿城区罗圩乡府前路临街门面,052781882006,118.29362971684,33.766793909717
538,321300,绿源电动车(三树镇店),江苏省宿迁市宿城区三树镇加油站北300米,,118.24811610106,33.969254403349
539,321300,绿源电动车(江苏省宿迁市宿豫区丁嘴镇政府对面店),江苏省宿迁市宿豫区丁嘴镇政府对面l绿源电动车,15371357233,118.56271329589,33.875235982194
540,321300,绿源电动车(新庄镇店),江苏省宿迁市宿豫区新庄镇1号,,118.46411592587,33.969454376987
541,321301,绿源电动车(建设街店),河北省张家口市沽源县建设街63号,03135798164,115.69251000642,41.672786330824
542,321301,绿源电动车(北辛堡镇店),河北省张家口市怀来县北辛堡镇49号,13730305339,115.78459134564,40.437293667224
543,321301,绿源电动车(东花园镇店),河北省张家口市怀来县东花园镇商业街18号,13932353626,115.80906886499,40.345311816636
544,321301,绿源电动车(沙城镇店),河北省张家口市怀来县沙城镇,6221038,115.52521934341,40.415767841353
545,321301,绿源电动车(大清沟镇专卖店),河北省张家口市尚义县大清沟镇55号,13785314433,114.13188637407,41.341631870159
546,321301,绿源电动车(代王城镇专卖店),河北省张家口市蔚县代王城镇  ,13785364103,114.6842238771,39.899342667174
547,321301,绿源电动车(牌楼北街专卖店),河北省张家口市蔚县牌楼北街,03137011567,114.57780935324,39.849037653239
548,321301,绿源电动车(西合营店),河北省张家口市蔚县西合营,13633234357,114.77599544374,39.961237438154
549,321301,绿源电动车(沙岭子村店),河北省张家口市宣化县沙岭子镇沙岭子村20号,13483343197,114.92208199583,40.673523747189
550,321301,绿源电动车(中横街专卖店),河北省张家口市桥东区工业东街工业中横街36号,03132268489,114.89627017205,40.800421150985
551,321301,绿源电动车（义圣宫路店）,河北省张家口市宣化区义圣宫路绿源店,03137964221,115.06601051604,40.613398370061
552,321301,绿源电动车(龙泉路4店),河北省张家口市阳原县龙泉路,03137358888,114.16399776678,40.113175675244
553,321301,绿源电动车(笔架西路店),湖南省张家界市慈利县笔架西路,13907443686,111.12698879317,29.427897368586
554,321301,绿源电动车(文明西路店),湖南省张家界市桑植县文明西路,13907446609,110.17813951998,29.406948796313
555,321301,绿源电动车(子午路店),湖南省张家界市永定区子午路878号,13037443497,110.47401026132,29.140419192513
556,330100,绿源电动车(龙门路店),浙江省杭州市淳安县千岛湖龙门路144号,15990136058,119.0605279562,29.617471875007
557,330100,绿源电动车(桂花西路店),浙江省杭州市富阳区桂花西路,057163376103,119.94422813555,30.055034163002
558,330100,绿源电动车(长征中学店),浙江省杭州市拱墅区赵伍路,057188190004,120.13852410511,30.311880968847
559,330100,绿源电动车(香积寺路店),浙江省杭州市下城区香积寺路169号,13758266211,120.1704282202,30.313253927143
560,330100,绿源电动车(教工路店),浙江省杭州市拱墅区教工路600号,057189923166,120.1405229174,30.305092242257
561,330100,绿源电动车(紫荆花北路店),浙江省杭州市西湖区紫荆花北路399号,057189923166,120.09681342985,30.320881325165
562,330100,绿源电动车(东路水岸鑫域店),寿昌镇东路水岸鑫域22号（寿昌镇交警中队斜对面）,,119.23694538304,29.366676241963
563,330100,绿源电动车(明月桥路店),浙江省杭州市江干区明月桥路,18668009195,120.23200878623,30.296647584287
564,330100,绿源电动车(３号大街店),浙江省杭州市江干区３号大街大都文苑风情,13666635327,120.35615924052,30.315696369322
565,330100,绿源电动车(新风路店),浙江省杭州市江干区新风路328,15869114604,120.21125539219,30.300408645177
566,330100,绿源电动车(崇文路店),浙江省杭州市临安市青山湖街道崇文路520号,15258852163,119.82959959346,30.252260830812
567,330100,绿源电动车(天目路店),浙江省杭州市临安市於潜镇天目路121号,13136111498,119.40274867446,30.19127480325
568,330100,绿源电动车(钱江路店),浙江省杭州市上城区钱江路,13777418818,120.20317330142,30.241864617662
569,330100,绿源电动车(复兴路3店),浙江省杭州市上城区复兴路139号复兴路,13967138755,120.17552590518,30.219779822479
570,330100,绿源电动车(瓜山北苑店),浙江省杭州市拱墅区上塘路瓜山北苑7-108 号,13456776414,120.15155812466,30.344869248746
571,330100,绿源电动车(潮王路店),浙江省杭州市下城区潮王路上塘路239号,13073603668,120.16913729063,30.29638182279
572,330100,绿源电动车(九龙路店),浙江省杭州市桐庐县九龙路81号,057164314255,119.44795597452,29.939761942158
573,330100,绿源电动车(教工路二店),浙江省杭州市西湖区教工路93号,057186827506,120.14170052662,30.287503814258
574,330100,绿源电动车(古墩路店),浙江省杭州市西湖区古墩路554号古墩路,15258896506,120.10471401758,30.29311369529
575,330100,绿源电动车(庆春路店),浙江省杭州市上城区庆春路10号,057187294685,120.19264716928,30.264184889824
576,330100,绿源电动车(水秀苑店),浙江省杭州市西湖区三墩路476号,057188961066,120.09934756015,30.329457282769
577,330100,绿源电动车(镇南路店),浙江省杭州市萧山区镇南路（河庄镇中心小学）,18367160867,120.47360033532,30.302037073005
578,330100,绿源电动车(人民路瓜沥店),浙江省杭州市萧山区人民路958号,057182560523,120.46749504653,30.183361376869
579,330100,绿源电动车(大溪路店),浙江省杭州市萧山区大溪路58号,13867131184,120.17092520592,29.943612719459
580,330100,绿源电动车(坎山镇店),浙江省杭州市萧山区人民路107号,057183581035,120.42131811499,30.192576269225
581,330100,绿源电动车(盈丰路店),浙江省杭州市萧山区盈丰路306号,057189923166,120.25507115222,30.23073416559
582,330100,绿源电动车(白腊路店),浙江省杭州市萧山区白腊路长山镇,15372022788,120.30761895481,30.196435648453
583,330100,绿源电动车(新螺路店),浙江省杭州市萧山区新塘街道霞江村新螺路170号,13386529661,120.32740075282,30.150323003225
584,330100,绿源电动车(新湾街道店),浙江省杭州市萧山区新湾街道南浔银行浙江萧山湖商村镇银行杭州市萧山新湾镇初级中学,13968044218,120.54714296154,30.289358888772
585,330100,绿源电动车(崇贤镇店),浙江省杭州市余杭区崇贤镇崇超线,13221812293,120.182522545,30.401891507735
586,330100,绿源电动车(莫干山路专卖店),杭州余杭区良渚镇莫干山路2198号,13868171987,120.06114383374,30.379858978868
587,330100,绿源电动车(临平沿山路店),浙江省杭州市余杭区临平沿山路3号邱山大街,18668015883,120.30240228901,30.427094758549
588,330100,绿源电动车(城隍中路店),浙江省杭州市余杭区城隍中路46号,057189923166,120.29618599213,30.355209669818
589,330100,绿源电动车(塘栖路店),浙江省杭州市余杭区塘栖路309号绿荫街,15968883703,120.20504282283,30.481794597865
590,330200,绿源电动车(观海卫路店),浙江省宁波市慈溪市观海卫镇观海卫路103-109号,057463615105,121.41552292358,30.172899530947
591,330200,绿源电动车(镇中路店),浙江省宁波市慈溪市镇中路,057463602140,121.45789800118,30.120752899932
592,330200,绿源电动车(广平路店),浙江省宁波市奉化市广平路南山路23号,057488961777,121.41795718907,29.660090920432
593,330200,绿源电动车(启运路店),浙江省宁波市鄞州区礼嘉桥启运路20号,18968315301,121.5067030852,29.857294370697
594,330200,绿源电动车(云林东路店),浙江省宁波市鄞州区布政菜场云林东路72弄8-12号,15988661665,121.47747772114,29.847434264434
595,330200,绿源电动车(南门街道店),浙江省宁波市海曙区南门街道三市路,13967890288,121.55042854341,29.86581270162
596,330200,绿源电动车(洪塘中路店),浙江省宁波市江北区洪塘中路281号洪塘中路,13248659898,121.51430223893,29.945241177235
597,330200,绿源电动车(榭嘉路店),浙江省宁波市江北区榭嘉路386号北海南路,13805885223,121.52863973176,29.926027167322
598,330200,绿源电动车(环城西路店),浙江省宁波市海曙区环城西路南段76号,,121.5280373967,29.880075357605
599,330200,绿源电动车(百丈路专卖店),浙江省宁波市鄞州区百丈路146-148号,057487753025,121.57161255598,29.871137934988
600,330200,绿源电动车(翠柏路专卖店),浙江省宁波市海曙区翠柏路,057487271211,121.53897010197,29.884482041239
601,330200,绿源电动车(沧海北路店),浙江省宁波市江东区沧海北路滨江大道200号,18358402771,121.60829533616,29.895249396478
602,330200,绿源电动车(塔山路店),浙江省宁波市象山县塔山路205号,13867831316,121.88612145965,29.483184096103
603,330200,绿源电动车(永达西路店),浙江省宁波市鄞州区飞虹新村永达西路117号,18005795333,121.56403194309,29.855229219567
604,330200,绿源电动车(兴宁路店),浙江省宁波市江东区兴宁路145号兴宁路,13857843023,121.57812754113,29.858817871392
605,330200,绿源电动车(黄鹂社区店),浙江省宁波市江东区兴宁路154号兴宁路,13857843023,121.57822219988,29.858729596502
606,330200,绿源电动车(荷晓东路店),浙江省宁波市鄞州区洞桥镇荷晓东路928号,15958890927,121.41975953274,29.790159805156
607,330200,绿源电动车(横街中路专卖店),浙江省宁波市鄞州区横街中路22号望童线,057488280990,121.40738228525,29.862842704634
608,330200,绿源电动车(文化路店),浙江省宁波市鄞州区文化路,057488061488,121.59810848504,29.734224999269
609,330200,绿源电动车(卖面桥村店),浙江省宁波市鄞州区望童线集仕巷镇卖面桥村东街40号,18967896267,121.48002115985,29.881646341391
610,330200,绿源电动车(梅墟路店),浙江省宁波市鄞州区梅墟路82号,15356846686,121.65993636128,29.903559981234
611,330200,绿源电动车(冯家村店),浙江省宁波市海曙区冯家村(雅源幼儿园斜对面),13071958919,121.49364647647,29.828428102732
612,330200,绿源电动车(雅源北路店),浙江省宁波市海曙区雅源北路11号,057466824811,121.51725717594,29.834725166424
613,330200,绿源电动车(宁横公路店),浙江省宁波市鄞州区宁横公路云龙镇政府,13291929277,121.60599126508,29.777400281756
614,330200,绿源电动车(舜水南路店),浙江省宁波市余姚市舜水南路96-3号,13566090276,121.15778409101,30.049152476271
615,330200,绿源电动车(中山南路店),浙江省宁波市余姚市中山南路,057462936255,121.35263440914,30.033182890285
616,330200,绿源电动车(光明北路店),浙江省宁波市余姚市泗门镇光明北路105号,057462123501,121.04674098282,30.172623775102
617,330200,绿源电动车（车站路店）,浙江省宁波市镇海区车站路58号,13858373254,121.71604390966,29.957751626269
618,330200,绿源电动车(兆龙路店),浙江省宁波市镇海区庄市兆龙路663一665号,13615885900,121.61945099621,29.932377680837
619,330300,绿源电动车(慈湖工业区店),温州市慈湖镇慈湖工业区2号（104国道慈湖段189号）,,120.66108545228,27.960654109049
620,330300,绿源电动车(黎明西路店),浙江省温州市鹿城区黎明西路136号,,120.68499822366,28.018080980933
621,330300,绿源电动车(锦绣路店),浙江省温州市鹿城区锦绣路950号,13857796341,120.66216936609,28.004729503287
622,330300,绿源电动车(温瞿西路店),浙江省温州市瓯海区温瞿西路,057756865686,120.53726794957,28.006316853394
623,330300,绿源电动车(慈湖镇店),浙江省温州市龙湾区机场大道1719号,057786350592,120.76948930169,27.975352120447
624,330300,绿源电动车(拱瑞山路店),浙江省温州市瑞安市拱瑞山路588号,057766878697,120.65145473407,27.771688075579
625,330300,绿源电动车(双屿南路店),浙江省温州市瑞安市双屿南路124号,057765781228,120.46339869197,27.786297064743
626,330300,绿源电动车(环城西路店),浙江省温州市永嘉县环城西路,13968977718,120.70279884408,28.150451428412
627,330400,绿源电动车(联丁线店),浙江省嘉兴市海宁市联丁线,057387631986,120.650952483,30.427523172487
628,330400,绿源电动车(水月亭西路店),浙江省嘉兴市海宁市水月亭西路103号,057387779157,120.69548973475,30.530625814817
629,330400,绿源电动车(马桥街道店),浙江省嘉兴市海宁市马桥街道505号,057387761023,120.70947889162,30.46703139516
630,330400,绿源电动车(朝阳西路店),浙江省嘉兴市海盐县朝阳西路152号,057386021026,120.94155373899,30.52247507777
631,330400,绿源电动车(永庆东路店),浙江省嘉兴市海盐县永庆东路568号永庆东路,057386722615,120.83271709372,30.582640157603
632,330400,绿源电动车(堰山路店),浙江省嘉兴市海盐县堰山路,13105733636,120.85955887074,30.408767063211
633,330400,绿源电动车(镇中路店),浙江省嘉兴市海盐县于城镇镇中西路98号镇中路,057386921381,120.86103129765,30.538239988818
634,330400,绿源电动车(夏义路店),浙江省嘉兴市南湖区夏义路,13615837366,120.85933505634,30.755952917554
635,330400,绿源电动车(禾兴南路专卖店),浙江省嘉兴市南湖区禾兴南路263号,057382221555,120.75529117762,30.762545610534
636,330400,绿源电动车(禾兴北路专卖店),浙江省嘉兴市南湖区禾兴北路75号,057382221555,120.75252947056,30.782206417521
637,330400,绿源电动车(庆丰北路店),浙江省嘉兴市桐乡市庆丰北路27号,057388250252,120.55747574281,30.643700082806
638,330400,绿源电动车(民和路店),浙江省嘉兴市秀洲区民和路洪运路176号,13967376593,120.6671585489,30.688017919235
639,330500,绿源电动车(浦源大道店),浙江省湖州市安吉县浦源大道351号,05725868399,119.69398788082,30.641534757528
640,330500,绿源电动车(泗洲山南路店),浙江省湖州市安吉县墅兴路203号泗洲山南路,13567965455,119.79522714322,30.78787383957
641,330500,绿源电动车(梧桐路店),浙江省湖州市长兴县白岘镇梧桐路,13757253021,119.69930015775,31.117856714693
642,330500,绿源电动车(二界岭乡店),浙江省湖州市长兴县初台线二界岭中心幼儿园,13868257055,119.62895887002,30.953820127336
643,330500,绿源电动车(和平大道店),浙江省湖州市长兴县和平大道98号,,119.91308100735,30.830264217686
644,330500,绿源电动车(虹星桥镇店),浙江省湖州市长兴县新星路虹星桥镇中学,13735133345,119.87913806439,30.92454221922
645,330500,绿源电动车(华锦路店),浙江省湖州市长兴县李家巷镇刘家渡村华锦路小洋桥彪强车行,05726602076,119.96706664202,30.97465055845
646,330500,绿源电动车(玉泉村店),浙江省湖州市长兴县泗安镇玉泉村长潮小学,13511262902,119.70859114861,30.94347379728
647,330500,泗安闻香阁销售门店,浙江省湖州市长兴县振兴大道276号,15088359168,119.66322256261,30.907312807447
648,330500,绿源电动车(仓前二街店),浙江省湖州市长兴县仓前二街243号,05726027819,119.91816919621,31.007548523843
649,330500,绿源电动车(千秋街店),浙江省湖州市德清县千秋街383-395号,05728820588,119.97515920208,30.548097215099
650,330500,绿源电动车(南街店),浙江省湖州市吴兴区南街294号,05722025079,120.1055354916,30.864771239826
651,330600,绿源电动车(轻纺城大道店),浙江省绍兴市柯桥区轻纺城大道,057584091776,120.48190990912,30.072653825557
652,330600,绿源电动车(人民中路6店),浙江省绍兴市上虞区人民中路338号,057582611111,120.88217937951,30.022059121742
653,330600,绿源电动车(杨绍线店),浙江省绍兴市柯桥区杨绍线,13676899315,120.39159827751,30.135697421182
654,330600,绿源电动车(长宅线店),浙江省绍兴市嵊州市长宅线,13065550350,120.62102649767,29.463900880816
655,330600,绿源电动车(三江街道店),浙江绍兴嵊州三江街道仙景花苑14-20,057583350586,120.84050963801,29.592465594919
656,330600,绿源电动车(中兴中路店),浙江省绍兴市越城区中兴中路329号中兴中路,,120.59425078093,30.014271515864
657,330600,绿源电动车(西江路店),浙江省绍兴市越城区西江路,057588091378,120.58211581392,29.983817691383
658,330600,绿源电动车(鹅境公交站店),浙江省绍兴市越城区杨绍线环城西路,057588091378,120.55856841514,29.997204563866
659,330600,绿源电动车(鲁迅东路店),浙江省绍兴市越城区鲁迅东路347号,057589580086,120.61831174382,29.997175525589
660,330600,绿源电动车(百盛街店),浙江省绍兴市越城区百盛街,057588170959,120.61278873861,30.092733946507
661,330700,绿源电动车(华夏大道店),浙江省金华市东阳市华夏大道223--225号,,120.3275697461,29.167405581256
662,330700,绿源电动车(横黄线店),浙江省金华市东阳市横黄线,057986223708,120.15386677384,29.166413277
663,330700,绿源电动车(甘溪东街店),浙江省金华市东阳市甘溪东街,057986662448,120.25649366621,29.292129181951
664,330700,绿源电动车(中山路店),浙江省金华市东阳市中山路10号,057986188324,120.23254225775,29.269168460176
665,330700,绿源电动车(东义路店),浙江省金华市东阳市东义路57号,057986186366,120.21646096075,29.280789741643
666,330700,绿源电动车(南下线店),浙江省金华市东阳市南下线,057986446557,120.32477070586,29.044626276814
667,330700,绿源电动车(曹宅镇店),浙江省金华市曹宅镇双河路75号,,119.76296049631,29.204848816487
668,330700,绿源电动车(金瓯路店),浙江省金华市金东区金瓯路309号金瓯路,1375898811,119.69094703101,29.120177587344
669,330700,绿源电动车(荷北街店),浙江省金华市金东区清傅村镇荷北街,057983274623,119.90642505739,29.241762454056
670,330700,绿源电动车(澧兴路专卖店),浙金华澧浦镇澧兴路187,,119.81492351471,29.10826103273
671,330700,绿源电动车(环镇北路店),浙江省金华市金东区孝顺镇环镇北路,,119.87681762023,29.182821055324
672,330700,绿源电动车(石城街专卖店),浙江省金华市婺城区石城街,121121,119.60999754904,29.062934920799
673,330700,绿源电动车(兰浦西路店),浙江省金华市兰溪市兰浦西路,13516901986,119.82308277635,29.372172984364
674,330700,绿源电动车(永昌加油站店),浙江省金华市兰溪市330国道永昌加油站,15958412683,119.36750098264,29.234078288398
675,330700,绿源电动车(方前镇店),浙江省金华市磐安县方前镇中大街37号,13857949505,120.69166047344,29.054275541713
676,330700,绿源电动车(白马镇店),浙江省金华市浦江县兰王线白马镇中学,057984295200,120.05845498734,29.50711870836
677,330700,绿源电动车(岩头镇店),浙江省金华市浦江县岩头镇,18757652892,119.89858477667,29.459077359229
678,330700,绿源电动车(北山路店),浙江省金华市婺城区北山路258号（骆家塘）,057982292879,119.64455997771,29.127918229379
679,330700,绿源电动车(李渔路专卖店),浙江省金华市婺城区李渔路723号李渔路,057982478271,119.65853462822,29.087630334186
680,330700,绿源电动车(八一路专卖5店),浙江省金华市婺城区八一南街八一路26号,057982069735,119.65853459082,29.097610918421
681,330700,绿源电动车(武阳西路店),浙江省金华市武义县武阳西路29号,057987671758,119.8181349912,28.902479203172
682,330700,绿源电动车(城东路店),浙江省金华市武义县柳城镇城东路,057987881704,119.60547984471,28.631319019233
683,330700,绿源电动车(金衢路店),浙江省金华市婺城区金衢路,15988599657,119.61927743119,29.077259435027
684,330700,绿源电动车(八达路店),浙江省金华市婺城区八达路108号八达中路,13588651954,119.60908881642,29.066726794024
685,330700,绿源电动车(新农贸店),浙江省金华市婺城区新农贸1号,,119.65103240758,29.070288519
686,330700,绿源电动车(雅兴路店),浙金华雅畈镇雅兴路28号,,119.68709586638,29.038175951931
687,330700,绿源电动车(竹马乡镇店),江省金华市婺城区竹马乡镇府对面1号,,119.59702413278,29.144154935507
688,330700,绿源电动车(义东路专卖店),浙江省金华市义乌市义东路,057985470848,120.08677886923,29.317361824695
689,330700,绿源电动车(雪峰西路店),浙江省金华市义乌市雪峰西路,057985471658,120.06626955638,29.323303350847
690,330700,绿源电动车(银尔路店),浙江省金华市义乌市银尔路18号,0579532145678,120.06229233194,29.374067552406
691,330700,绿源电动车（城北路店）,后宅街道城北路N108号,,120.06202100433,29.380131647974
692,330700,绿源电动车(九铃东路店),浙江省金华市永康市九铃东路3300号,,120.04783316103,28.900271894387
693,330700,绿源电动车(唐先西街店),浙江省金华市永康市唐先西街,057987503392,120.12727438164,29.03524755576
694,330800,绿源电动车(常河线店),浙江省衢州市常山县阁底镇常河线,15268072495,118.61347608668,28.93085579702
695,330800,绿源电动车(文峰东路店),浙江省衢州市常山县文峰东路77号,05705011375,118.52960875109,28.904788374416
696,330800,绿源电动车(同弓镇店),浙江省衢州市常山县同弓镇上红线,15257031240,118.43805035956,28.902718358567
697,330800,绿源电动车(凤林中心小学店),浙江省衢州市江山市大泉线凤林镇中心小学,05704711589,118.50535586826,28.526176052945
698,330800,绿源电动车(和睦小学店),浙江省衢州市江山市和睦小学,13587128124,118.58263170451,28.631618293139
699,330800,绿源电动车(上余镇店),浙江省衢州市江山市大上线上余镇大溪滩,05704332820,118.70878101612,28.79185465394
700,330800,绿源电动车(赵家中学店),浙江省衢州市江山市46省道赵家中学,05704181558,118.66619934526,28.751222619944
701,330800,绿源电动车(四都镇店),浙江省衢州市江山市四都镇双江县,18767028208,118.70220175691,28.844073693836
702,330800,绿源电动车(坛石邮政所店),浙江省衢州市江山市江青线坛石邮政所,13757041274,118.50520058848,28.716551127897
703,330800,绿源电动车(建阳车行店),浙江省衢州市江山市虎山街道江山虎商品混凝土有限公司,13757001723,118.60744671817,28.739725311499
704,330800,绿源电动车(江碗线店),浙江省衢州市江山市江碗线,18368615168,118.66374763321,28.699704750001
705,330800,绿源电动车(兴华北街店),浙江省衢州市江山市兴华北街峡口镇华联超市,05704833368,118.53718773792,28.474865583212
706,330800,绿源电动车(新兴街店),浙江省衢州市江山市新兴街,05704383737,118.51310717467,28.628142982316
707,330800,绿源电动车(环城西路10店),浙江省衢州市江山市环城西路134-136号南市街,05704963318,118.62712948202,28.734625841592
708,330800,绿源电动车(荷花中路专卖店),浙江省衢州市柯城区荷花中路180号,05703079123,118.88152063727,28.948493907173
709,330800,绿源电动车(白马街店),浙江省衢州市衢江区廿里站白马街99号,13575659479,118.83944959852,28.879000736292
710,330800,绿源电动车(峡川镇专卖店),浙江省衢州市衢江区富衢线峡川镇,13625802628,118.99783961437,29.148149541779
711,331000,绿源电动车(云西路专卖3店),浙江省台州市椒江区云西路22号,13073805269,121.43725569359,28.673046898887
712,331000,绿源电动车（三佳东路店）,浙江省台州市临海市三佳东路,057685902880,121.25527675243,28.928095646956
713,331000,绿源电动车(上马北路专卖店),浙江省台州市温岭市上马北路,13736556581,121.61306046652,28.284205224292
714,331000,绿源电动车(新大街店),浙江省台州市仙居县白塔镇新大街,057687013058,120.59502217059,28.759679828084
715,331000,绿源电动车(临石路店),浙江省台州市仙居县横溪镇山枣园村临石路46号,13958510005,120.47588769812,28.741268796759
716,331000,绿源电动车(城北西路店),浙江省台州市仙居县下各镇穿镇路427号,13967614882,120.85892647048,28.86426212767
717,331100,绿源电动车(电力路店),浙江省丽水市缙云县电力路78号,05783123717,120.08367617566,28.654690940364
718,331100,绿源电动车(人民街店),浙江省丽水市莲都区人民街201号人民街,15857827888,119.91793042437,28.46675060615
719,331100,绿源电动车(公园路7店),浙江省丽水市龙泉市公园路,05787081628,119.13385663444,28.07765303545
720,331100,绿源电动车(江滨路店),浙江省丽水市庆元县菇源路14号,05786128582,119.06414733289,27.62891785036
721,331100,绿源电动车(解放街店),浙江省丽水市莲都区解放街356号,05782201158,119.93080355324,28.453221800885
722,331100,绿源电动车(开发路店),浙江省丽水市莲都区开发路解放街645号,05782175970,119.93978573345,28.45331661478
723,331100,绿源电动车(东街店),浙江省丽水市遂昌县南街一弄一支弄5-1号至2号,,119.28329081865,28.595689449899
724,331100,绿源电动车(石练镇店),浙江省丽水市遂昌县三际线石练镇,15988026337,119.07169855982,28.50773136857
725,340100,绿源电动车(天山路店),安徽省合肥市包河区天山路洞庭湖路3086号,13295510099,117.30291373709,31.744171252984
726,340100,绿源电动车(葛大路专卖店),安徽省合肥市包河区淝河镇葛大路,18019920612,117.31825276326,31.815520147912
727,340100,绿源电动车(福州路店),安徽省合肥市包河区义城镇福州路,13075500046,117.30592674644,31.75076450804
728,340100,绿源电动车(合瓦路店),皖长丰县岗集镇合瓦路26号,,117.20494759291,31.964028435038
729,340100,绿源电动车(长淮路专卖店),安徽省合肥市长丰县长淮路117号,055166665088,117.17643390909,32.481640559791
730,340100,绿源电动车(庄墓镇店),安徽省合肥市长丰县庄墓镇,055166575588,117.13097449391,32.353852279146
731,340100,绿源电动车(青年北路店),安徽省合肥市肥西县青年北路2号,055168840151,117.17187609665,31.728948602079
732,340100,绿源电动车(青龙潭路与人民路交叉口店),安徽省合肥市肥西县青龙潭路与人民路交叉口,17318522228,117.18295784584,31.724750562991
733,340100,绿源电动车(裴岗街道店),安徽省合肥市庐江县白湖镇裴岗街道,18556579583,117.40846141646,31.226521033519
734,340100,绿源电动车(白山镇店),安徽省合肥市庐江县白山镇,13335655370,117.39837296094,31.467128764785
735,340100,绿源电动车(戴桥街道店),安徽省庐江县白山镇戴桥街道76号,15255634675,117.35597804148,31.41404336634
736,340100,绿源电动车(矾山镇店),安徽省合肥市庐江县矾山镇,18019578267,117.43263471814,31.107592456075
737,340100,绿源电动车(矾山刘屯店),安徽省合肥市庐江县071县道矾山刘屯,13083413288,117.45765265756,31.050751157868
738,340100,绿源电动车(矾山镇李德江店),安徽省合肥市庐江县086县道矾山镇,13856568512,117.39362704914,31.029543748717
739,340100,绿源电动车(杭头乡店),安徽省合肥市庐江县白湖镇杭头乡,15255632781,117.50492716172,31.178513578057
740,340100,绿源电动车(新街三叉路店),安徽省庐江县柯坦镇新街三叉路口,,117.29291905363,31.269152554158
741,340100,绿源电动车(柯坦镇店),安徽省合肥市庐江县柯坦镇陈埠社区,13966379135,117.17814334086,31.228928571323
742,340100,绿源电动车(乐桥镇店),安徽省合肥市庐江县乐桥镇098县道,055187767778,117.19050196924,31.146920326072
743,340100,绿源电动车(缺口村店),安徽省合肥市庐江县龙桥镇缺口村,13865232826,117.44570252801,31.15684033429
744,340100,绿源电动车（周瑜大道店）,安徽省合肥市庐江县周瑜大道,13696785943,117.31362835062,31.249216277911
745,340100,绿源电动车(越城中路店),安徽省合肥市庐江县越城中路,055187321958,117.29263401502,31.255707491137
746,340100,绿源电动车(罗河镇专卖店),安徽省合肥市庐江县罗河镇鸿运酒楼,13675653377,117.29143041627,31.017817025529
747,340100,绿源电动车(泥河镇专卖店),安徽省合肥市庐江县泥河镇绿源电动车专卖店,13965430775,117.32857271175,31.090743415951
748,340100,绿源电动车(庐巢路店),安徽庐江县盛桥镇庐巢路盛桥中学对面,18756539410,117.50794323639,31.399383250304
749,340100,绿源电动车(汤池镇店),安徽省合肥市庐江县汤池镇,18956565416,117.10435644568,31.33891886459
750,340100,绿源电动车(长岗街道店),安徽省合肥市庐江县万山镇长岗街道,13696763681,117.21852842971,31.30646667914
751,340100,绿源电动车(冶父山镇店),安徽省合肥市庐江县冶父山镇石山社区,13335658968,117.45310093159,31.352319842593
752,340100,绿源电动车(蒙城路店),安徽省合肥市庐阳区蒙城路,13956039306,117.28236535707,31.871428701043
753,340100,绿源电动车（南一环路专卖店）,安徽省合肥市包河区南一环路,055164651757,117.29450450228,31.854473212437
754,340100,绿源电动车(清潭路店),合肥市滨湖新区清潭路圣科工业园门面方110号路基亚电动车,,117.34798989338,31.897575492421
755,340100,绿源电动车(海恒社区专卖店),安徽省合肥市蜀山区海恒社区管理委员会,18949863823,117.26941923371,31.778688047341
756,340100,绿源电动车(井岗镇店),安徽省合肥市蜀山区井岗镇十里庙美乐园广场,15056082266,117.22146222066,31.865383593116
757,340100,绿源电动车(合作化南路店),安徽省合肥市蜀山区五里墩街道合作化南路安徽大学(龙河校区),055164661035,117.25731260075,31.85194412941
758,340100,绿源电动车(旺兴商业街店),安徽省合肥市蜀山区小庙镇旺兴商业街,13645602771,117.02990782253,31.853864817872
759,340100,绿源电动车(铜陵路店),安徽省合肥市瑶海区铜陵路,15956569446,117.33085848668,31.890945589446
760,340100,绿源电动车(和平路店),安徽省合肥市瑶海区大兴镇和平路百大周谷堆农产品国际物流园,18805693083,117.39297525585,31.845766689501
761,340200,绿源电动车(上二街专卖店),安徽省芜湖市镜湖区上二街二街260号,05533861777,118.38269546242,31.330033079423
762,340200,绿源电动车(迎江大道专卖店),安徽省芜湖市芜湖鸠江区沈巷镇迎江大道农业银行对面绿源电动车,05535367046,118.23878240708,31.467245458135
763,340200,绿源电动车(春谷中路店),安徽省芜湖市南陵县籍山镇春谷中路258号,05536837653,118.33508517356,30.915292978421
764,340200,绿源电动车(公路街店),安徽省芜湖市三山区公路街181号,15955390008,118.23722552395,31.235211528713
765,340200,绿源电动车(银湖中路专卖店),安徽省芜湖市镜湖区银湖中路16-2号（大富新村门口兴业银行旁）,13956193082,118.37996247872,31.369796074301
766,340200,绿源电动车(福渡镇专卖店),安徽省芜湖市无为县福渡镇宏望公司1号,,117.96501609662,31.299935242634
767,340200,绿源电动车(赫店镇专卖店),安徽省芜湖市无为县043县道赫店镇,18856517886,117.84093375222,31.301311890896
768,340200,绿源电动车(洪巷乡专卖店),安徽省芜湖市无为县洪巷乡湖陇小学,15755333968,117.70459121875,31.142890977644
769,340200,绿源电动车(西大街339-341号专卖店),安徽省芜湖市无为县西大街339-341号,13485978555,117.91503690836,31.305126622302
770,340200,绿源电动车(西大街专卖5店),安徽省芜湖市无为县西大街,05536796677,117.91483372618,31.305268286246
771,340200,绿源电动车(通江大道专卖店),安徽省芜湖市鸠江区通江大道雍南镇,15395336197,118.27881447317,31.373873705601
772,340200,绿源电动车(方村镇店),安徽省芜湖市芜湖县方村镇,05538829145,118.47865589405,31.213551809746
773,340200,绿源电动车(六郎镇店),安徽省芜湖市芜湖县六郎镇,8515577,118.55442318014,31.246434096014
774,340200,绿源电动车(环城南路店),安徽省芜湖市芜湖县环城南路62号,05538829145,118.580219754,31.147099152893
775,340200,绿源电动车(南经二路店),安徽省芜湖市弋江区南经二路白马街道金石新城,13053269637,118.38717684691,31.195013797334
776,340300,绿源电动车(东风北路专卖店),安徽省蚌埠市固镇县东风北路谷阳花园对面,05526011088,117.33048764252,33.327120399931
777,340300,绿源电动车(禹王中路店),安徽省蚌埠市怀远县禹王中路禹王花园楼下,05528222288,117.19873624467,32.966150806435
778,340300,绿源电动车(国防路店),安徽省蚌埠市五河县国防路实验小学楼下,05525036135,117.89801659882,33.15079794777
779,340400,绿源电动车(烟草局店),安徽省淮南市大通区烟草局斜对面1号,,117.05810410534,32.64265690877
780,340400,绿源电动车(桂集镇店),安徽省淮南市凤台县308省道桂集镇,18255490666,116.61373871915,32.781713294484
781,340400,绿源电动车(体育馆西门店),安徽省淮南市凤台县体育馆西门（内向北100米）,05548628028,116.70681752007,32.718048763873
782,340400,绿源电动车(州来北路店),安徽省淮南市凤台县州来路城北桥南150米路西,05548628028,116.72483804073,32.719896100676
783,340400,绿源电动车(刘集镇店),安徽省淮南市凤台县刘集镇,18955453446,116.67502568517,32.71268910834
784,340400,绿源电动车(兴湖路店),安徽省淮南市凤台县毛集区毛集镇兴湖路,18755466066,116.63949275604,32.654277261062
785,340400,绿源电动车(钱庙乡店),安徽省淮南市凤台县024县道钱庙乡,13095544596,116.49310254095,32.826255929503
786,340400,绿源电动车(新集镇店),安徽省淮南市凤台县025县道新集镇花家岗,18755401711,116.5613131172,32.728339633943
787,340400,绿源电动车(高皇镇店),安徽省淮南市潘集区高皇镇,13083465329,117.0015123625,32.717456488749
788,340400,绿源电动车(胡集村店),安徽省淮南市潘集区高皇镇胡集村,13170206449,116.97209338671,32.697958616975
789,340400,绿源电动车(汽车站旁店),安徽省淮南市潘集区汽车站旁244号,,116.81703320202,32.791615304451
790,340400,绿源电动车(成铺化肥厂店),安徽淮南田家庵区安成镇成铺化肥厂五工地1号,13155412456,116.97106838075,32.637082997342
791,340400,绿源电动车(大孤堆集店),安徽省淮南市大孤堆集206国道旁士多车行    ,13966464000,117.02507592461,32.508889323561
792,340400,绿源电动车(蔡新南路店),安徽省淮南市谢家集区蔡新南路,13855472535,116.87233653084,32.606228892939
793,340500,绿源电动车(河东路专卖店),安徽省马鞍山市博望区河东路59号丹阳镇,05556916258,118.73302168162,31.632732595504
794,340500,绿源电动车(提署路店),安徽省马鞍山市当涂县提署西路5-7号,05556714049,118.49300349738,31.561020594731
795,340500,绿源电动车(石桥镇专卖店),安徽省马鞍山市当涂县017县道石桥镇,13033115055,118.60930399965,31.439797746173
796,340500,绿源电动车(胜利路店),安徽马鞍山市当涂县乌溪镇胜利路8号,13855574850,118.66606410126,31.31598917402
797,340500,绿源电动车(华阳西路专卖店),安徽省马鞍山市含山县华阳西路11号华阳西路,05554317880,118.10517015991,31.726346201192
798,340500,绿源电动车(紫霞路专卖店),安徽省马鞍山市雨山区湖西路,13013102812,118.50569213942,31.681116916013
799,340500,绿源电动车(红旗北路专卖店),安徽省马鞍山市雨山区红旗北路50-1号,05552616003,118.4965912015,31.696335929302
800,340500,绿源电动车(南山大道店),安徽省马鞍山市雨山区南山大道62号,13865602412,118.59517512404,31.660851405085
801,340500,绿源电动车(石山路店),安徽省马鞍山市雨山区石山路向山镇,05553105218,118.60083166566,31.667597701501
802,340700,绿源电动车(会宫镇店),安徽省铜陵市枞阳县会宫镇,15555690588,117.26350163836,30.839175611028
803,340700,绿源电动车(淮河大道店),安徽省铜陵市铜官山区淮河大道北段,05622850155,117.81988810562,30.939959088654
804,340700,绿源电动车(顺安镇店),安徽省铜陵市义安区顺安镇凝香街20号,13856290161,117.95570876259,30.952158377771
805,340800,绿源电动车(海口镇店),安徽省安庆市大观区海口镇,13083180558,116.95058603146,30.483496373452
806,340800,绿源电动车(稼先路店),安徽省安庆市怀宁县稼先路174号,05565169856,116.83836997567,30.735434742849
807,340800,绿源电动车(洪铺镇店),安徽省安庆市怀宁县002县道洪铺镇,13865165933,116.8570884132,30.534140596711
808,340800,绿源电动车(枫林社区专卖店),安徽省安庆市怀宁县马庙镇枫林社区,13033170410,116.77443858833,30.735961649821
809,340800,绿源电动车(舒州西路店),安徽省安庆市潜山县舒州西路1045号,8920418,116.57270235194,30.640779543465
810,340800,绿源电动车(育才路专卖店),安徽省安庆市育才路恒大绿洲三期16号楼111号店面,17705566667,117.10926253493,30.525909708868
811,340800,绿源电动车（眠山南路专卖店）,安徽省安庆市宜秀区龙眠山南路,05565309909,117.08130440805,30.547023565685
812,340800,绿源电动车(纺织南路店),安徽省安庆市大观区纺织南路,05565235567,117.05336239549,30.527592794124
813,340800,绿源电动车(纺织西路服务站),安徽省安庆市大观区纺织西路华茂1958C120,05565547289,117.05415994239,30.528049534815
814,340800,绿源电动车(陈汉乡专卖店),安徽省安庆市宿松县陈汉乡,15357356388,116.02042017279,30.344805895521
815,340800,绿源电动车（富康路专卖店）,安徽省安庆市宿松县富康路118号富康路2店,15357389205,116.12762879613,30.168821969868
816,340800,绿源电动车(赤土岭店),安徽省安庆市太湖县赤土岭,13359041697,116.32498286692,30.474807995411
817,340800,绿源电动车(城西乡专卖店),安徽省安庆市太湖县城西乡,13866621592,116.27219735677,30.423579399053
818,340800,绿源电动车(南山路店),安徽省安庆市桐城市南山路105号,05566201228,116.96725205888,31.050220612941
819,340800,绿源电动车(香铺街专卖店),安徽省安庆桐城市香铺镇香铺街1号,,116.95092148081,30.894277014163
820,340800,绿源电动车(华阳大道店),安徽省安庆市望江县华阳大道新桥头,05567186648,116.70151417427,30.123647112498
821,340800,绿源电动车(雷池乡店),安徽省安庆市望江县雷池乡,05565547289,116.8185344087,30.150607292407
822,340800,绿源电动车(建设西路店),安徽省安庆市岳西县建设西路59号,05562185769,116.35888389946,30.853443747855
823,341000,绿源电动车(永佳大道店),安徽省黄山市徽州区永佳大道530号,05592130988,118.34972949303,29.824707415312
824,341000,绿源电动车(芙蓉路店),安徽省黄山市屯溪区新潭镇梅林经济开发区芙蓉路6-58-59号,13865598244,118.26704891116,29.787247186085
825,341000,绿源电动车(延安路专卖店),安徽省黄山市屯溪区延安路74-9号,05592526887,118.31531162881,29.716388637848
826,341000,绿源电动车(徽州路专卖店),安徽省黄山市歙县歙县河西印象徽州37幢S1003-S1004号(义乌国际商贸城旁),05592628822,118.43714195001,29.867776869286
827,341000,绿源电动车(新华书专卖店),安徽省黄山歙县王村镇新华书店对面,,118.40607177023,29.763743378895
828,341000,绿源电动车(雄村镇专卖店),安徽省黄山市歙县雄村镇,13033128269,118.44591252573,29.822827477725
829,341000,绿源电动车(齐云山西大道店),安徽省黄山市休宁县新宁广场齐云大道11幢5-6号,05597515668,118.1880839024,29.79659791663
830,341000,绿源电动车(齐云山西大道服务站),安徽省黄山市休宁县齐云山西大道155号齐云山西大道,15055988677,118.18798412326,29.796536787702
831,341100,绿源电动车(楼西街店),安徽省滁州市凤阳县楼西街114号,05506729611,117.56598953954,32.869309865652
832,341100,绿源电动车(纬武路店),安徽省滁州市凤阳县武店镇纬武路112号,,117.29891229533,32.701741331885
833,341100,绿源电动车(奇辉东路店),安徽来安县半塔镇奇辉东路21号,,118.60499032488,32.681902207152
834,341100,绿源电动车(城河路店),安徽省滁州市来安县城河路,13955027321,118.43770758594,32.456835773273
835,341100,绿源电动车(鼓楼街专卖店),安徽省滁州市来安县鼓楼街85号,05502365378,118.43780834719,32.456573358443
836,341100,绿源电动车(池河大道店),安徽省滁州市明光市池河大道336号,05508030528,118.00443564698,32.781623352575
837,341100,绿源电动车(吴敬梓路专卖店),安徽省滁州市全椒县吴敬梓路339号吴敬梓路,05505016011,118.28009152638,32.104258019123
838,341100,绿源电动车(天长西路专卖店),安徽省滁州市琅琊区天长西路33号,05503087737,118.3100447115,32.310579779899
839,341100,绿源电动车(丰乐大道专卖店),安徽省滁州市琅琊区丰乐大道710号,05502177678,118.31957984509,32.29519207231
840,341100,绿源电动车(石梁东路店),安徽省滁州市天长市石梁东路688号,18175218555,119.030722583,32.689200395751
841,341100,绿源电动车(富民路专卖店),安徽省滁州市天长市富民路仁和集镇,13514900737,119.1283441857,32.629354008724
842,341100,绿源电动车(十八集乡店),安徽省滁州市天长市十八集乡,13866940089,118.93055064326,32.687827609222
843,341100,绿源电动车（同心路专卖二店）,安徽省滁州市天长市天长街道同心路2店,15240001400,118.99984696269,32.678530742522
844,341100,绿源电动车(建设西路专卖店),安徽省滁州市天长市建设西路65-67号,05507039859,119.01264246886,32.695895215579
845,341100,绿源电动车(铜城镇店),安徽省滁州天长市铜城镇,18955096459,118.94158958661,32.899560497307
846,341200,绿源电动车(地城北路店),安徽省阜阳市阜南县地城北路290号,,115.59681404026,32.651009735626
847,341200,绿源电动车(田营镇店),安徽省阜阳市界首市田营镇农村信用社对面,05584931051,115.41152385759,33.216975737475
848,341200,绿源电动车（邢塘镇店）,安徽省阜阳市临泉县102省道邢塘镇,18355219878,115.32295557547,33.024184156954
849,341200,绿源电动车(插花镇店),安徽省阜阳市颍东区插花镇（博文幼儿园）,13511279202,116.03047502958,33.032743260929
850,341200,绿源电动车(半岗镇专卖店),安徽省阜阳市颍上县半岗镇,18756859697,116.20496224142,32.505513794515
851,341200,绿源电动车(黄桥镇店),安徽省阜阳市黄桥镇街道1号,,116.30510097344,32.756103310307
852,341200,绿源电动车(建颖乡专卖店),安徽省阜阳市颍上县建颖乡,,116.22905388848,32.748097174191
853,341200,绿源电动车(双集社区店),安徽省颍上县江店孜镇双集社区223号,13695588443,116.51106526872,32.634114502066
854,341200,绿源电动车(中心西街店),安徽省阜阳市颍上县中心西街,05584412022,116.26244273372,32.638920952672
855,341200,绿源电动车(夏桥镇店),安徽省阜阳市夏桥镇中学像北20米,15956809780,116.37507821061,32.648047224863
856,341200,绿源电动车(黄金海岸专卖店),安徽省阜阳市颍州区颍河西路181号,05582618667,115.83330443947,32.904927349248
857,341200,绿源电动车(华亿国际店),安徽省阜阳市颍州区颍河西路82号,05582618667,115.83139762733,32.905267320855
858,341300,绿源电动车(南关民族中学专卖店),安徽省宿州市砀山县南关310国道民族中学对面,05578886133,116.35492584427,34.424847185008
859,341300,绿源电动车(大庙乡店),安徽省宿州市灵璧县大庙乡小学东20米,15155737837,117.7154034876,33.766850453363
860,341300,绿源电动车(浍水路专卖店),安徽省宿州市埇桥区浍水路南关菜市2店,05573601113,116.98930322202,33.633013251704
861,341300,绿源电动车（环城南路专卖店）,安徽省宿州市埇桥区环城南路188号2店,13866589997,116.98274934817,33.642898318244
862,341300,绿源电动车(环城南路专卖1店),安徽省宿州市埇桥区环城南路128号,05573602216,116.98595076777,33.642888541415
863,341300,绿源电动车(三八街道服务站),安徽省宿州墉桥区三八街道雪峰小学附近,13855708065,116.98102464495,33.648112221123
864,341300,绿源电动车(人民路店),安徽省宿州市泗县人民路,05577014968,117.8908798773,33.487715441542
865,341300,绿源电动车(交通西路店),交通路西菜市场南东30米路北,05575039176,116.9467726433,34.186771205395
866,341300,绿源电动车(朱仙庄镇店),安徽省宿州市埇桥区朱仙庄镇镇政府东500米,,117.1110713719,33.617060066227
867,341400,坝镇综合门店,安徽省合肥市巢湖市坝镇镇南关路,055182320806,117.58506859437,31.318173172861
868,341400,绿源电动车(烔黄路店),安徽省合肥巢湖市烔炀镇烔黄路147号,13505651861,117.64011298917,31.688855706122
869,341400,绿源电动车(巢湖路专卖店),安徽省合肥市巢湖市巢湖中路212号,055182320806,117.87789870576,31.605090284123
870,341400,绿源电动车(农贸南路店),安徽省合肥市巢湖市柘皋镇农贸南路,05518319158,117.76217468031,31.777757357296
871,341500,绿源电动车(南街6店),安徽省六安市寿县安丰镇街道南街98号,05644661519,116.7448506121,32.172707367727
872,341500,绿源电动车(长集镇店),安徽省六安市霍邱县310省道长集镇,13865456252,116.17645346134,32.075807305742
873,341500,绿源电动车(西湖路专卖店),安徽省六安市霍邱县城关镇西湖北路,05646066918,116.28212688315,32.35851402163
874,341500,绿源电动车(石庙镇店),安徽省六安市霍邱县石庙镇,05646736733,115.94745217693,32.131542770895
875,341500,绿源电动车(孟集镇专卖店),安徽省六安市霍邱县霍邱县孟集镇,17756435958,116.4055009213,32.190048083541
876,341500,绿源电动车(光华大街店),安徽六安霍邱县姚李镇光华大街中段50号,,116.17905503263,31.827446728826
877,341500,绿源电动车（西皋街道店）,安徽省六安市霍邱县310省道众心镇西皋街道,18326370145,116.12338281219,31.972949000039
878,341500,绿源电动车(周集镇专卖店),安徽省六安市霍邱县周集镇绿源电动车,05646315766,116.00322894497,32.518621646456
879,341500,绿源电动车(毛坦厂镇店),安徽省六安市金安区毛坦厂镇3号,,116.57401627438,31.355484750926
880,341500,绿源电动车(思古潭街道店),安徽省六安市孙岗镇思古潭街道1号,,116.68300910349,31.598337820695
881,341500,绿源电动车(先生店乡店),安徽省六安市金安区先生店乡,18326477599,116.61019152793,31.72630923119
882,341500,绿源电动车(老街路店),安徽省六安市金安区新安镇老街路18号,,116.50590599549,31.854778183931
883,341500,绿源电动车(张店镇专卖店),安徽省六安市金安区张店镇,05643311580,116.60776838397,31.533697260006
884,341500,绿源电动车(正阳路店),安徽省六安市金安区中市街道正阳路,13516463199,116.54951160732,31.775209103691
885,341500,绿源电动车(姚李路专卖店),安徽省六安市金安区姚李路六安碧桂园,15956494060,116.5137660911,31.794392145268
886,341500,绿源电动车(磨子潭路专卖店),安徽省六安市裕安区磨子潭路21号,05643211030,116.49278576289,31.74730417033
887,341500,绿源电动车(皖西大市场店),安徽省六安市裕安区梅花大道皖西大市场,05643318189,116.48307015502,31.719530201182
888,341500,绿源电动车(四岔路店),安徽省淮南市寿县小甸镇四岔路口,13385646600,116.99208261639,32.255612996653
889,341500,绿源电动车(炎刘镇店),安徽省淮南市寿县炎刘镇北街66号,,116.88399345171,32.077415963926
890,341500,绿源电动车(十字路专卖店),安徽省淮南市寿县堰口镇十字路街道,15056424076,116.76059112768,32.306066363349
891,341500,绿源电动车(迎河镇店),安徽省淮南市寿县迎河镇,18712360943,116.54520894175,32.291769797705
892,341500,绿源电动车(众兴镇店),安徽省淮南市寿县众兴镇203省道6+1商务宾馆旁,15856488792,116.66835148385,32.091255937245
893,341500,绿源电动车(石岗镇店),安徽省六安市舒城县043县道石岗镇,13675614140,116.9378333678,31.494159097625
894,341500,绿源电动车(龙舒西路店),安徽省六安市舒城县龙舒西路明珠花园,13470880148,116.93956187842,31.464305687587
895,341500,绿源电动车(大黉水巷专卖3店),安徽省六安市舒城县大黉水巷金源步行街,05648664627,116.95453404935,31.4674502858
896,341500,绿源电动车(孔集镇店),安徽省六安市舒城县孔集镇,13965484356,117.0056652657,31.46155562663
897,341500,绿源电动车(马河口镇店),安徽省六安市舒城县206国道马河口镇,05648770103,116.95649217709,31.416948839786
898,341500,绿源电动车(阙店乡店),安徽省六安市舒城县阙店乡,15156493636,116.85734823766,31.311562839022
899,341500,绿源电动车(姚河大桥专卖店),安徽省六安市舒城县姚河大桥,13665642588,116.84839472407,31.259762074662
900,341500,绿源电动车(沿河大街店),安徽省六安市舒城县西汤池乡/镇沿河大街/路15号,,116.88997505984,31.242609430987
901,341500,绿源电动车（范家庵街道专卖店）,安徽省六安市先生店乡范家庵街道68号,,116.60806724966,31.677282704089
902,341500,绿源电动车(文华路店),安徽省六安市裕安区鼓楼街道文华路,05643311580,116.50646168955,31.772155679304
903,341500,绿源电动车(江家店镇店),六安市裕安区江家店镇010县道20号,,116.29406515812,31.823992681777
904,341500,绿源电动车(马家庵街店),安徽省六安市裕安区马家庵街道陈春银车行,05642866732,116.40165184988,31.704202224121
905,341500,绿源电动车(赵园村店),安徽省六安市新安镇赵园村新兴超市隔壁,,116.5079139299,31.760854250455
906,341600,绿源电动车(利达财富广场专卖店),安徽省亳州市利辛县五一路498号,05588805772,116.22094494388,33.148481644714
907,341700,绿源电动车(开发区店),安徽省池州市贵池区池州市开发区,15385374899,117.56799562869,30.697169699988
908,341700,绿源电动车(墩上街道专卖店),安徽省池州市墩上镇墩上街道1号,,117.72600240536,30.635990755349
909,341700,绿源电动车(观前镇店),安徽省池州市贵池区观前镇,13965944966,117.68089519992,30.700352355608
910,341700,绿源电动车(牌楼镇店),安徽省池州市贵池区牌楼镇,15357786673,117.30795501164,30.355418225953
911,341700,绿源电动车(秋浦西路专卖店),安徽省池州市贵池区秋浦西路316号,05662226968,117.48212038523,30.659797826062
912,341800,绿源电动车(誓节镇店),安徽省宣城市广德县誓节镇,13655667276,119.22965162255,30.946052650049
913,341800,绿源电动车(双桥路专卖店),安徽省宣城市广德县双桥路桃州镇,05636068020,119.4457387627,30.897611819297
914,341800,绿源电动车(太极大道店),安徽宣城市广德县太极大道桂花苑1号,05636028308,119.42891755387,30.902714560029
915,341800,绿源电动车(流洞村店),安徽省宣城市广德县新杭镇流洞村,13063246613,119.52942950294,31.035316623416
916,341800,绿源电动车(乌金大道店),安徽省宣城市广德县乌金大道新杭镇,05636086914,119.57352863654,31.074704490281
917,341800,绿源电动车(谢园西路专卖店),安徽省宣城市泾县谢园西路,05635020069,118.41817985206,30.696308549458
918,341800,绿源电动车(建平镇专卖店),安徽省宣城市郎溪县建平镇书香丽景商业街,05637011335,119.2022406323,31.135562209386
919,341800,绿源电动车(道港口镇店),安徽省宣城市宁国市049县道港口镇,15212703359,118.92283795251,30.733636324418
920,341800,绿源电动车(河沥溪镇专卖店),安徽省宣城市宁国市市府巷河沥溪镇,13865347370,119.01755276212,30.644768399286
921,341800,绿源电动车(胡乐镇店),安徽省宣城市宁国胡乐镇,05632168488,118.99138438442,30.627800206449
922,341800,绿源电动车(摇篮大道专卖店),安徽省宣城市宁国市摇篮大道梅林镇,13731931438,119.09333586873,30.568029051082
923,341800,绿源电动车(宁阳东路店),安徽省宣城市宁国市宁阳东路23号,05632168488,118.99117385083,30.627973130195
924,341800,绿源电动车(莲塘路店),安徽省宣城市宣州区鳌峰街道莲塘路,18010823396,118.72565534404,30.95205213082
925,341800,绿源电动车(金坝街道店),安徽省宣城市宣州区金坝镇金坝街道68号,,118.68295885169,30.88474572403
926,341800,绿源电动车（双溪开发区专卖店）,安徽省宣城市宣州区孙埠镇双溪开发区1号,,118.89688825929,30.905350549524
927,341800,绿源电动车(梅溪路专卖店),安徽省宣城市宣州区梅溪路75号,05632100888,118.76077009124,30.944538346256
928,341800,绿源电动车(状元北路专卖店),安徽省宣城市宣州区状元北路190号,05632100888,118.76159682091,30.956380997164
929,341800,绿源电动车(向阳街店),安徽省宣城市宣州区向阳街道桂花园小区,05632100888,118.74454002614,30.916364948288
930,350100,绿源电动车(沾泽村店),福建省福州市福清市江阴镇沾泽村南港大道,13055273737,119.32126153688,25.464973910863
931,350100,绿源电动车(龙锦路店),福建省福州市福清市龙田镇龙锦路71号,13788889373,119.46213442868,25.618374689667
932,350100,绿源电动车(凤山镇店),福建省福州市罗源县凤山镇永同信小区1-27号永同信花园,059126872168,119.56330241187,26.492774907804
933,350100,绿源电动车(淤溪镇店),福建省福州市闽侯县入城路,13705038111,119.16335526213,26.152134998637
934,350100,绿源电动车(邱阳东路店),福建省福州市闽侯县邱阳东路,059122820767,119.19249248005,26.083286378345
935,350100,绿源电动车(福飞北路3店),福建省福州市闽侯县国宾大道福飞北路32号,059123501787,119.20111487496,26.077492275636
936,350100,绿源电动车(闽侯县店),福建省福州市闽侯县117县道,059122812602,119.22643651048,25.974769022423
937,350100,绿源电动车(白马南路三保店),福建省福州市台江区白马南路,059183217806,119.30708374387,26.056840018031
938,350100,绿源电动车(六一中路店),福建省福州市台江区六一中路243号六一中路,059183272891,119.3260416867,26.07023532126
939,350100,绿源电动车(福飞南路专卖店),福建省福州市鼓楼区福飞南路213号,87899031,119.30490141913,26.12504678822
940,350100,绿源电动车(福飞北路3店),福建省福州市鼓楼区北二环西路28号屏山新村7号店面,87717629,119.30220357391,26.115083191184
941,350100,绿源电动车(麦园路专卖店),福建省福州市仓山区六一南路麦园路31号,059183566279,119.32798358383,26.048118403255
942,350200,绿源电动车(新兴路店),福建省厦门市翔安区新兴路168-170号,059586959681,118.25216625123,24.616565964945
943,350200,绿源电动车(新民大道店),福建省厦门市同安区新民大道,13003986636,118.13302471612,24.717947625803
944,350200,绿源电动车(巷南路店),福建省厦门市翔安区巷南路,15980955753,118.25744494182,24.664641131237
945,350200,绿源电动车(新霞南路店),福建省厦门市翔安区新圩镇新霞南路,15980955753,118.26263212324,24.742618213158
946,350200,绿源电动车(环城北路店),福建省厦门市同安区大同街道环城北路497-499号,05927133127,118.1589954929,24.742909206785
947,350200,绿源电动车(五显镇店),福建省厦门市同安区五显镇,13074899229,118.18709840595,24.747016441451
948,350200,绿源电动车(西柯路店),福建省厦门市同安区西柯镇西柯路口同集中路2246号,,118.14696507308,24.645762342224
949,350300,绿源电动车(埭里村店),福建省莆田市涵江区白塘镇埭里村（埭里小学旁）,05942526003,119.07669289972,25.478198245867
950,350300,绿源电动车(兴国东路店),福建省莆田市仙游县兴国东路,05948580191,118.71075753166,25.354270217477
951,350300,绿源电动车(涵华西路店),福建省莆田市涵江区涵华西路1428号,05943862809,119.10803310034,25.460838639307
952,350300,绿源电动车(涵梧路店),福建省莆田市涵江区涵梧路3号（红日大厦）,05943563111,119.12213572011,25.462521403775
953,350300,绿源电动车(江西路店),福建省莆田市涵江区江口镇锦江西路275号,05943616823,119.20466587345,25.490925527439
954,350300,绿源电动车(九鲤南街店),福建省莆田市仙游县榜头镇九鲤南街,05947712020,118.75605741118,25.423343701125
955,350300,绿源电动车(荔港大道店),福建省莆田市秀屿区荔港大道,05945861911,119.1031476744,25.30541315402
956,350300,绿源电动车(梅园东路店),福建省莆田市荔城区梅园东路756号,05942338550,119.02645470009,25.439302150673
957,350300,绿源电动车(西天尾镇店),福建省莆田市荔城区西天尾镇荔涵中大道,05942887265,119.05170149974,25.49588359664
958,350300,绿源电动车(枫江北街店),福建省莆田市仙游县枫亭镇枫江北街,05947695388,118.86737219063,25.257187947956
959,350400,绿源电动车(宝山路店),福建省三明市大田县宝山路144号河滨西路,13850870700,117.86006492197,25.69842911339
960,350400,绿源电动车(中山南路店),福建省三明市建宁县中山南路中山路11号,05983966228,116.85290991199,26.836254077462
961,350400,绿源电动车(七五西路店),福建省三明市尤溪县七五西路七五路85号,05985086989,118.18545591432,26.173275936843
962,350500,绿源电动车(东岭镇店),福建省泉州市惠安县东岭镇,059587876775,118.90704561034,24.986155620985
963,350500,绿源电动车(黄塘镇店),福建省泉州市惠安县黄塘镇双溪台湾城1号,13024871317,118.71194411704,25.027459977007
964,350500,绿源电动车(崇宏街店),福建省泉州市清濛开发区崇宏街131号,13003986636,118.54399532878,24.873033275018
965,350500,绿源电动车(仑苍镇店),福建省泉州市南安市仑苍镇,13799776869,118.2930995703,25.01494978826
966,350500,绿源电动车(梅山镇店),福建省泉州市南安市梅山镇蓉中村莱克文化院,,118.46900726002,25.119355788426
967,350500,绿源电动车(建设路店),福建省泉州市惠安县建设路建郡大厦11-13号,059686959681,118.80773579614,25.03628386985
968,350500,绿源电动车(群英南路店),福建省泉州市石狮市群英南路店178-188号,059586959681,118.63555707232,24.734999444851
969,350500,绿源电动车(西郊店),泉州市区西郊1-2号店面,,118.58498708086,24.928943018802
970,350500,绿源电动车(丰州公交站店),福建省泉州市丰州加彩市场307道丰州路,059586959681,118.55075850954,24.955099801898
971,350500,绿源电动车(田淮街专卖店),福建省泉州市丰泽区田淮街（电视台）,059528852151,118.61763543854,24.902548583918
972,350500,绿源电动车(中山南路店),福建省泉州市鲤城区中山南路327号,059528911828,118.59414485043,24.906079559312
973,350500,绿源电动车(万发街店),福建省泉州市洛江区万发街82号,059586959681,118.67376905201,24.95049996184
974,350500,绿源电动车(溪美街店),福建省泉州市南安市溪美街355号,059586959681,118.38867015865,24.970664148245
975,350500,绿源电动车(晋江清安路店),福建省泉州市晋江清安路,13808518386,118.55766413534,24.773736233842
976,350600,绿源电动车(英才路专卖店),福建省漳州市东山县西浦镇英才路,13605055827,117.42676412153,23.714787890299
977,350600,绿源电动车(铜亭街店),福建省漳州市东山县铜亭街,05965626000,117.52471972961,23.737063034499
978,350600,绿源电动车(中山路店),福建省漳州市华安县仙都镇中圳村中山路52号,13606951452,117.65493654,25.029900721938
979,350600,绿源电动车(榜山镇店),福建省漳州市龙海市榜山镇（雩林村村委会）,13860826311,117.76895627555,24.467625822339
980,350600,绿源电动车(浮宫镇店),福建省龙海市浮宫镇1号,,117.91805527095,24.374174466835
981,350600,绿源电动车(海澄镇店),福建省漳州市龙海市海澄镇（仓头小学旁）,13376912672,117.87268456806,24.406111740157
982,350600,绿源电动车(东美村店),福建省漳州市龙海市角美镇东美村（农商银行）,13709315337,117.82804745568,24.496362181839
983,350600,绿源电动车(石美村店),福建省漳州市龙海市南美镇石美村,13906069798,117.89014546618,24.508043941987
984,350600,绿源电动车(解放北路店),福建省漳州市龙海市解放北路1号,05966524178,117.82737701576,24.454759350284
985,350600,绿源电动车(人民路店),福建省漳州市南靖县人民路126号,15060557116,117.37933946783,24.517326538443
986,350600,绿源电动车(坂仔镇店),福建省漳州市平和县坂仔镇绿城大桥,13850543999,117.27356400207,24.293281656535
987,350600,绿源电动车(九峰镇店),福建省漳州市平和县九峰镇（明星双语幼儿园）,18960115828,117.02318553029,24.251174124679
988,350600,绿源电动车(南坑路店),福建省漳州市芗城区南坑路大同家园1栋D213门面,18006063275,117.66205827296,24.53126102167
989,350600,绿源电动车(胜利西路店),福建省漳州市芗城区胜利西路152号胜利西路,13960088994,117.64316510741,24.522718677963
990,350600,绿源电动车（丹霞路二店）,福建省漳州市龙文区丹霞路胜利路24号,05962966118,117.67817788824,24.519267674598
991,350600,绿源电动车(聚星路店),福建省漳州市云霄县陈岱镇聚星路76号,15006019099,117.41739504562,23.800198274379
992,350600,绿源电动车(宝城路专卖店),福建省漳州市云霄县宝城路35-39号,05966908667,117.33964786898,23.956434270312
993,350600,绿源电动车(佛昙镇店),福建省漳州市漳浦县佛昙镇（中海石油加油站旁）,13906069798,117.9274299283,24.201351704864
994,350600,绿源电动车(镇政府路店),福建省漳州市漳浦县旧镇镇政府路,15892001748,117.7151310012,24.054844191715
995,350700,绿源电动车(童游街道店),福建省南平市建阳区童游街道双虎家私(东桥东路),13559836496,118.12856079562,27.344859866392
996,350800,绿源电动车(环东路店),福建省龙岩市长汀县环东路,,116.37264988615,25.839235756705
997,350800,绿源电动车(东环路店),福建省龙岩市漳平市东环路,05977522353,117.43737734106,25.301065655289
998,350900,绿源电动车(鹤祥栖云东路店),福建省宁德市福安市鹤祥栖云东路85号,05936319488,119.64648278484,27.092378411894
999,350900,绿源电动车(鹤祥路专卖店),福建省宁德市福安市鹤祥路中段,05936955488,119.64717835153,27.091151315765
1000,350900,绿源电动车(虹桥路专卖店),福建省宁德市福安市赛岐镇虹桥路217号（镇政府斜对面）,05936978906,119.6841921444,26.974041048627
1001,350900,绿源电动车(中山南路6店),福建省宁德市福鼎市中山南路,05937823111,120.2224540011,27.321854436928
1002,350900,绿源电动车(蕉城南路后岗店),福建省宁德市蕉城区蕉城南路110号,05938997513,119.54819647623,26.642691225565
1003,350900,绿源电动车(鹤峰路店),福建省宁德市蕉城区鹤峰路107-108号,05932296163,119.52844219044,26.66184900396
1004,350900,绿源电动车(天湖东路专卖店),福建省宁德市蕉城区天湖东路5号侨兴路（万达影城对面）,05932867152,119.54688240009,26.658041860391
1005,350900,绿源电动车(东湖路店),福建省宁德市蕉城区东湖路禾丰商业城130-133号,05932867152,119.54010974645,26.667250650907
1006,350900,绿源电动车(河滨东路店),福建省宁德市柘荣县河滨东路112号,05938358111,119.9082977399,27.242062575819
1007,350902,绿源电动车(泉安中路店),福建省泉州晋江市泉安中路20号（江南大厦对面）,18905060423,118.57695512565,24.800667818393
1008,350902,绿源电动车(梧坑村店),福建省泉州市晋江龙湖镇梧坑村,059586959681,118.63111368396,24.709999495574
1009,350902,绿源电动车(英龙路店),福建省泉州市晋江市英林镇英龙路161号,059585494789,118.5924974853,24.642318785589
1010,360100,绿源电动车(沿河大道3店),江西省南昌市安义县蔚蓝嘉园1期沿河路,079183413720,115.56335247319,28.842169015638
1011,360100,绿源电动车(架桥镇店),江西省南昌市进贤县架桥镇（百姓康药店旁）,13879142693,116.08341973361,28.440613818099
1012,360100,绿源电动车(李渡大道店),江西省南昌市进贤县李渡大道462号,079185638805,116.17903290188,28.231707890085
1013,360100,绿源电动车(李渡大道二店),李渡大道金华广场对面,,116.18703361894,28.232737104841
1014,360100,绿源电动车(罗溪镇店),江西省南昌市进贤县罗溪镇（罗溪中心小学）,15879096810,116.16738834798,28.418029946378
1015,360100,绿源电动车(捉牛岗街道店),江西省南昌市进贤县民和镇捉牛岗街道（社区居委会旁）,15070830792,116.36738504871,28.37248182057
1016,360100,绿源电动车(胜利南路店),江西省南昌市进贤县胜利南路8号,18779118539,116.26891165106,28.369624533283
1017,360100,绿源电动车(进贤大道店),江西省南昌市进贤县进贤大道465号,079185662960,116.2673280188,28.373688237834
1018,360100,绿源电动车(七里乡店),江西省南昌市进贤县七里乡（中心小学）,15979017055,116.28139194511,28.450950933178
1019,360100,绿源电动车(赵埠村店),江西省南昌市进贤县三阳集乡211省道,13879109168,116.27553124411,28.571452989537
1020,360100,绿源电动车(温圳镇店),江西省南昌市进贤县温圳镇前进大道292号,15979080725,116.09642109832,28.358390036993
1021,360100,绿源电动车(下埠集乡店),江西省南昌市进贤县下埠集乡（邮政所旁）,13970908180,116.39189052405,28.316240997832
1022,360100,绿源电动车(衙前乡店),江西省南昌市进贤县衙前乡（汽车站旁）,13576998108,116.46399061758,28.291718616439
1023,360100,绿源电动车(富山街头店),江西省南昌市南昌县富山乡富山街,,115.86352720581,28.516276311923
1024,360100,绿源电动车(广福镇店),江西南昌县广福镇街道,,115.91793582622,28.37052802834
1025,360100,绿源电动车(农贸路店),江西南昌县泾口乡农贸路,,116.17299129765,28.653065225309
1026,360100,绿源电动车(芳草路店),江西省南昌市南昌县金沙大道2008号芳草路,079187092123,115.89530170405,28.591659633978
1027,360100,绿源电动车(武阳镇伍细保店),武阳镇街道中段,,116.02593039135,28.524010631164
1028,360100,绿源电动车(渡头东街店),南昌县渡头乡渡头东街,,116.10406130071,28.550859429755
1029,360100,绿源电动车(城南大道店),江西省南昌市青山湖区城南大道,18179131719,115.95125469999,28.607000537959
1030,360100,绿源电动车(洪城路专卖店),江西省南昌市西湖区洪城路197号洪城路,079188858987,115.90888753617,28.661508429501
1031,360100,绿源电动车(二七北路店),江西省南昌市东湖区二七北路185号,,115.92476995654,28.68364690777
1032,360100,绿源电动车(前进路店),江西省南昌市西湖区十字街街道抚河中路87号,079186408872,115.9045177027,28.663468383593
1033,360100,绿源电动车(江家甲桥店),江西省南昌市新建区江家甲桥,13870634072,115.89517781113,28.846549144212
1034,360100,绿源电动车(溪霞镇店),江西省南昌市新建区溪霞镇（水晶宫手机城）,13576027750,115.8564854101,28.861994725707
1035,360100,绿源电动车(燕归北路店),江西省南昌市进贤县文港镇燕归北路,85520052,116.13378007494,28.296357851377
1036,360200,绿源电动车(洪源商贸街店),江西省景德镇市浮梁县洪源镇洪源商贸街,13879888585,117.15326858966,29.328417039155
1037,360200,绿源电动车(大田村店),后港镇大田村,,117.12791637369,28.990146635992
1038,360200,绿源电动车(乐港镇店),江西省景德镇乐平市乐港镇,,117.11500925467,28.952017160482
1039,360200,绿源电动车(礼林镇店),江西省景德镇市乐平市礼林镇,15079859694,117.17382507226,28.868013687332
1040,360200,绿源电动车(廷鸾路店),江西省景德镇市乐平市众埠镇廷鸾路14O号,13479842700,117.30655719379,28.846401475057
1041,360200,绿源电动车(马鞍山路店),江西省景德镇市珠山区马鞍山路,07988229972,117.22625879143,29.296453701528
1042,360300,绿源电动车(湘东区店),江西省萍乡市湘东区320国道,13767872539,113.78855400383,27.65359772656
1043,360300,绿源电动车(坊楼镇店),江西省萍乡市莲花县坊楼镇九都大道,13635912168,113.94879162819,27.277814426633
1044,360300,绿源电动车(路口镇店),江西省萍乡市莲花县路口镇317省道,07997285866,114.10324551113,27.282889270441
1045,360300,绿源电动车(桃源路3店),江西省萍乡市莲花县桃源路教育园,07997211161,113.95166790659,27.13464981666
1046,360300,绿源电动车(桃源路3店),江西省萍乡市莲花县桃源路,,113.95176758884,27.134770719876
1047,360300,绿源电动车(宣风镇店),江西省萍乡市芦溪县宣风镇建设路（铁桥旁）,13879989758,114.13617874581,27.698512764648
1048,360300,绿源电动车(银凤路店),江西省萍乡市芦溪县银河镇银凤路银凤花园23栋,13635935335,114.1294123819,27.69625924731
1049,360300,绿源电动车(金陵西路店),江西省萍乡市安源区金陵西路268号,,113.86602903066,27.650319121472
1050,360300,绿源电动车(排上镇店),江西省萍乡市湘东区排上镇（镇政府旁）,15932882362,113.65476750516,27.532681596414
1051,360300,绿源电动车(湘东区老街店),江西省萍乡市湘东区峡山口街道桥南路,,113.75195327152,27.644635634193
1052,360400,绿源电动车(九岭路专卖店),江西省九江市德安县九岭路,07924335586,115.74444008791,29.307698473976
1053,360400,绿源电动车(渊明大道店),江西省九江市德安县宝塔乡渊明大道,07924335586,115.74483951737,29.307739025146
1054,360400,绿源电动车(文华路店),江西省九江市共青城县文华路,15879263458,115.80528461178,29.253347934988
1055,360400,绿源电动车(共青大道店),江西省九江市共青城市共青大道78号,07924342436,115.81270074169,29.255235131466
1056,360400,绿源电动车(石钟山大道店),江西省九江市湖口县石钟山大道,07926329539,116.25766320859,29.734918356596
1057,360400,绿源电动车(庐山西路专卖3店),江西省九江市九江县庐山西路74号,13807025624,115.90215880662,29.609391843916
1058,360400,绿源电动车(庐山西路专卖店),江西省九江市九江县庐山西路,13807025624,115.90214517741,29.609929538398
1059,360400,绿源电动车(十里街道店),江西九江濂溪区十里街道慧龙新城,,115.98993673148,29.690630437174
1060,360400,绿源电动车(白鹿大道店),江西省九江市星子县白鹿大道,18607027456,116.05166341251,29.466229412024
1061,360400,绿源电动车(定山镇店),定山镇,,116.42292594532,29.828551725231
1062,360400,绿源电动车(郭桥街店),江西省九江市彭泽县东升镇郭桥街,13970289303,116.70254444909,29.842991569642
1063,360400,绿源电动车(龙城大道店),江西省九江市彭泽县龙城大道,07925665811,116.55120392112,29.89223262328
1064,360400,绿源电动车(通江南路店),江西省九江市瑞昌市码头镇893乡道,13870206807,115.58493631703,29.83140806254
1065,360400,绿源电动车(人民南路店),江西省九江市瑞昌市人民南路28号,07924219993,115.67267406227,29.679459479206
1066,360400,绿源电动车(庐山路店),江西省九江市浔阳区庐山路393号,15374221016,115.98942991243,29.720658888517
1067,360400,绿源电动车(协和大道店),江西省九江市武宁县万福经济技术开发区协和大道,15879297288,115.14733470999,29.241171195108
1068,360400,绿源电动车(仁义路店),江西省九江市修水县仁义路,15979984606,114.11697403026,28.96036543153
1069,360400,绿源电动车(山口镇店),江西省九江市修水县山口镇,18270923205,114.47436392286,28.81609890075
1070,360400,绿源电动车(义宁大道店),江西省九江市修水县义宁大道,07927808150,114.56046756439,29.031034467998
1071,360400,绿源电动车(跃进门村店),江西省九江市永修县滩溪镇跃进门村,13879224765,115.63530440095,28.98892253506
1072,360400,绿源电动车(新城大道店),江西省九江市永修县新城大道,07923229882,115.8189802611,29.033391207205
1073,360400,绿源电动车(建昌大道店),江西省九江市永修县建昌大道,07923229882,115.81861143509,29.016404797691
1074,360400,绿源电动车(云山镇店),江西省九江市永修县105国道云山镇（医院对面）,13319451819,115.63795246917,29.060563287325
1075,360500,绿源电动车(锦龙路店),江西省新余市渝水区锦龙路电动车一条街绿源专卖店,07906223979,114.9414899516,27.813009215771
1076,360500,绿源电动车(北湖中路店),江西省新余市渝水区北湖中路33号（沙新路口）,13879018982,114.93518399133,27.829535675587
1077,360500,绿源电动车(龙潭洲路店),江西省新余市渝水区龙潭洲路,13879052450,114.95821414702,27.836024076005
1078,360600,绿源电动车(雄石路专卖店),江西省鹰潭市贵溪市雄石路42号,,117.22221001184,28.290520710845
1079,360600,绿源电动车(工业园区店),贵溪市工业园区内1号,,117.16594546607,28.27769983702
1080,360600,绿源电动车(河潭镇店),河潭镇邮局旁1号,,117.30893742127,28.371545482409
1081,360600,绿源电动车(鸿塘镇店),江西省鹰潭市贵溪市鸿塘镇,13870024051,117.02579674307,28.361116543238
1082,360600,绿源电动车(同兴路店),江西省鹰潭市贵溪市彭湾乡同兴路27号（农商银行斜对面）,13677017637,117.13492102747,28.098542317488
1083,360600,绿源电动车(泗沥镇店),泗沥镇农商银行对面1号,,117.22089630798,28.388246154221
1084,360600,绿源电动车(志光西路店),江西省鹰潭市贵溪县志光镇志光西路,15507013888,117.08226170504,28.361974088832
1085,360600,绿源电动车(正大路店),江西省鹰潭市月湖区正大街南路73号,07017020658,117.04558817593,28.243263739274
1086,360600,绿源电动车(下洪街道店),江西省鹰潭市余江县潢溪镇下洪街道,13870001833,116.89497394213,28.339533097584
1087,360600,绿源电动车(锦江镇店),江西鹰潭锦江镇十字路口红绿灯处,,116.92097274546,28.40579404653
1088,360600,绿源电动车(中童镇店),江西省鹰潭市余江县中童镇,13970177263,116.9730523874,28.31534957092
1089,360600,绿源电动车(府前路店),江西省鹰潭市月湖区府前路（鹰潭市委旁）,18770121768,117.07890298622,28.266738259641
1090,360700,绿源电动车(车头镇店),江西省赣州市安远县车头镇,13125368419,115.34588760182,25.199339608974
1091,360700,绿源电动车(天心镇店),江西省赣州市安远县天心镇105国道234号,,115.51394824243,25.404997506108
1092,360700,绿源电动车(九龙路店),江西省赣州市安远县九龙路,07973726710,115.39899613675,25.136908100764
1093,360700,绿源电动车(筠金路店),江西省赣州市会昌县筠门岭镇筠金路(丰客隆超市对面),15170742732,115.75804550792,25.248204315229
1094,360700,绿源电动车(水东大道店),江西省赣州市会昌县水东大道,07975628969,115.80034937298,25.608652202265
1095,360700,绿源电动车(滨江大道店),江西省赣州市龙南县滨江大道中段,15979850308,114.80011713851,24.913908053101
1096,360700,绿源电动车(浮石乡店),南康区浮石乡,,114.71503216735,25.5850056941
1097,360700,绿源电动车(镜坝镇龚东海店),南康区镜坝镇,,114.76803103213,25.712635486019
1098,360700,绿源电动车(金赣大道店),江西省赣州市南康区金赣大道,07976606092,114.76915779516,25.664736126756
1099,360700,绿源电动车(金赣大道服务站),江西省赣州市南康区金赣大道芙蓉花园B3-4号,07977143189,114.76884777845,25.664678135154
1100,360700,绿源电动车(龙岭镇店),江西省赣州市南康区龙岭镇,13361773185,114.81173843423,25.724950909388
1101,360700,绿源电动车(泰康西大道店),江西省赣州市南康区泰康西大道174号,15870746655,114.74687478345,25.65832549131
1102,360700,绿源电动车(鑫林街店),江西省赣州市章贡区潭口镇鑫林街18号,13237692739,114.8516613286,25.749572316475
1103,360700,绿源电动车(湛田乡店),江西省赣州市宁都县湛田乡（中心小学旁）,13576743062,116.17182087798,26.598584433007
1104,360700,绿源电动车(武阳镇杨长鹏专卖店),江西赣州瑞金武阳镇,,115.93098740226,25.772180537822
1105,360700,绿源电动车(绵水路店),江西省赣州市瑞金市绵水路47号,07972536000,116.04120422975,25.884602056717
1106,360700,绿源电动车(下西村路店),江西省赣州市上犹县下西村路143号,13320177198,114.54568027067,25.802369230056
1107,360700,绿源电动车(阳明中路专卖店),江西省赣州市信丰县阳明中路162号,07973310556,114.93882018564,25.389307656193
1108,360700,绿源电动车(星村专卖店),江西省赣州市信丰县西牛镇星村,15579780918,114.94104663149,25.456510051076
1109,360700,绿源电动车(西牛镇店),江西省赣州市信丰县西牛镇105国道,13576696697,114.89356381281,25.46198827929
1110,360700,绿源电动车(小河镇店),江西省赣州市信丰县小河镇,15979781628,114.85223532174,25.273654132961
1111,360700,绿源电动车(长安大道店),江西省赣州市寻乌县长安大道,07972836988,115.6501539939,24.970879588202
1112,360700,绿源电动车(西北大道店),江西省赣州市于都县西北大道,07976333822,115.41539982671,25.964362968024
1113,360700,绿源电动车(罗坳镇店),江西赣州于都罗坳镇,,115.30303534179,25.941757806635
1114,360700,绿源电动车(新陂乡店),江西省赣州市于都县新陂乡,07976205258,115.36091088459,25.87642434016
1115,360700,绿源电动车(环城路专卖3店),江西省赣州市章贡区环城路14号,07972192167,114.94194580216,25.85868993879
1116,360700,绿源电动车(杨坑菜场店),杨坑菜场旁,,114.86495559501,25.853973725208
1117,360700,绿源电动车(沙河工业园店),江西省赣州市章贡区沙河工业园（沙河中学对面）,13970784311,114.98552149806,25.831462278801
1118,360800,绿源电动车(甘洛乡店),江西省吉安市安福县甘洛乡,13879697623,114.59807246136,27.211921193644
1119,360800,绿源电动车(平都路店),江西省吉安市安福县平都路思成路35号,07967624989,114.6210508938,27.387387825619
1120,360800,绿源电动车(严田镇店),江西省吉安市安福县严田镇（心连心购物广场）,13879664872,114.38996053412,27.366207263514
1121,360800,绿源电动车(道南路店),江西省吉安市安福县洲湖镇道南路,13979639916,114.5332765084,27.165262546935
1122,360800,绿源电动车(永叔路店),江西省吉安市吉州区永叔路下后街45号,07967025668,114.99579325398,27.111356422216
1123,360800,绿源电动车(凤凰镇店),凤凰镇街道69号,,114.92898097497,26.976299344441
1124,360800,绿源电动车(官田镇店),江西省吉安市吉安县官田镇（卫生院旁）,13879696953,114.67440113007,27.064376173439
1125,360800,绿源电动车(梅塘镇店),梅塘镇街道,,114.82000281932,27.101602879448
1126,360800,绿源电动车(永和镇店),江西省吉安市吉安县永和镇（永和中学旁）,13479073769,115.0150043993,27.030718339433
1127,360800,绿源电动车(曾家街道店),江西吉安永和镇曾家街道55号,,115.01003174074,27.032329902096
1128,360800,绿源电动车(客家人超市店),吉水县金滩镇客家人超市隔壁1号,,115.12408634302,27.257214570447
1129,360800,绿源电动车(醪桥镇店),江西吉安吉水县醪桥镇,,115.15890958385,27.312626746724
1130,360800,绿源电动车(瓦埠村店),江西省吉安市吉州区长塘镇瓦埠村（高速桥三岔路口）,15970233995,115.00652831628,27.245621074656
1131,360800,绿源电动车(禾埠乡店),江西省吉安市吉州区禾埠乡,15279688375,114.94351521886,27.078319532553
1132,360800,绿源电动车(爱民路店),江西省吉安市吉州区曲濑镇爱民路,13755432053,114.87357845967,27.068561767331
1133,360800,绿源电动车(富滩镇店),江西吉安青原区富滩镇,,115.12808696144,27.01570018213
1134,360800,绿源电动车(青原步行街店),江西省吉安市青原区青原步行街c区东井冈路,18979653684,115.02090540498,27.096563071732
1135,360800,绿源电动车(芗城路店),江西省吉安市青原区文陂乡芗城路（聚仁超市旁）,13879641289,115.12342950736,26.951452539408
1136,360800,绿源电动车(值夏镇店),江西省吉安市青原区值夏镇马埠开发区A栋7-8号,07968481229,115.11205356165,26.990383900244
1137,360800,绿源电动车(碧洲镇店),江西省吉安市遂川县碧洲镇（碧洲中学对面）,13576640908,114.7148127505,26.367490422163
1138,360800,绿源电动车(爱民路二店),江西省吉安市遂川县草林镇爱民路（邮政储蓄银行旁）,13479621850,114.39748249035,26.259627584465
1139,360800,绿源电动车(川江路店),江西省吉安市遂川县龙川大道川江路12号,07967158608,114.52818627706,26.323911408288
1140,360800,绿源电动车(工农兵大道专卖店),江西省吉安市泰和县工农兵大道,07965338601,114.9023279173,26.797905751781
1141,360800,绿源电动车(诚信路店),江西省吉安市泰和县螺溪镇诚信路（镇政府附近）,15070637730,114.7848941156,26.877772839388
1142,360800,绿源电动车(沙村镇店),江西省吉安市泰和县沙村镇人民路,,115.07996516147,26.637240579981
1143,360800,绿源电动车(大桥村店),江西省吉安市泰和县塘洲镇大桥村,15170879994,114.8834666606,26.776644745909
1144,360800,绿源电动车(万合镇店),万合镇街道52号,,115.03705288132,26.898925954462
1145,360800,绿源电动车(文田镇店),江西省吉安市泰和县澄江镇105国道17,,114.92525132963,26.839156906362
1146,360800,绿源电动车(沿溪大道店),江西省吉安市泰和县沿溪大道,13479634682,114.97343981688,26.821781641838
1147,360800,绿源电动车(玉峡大道店),江西省吉安市峡江县玉峡大道,07963675987,115.32881821729,27.583802401394
1148,360800,绿源电动车(界埠镇店),江西省吉安市新干县界埠镇（十字路口）,15970224735,115.38884765061,27.77558760186
1149,360800,绿源电动车(麦斜镇店),江西省吉安市新干县麦斜镇（中心小学旁）,15979639298,115.50397159263,27.662064208943
1150,360800,绿源电动车(琴城路店),江西省吉安市新干县七琴镇琴城路（镇镇政府旁）,13879603640,115.61777218849,27.709786570526
1151,360800,绿源电动车(仰山未来城专卖二店),江西省吉安市永新县仰山未来城,15350359910,114.25515020239,26.986547326775
1152,360900,绿源电动车(狮山东大道店),江西省宜春市奉新县狮山东大道狮山西大道214号,13879573678,115.39221400064,28.711897298385
1153,360900,绿源电动车(八景镇店),江西省宜春市高安市八景镇（八景中学）,13755878632,115.49821975154,28.176955499414
1154,360900,绿源电动车(前乡店),江西宜春高安村前乡,,115.1440189091,28.472632228137
1155,360900,绿源电动车(锦水路店),筠阳街道锦水路51号门面,,115.37901852752,28.419054740137
1156,360900,绿源电动车(灰埠镇店),江西省宜春高安县灰埠镇老邮电局旁,,115.2600148741,28.298465331404
1157,360900,绿源电动车(龙潭镇店),江西省宜春市高安县龙潭镇,,115.25093575002,28.394719959013
1158,360900,绿源电动车(高安大道店),江西省宜春市高安市高安大道165号,,115.38351445181,28.435345013321
1159,360900,绿源电动车(桥南路3店),江西省宜春市高安市桥南路183号,07955216656,115.38875305126,28.420002042156
1160,360900,绿源电动车(石脑镇店),江西省宜春市高安市石脑镇,13576566320,115.30423506278,28.397412419012
1161,360900,绿源电动车(杨圩镇店),江西宜春高安杨圩镇,,115.16892169872,28.371739832092
1162,360900,绿源电动车(高湖镇店),江西宜春靖安高湖镇,,115.26906407294,28.91313165342
1163,360900,绿源电动车(南巷路店),江西省宜春市靖安县南巷路,07954654919,115.36785459742,28.860038380853
1164,360900,绿源电动车(白良镇店),江西省宜春市万载县白良镇（派出所旁）,18879562792,114.42294777208,28.206392558619
1165,360900,绿源电动车(兴业路店),江西省宜春市万载县罗城镇兴业路新桥头,13767583871,114.56745910114,28.287440138685
1166,360900,绿源电动车(朝霞路店),江西省宜春市万载县三兴镇朝霞路（鼎峰家具广场）,13133958622,114.47920485514,28.220658100992
1167,360900,绿源电动车(双桥镇店),江西省宜春市万载县双桥镇（双桥初中旁）,15879551870,114.31085458172,28.184372114349
1168,360900,绿源电动车(潭白路店),江西省宜春市万载县潭埠镇潭白路,13755825355,114.22026080223,28.123628300087
1169,360900,绿源电动车(阳乐大道店),江西省宜春市万载县阳乐大道363号,13576517740,114.4585407012,28.105569158564
1170,360900,绿源电动车(宝塔东路店),江西省宜春市万载县宝塔东路272号,07957101606,114.45633008527,28.10701932931
1171,360900,绿源电动车(城东路店),江西省宜春市万载县城东路,13607953588,114.46267814047,28.117330258357
1172,360900,绿源电动车(平和路店),江西省宜春市万载县株潭镇平和路296-298号,07958851369,114.17023831528,28.058519765061
1173,360900,绿源电动车(东门路店),江西省宜春市宜丰县商贸广场1栋6-8号,07952750588,114.80390045953,28.390199181663
1174,360900,绿源电动车(朝霞路店),宜春市彬江镇朝霞路1号,,114.55891329052,27.795704047764
1175,360900,绿源电动车(农民街店),江西宜春市慈化镇农民街,,114.03894641102,28.016800978443
1176,360900,绿源电动车(洪塘镇店),江西省宜春市洪塘镇邮政银行对面,,114.29992234302,27.907444178361
1177,360900,绿源电动车(金西街店),江西省宜春市袁州区金瑞镇金西街238号,13097058539,114.21112216725,27.929857103844
1178,360900,绿源电动车(新鹏路店),江西省宜春市袁州区新田乡新鹏路,13879564462,114.27256580339,27.827652861796
1179,360900,绿源电动车(朝阳路专卖店),江西省宜春市袁州区朝阳路,,114.38547635187,27.799973365116
1180,360900,绿源电动车(朝阳路专卖6店),江西省宜春市袁州区朝阳路二区B2-7号,07953583058,114.38440040374,27.799484788005
1181,360900,绿源电动车(新街店),宜春市竹亭镇新街1号,,114.09090074352,27.78182602299
1182,360900,绿源电动车（刘公庙新街店）,江西省樟树市刘公庙新街6号,7363586,115.32300357641,28.114972116073
1183,360900,绿源电动车(药都北大道店),江西省宜春市樟树市药都北大道11-13号,07957363595,115.55928683544,28.067770494188
1184,361000,绿源电动车(交通路4店),江西省抚州市崇仁县宝水大街,13507045388,116.06660662138,27.758968099655
1185,361000,绿源电动车(相山镇店),江西省抚州市崇仁县相山镇,13979445356,116.03995336949,27.561025923424
1186,361000,绿源电动车(星港湾店),江西省抚州市东乡区磷肥厂（星港湾）,18650675519,116.63098848974,28.242994445458
1187,361000,绿源电动车(龙山南路专卖3店),江西省抚州市东乡县龙山南路74号,07944220939,116.61041468947,28.235735832386
1188,361000,绿源电动车(沿江路4店),江西省抚州市广昌县沿江路爱莲林叶C33号,13767643828,116.33488621475,26.850708572463
1189,361000,绿源电动车(双塘镇店),双塘镇,,116.74193422463,28.045292403718
1190,361000,绿源电动车(日峰路店),江西省抚州市黎川县日峰路98号,15946918834,116.91794777026,27.297141252296
1191,361000,绿源电动车(环城南路专卖5店),江西省抚州市临川区环城南路147号,07948215177,116.37019654585,27.992978747052
1192,361000,绿源电动车(河滨路专卖3店),江西省抚州市临川区河滨路1栋18-20号,07947064508,116.36909312017,28.004262419368
1193,361000,绿源电动车(登高东路店),江西省抚州市南城县登高东路,,116.65137872705,27.570334286857
1194,361000,绿源电动车(交通路专卖5店),江西省抚州市南丰县交通路,07943202318,116.54051789222,27.217533919659
1195,361100,绿源电动车(创业北路店),江西省上饶市德兴市泗洲镇创业北路,13330041616,117.71549263683,29.057302333794
1196,361100,绿源电动车(香屯镇店),德兴市香屯镇,13767313805,117.55096167793,29.009133707539
1197,361100,绿源电动车(张潜大道店),江西省上饶市德兴市张潜大道,07937511717,117.59125103963,28.940194014117
1198,361100,绿源电动车（丰溪路店）,江西省上饶市广丰县丰溪路,18970331453,118.19540500161,28.445852992597
1199,361100,绿源电动车(丰溪路店),江西省上饶市广丰县丰溪路67号,07932653958,118.1966360676,28.445673315913
1200,361100,绿源电动车(人民大道店),江西省上饶市横峰县人民大道,,117.61451403309,28.417748577286
1201,361100,绿源电动车(港边乡店),江西省上饶市横峰县港边乡（乡卫生院隔壁）,15179332159,117.69892061817,28.467060627449
1202,361100,绿源电动车(莲荷乡店),江西省上饶市横峰县莲荷乡,13647037604,117.62444896485,28.399471655999
1203,361100,绿源电动车(上德公路专卖店),江西省上饶市横峰县青板乡（上德公路旁）,15307939950,117.57989650329,28.509803884967
1204,361100,绿源电动车(阳光大道店),江西省上饶市鄱阳县高家岭镇阳光大道红绿灯路口,18407839282,116.79850372875,29.171196511632
1205,361100,绿源电动车(侯家岗镇店),江西省上饶市鄱阳县侯家岗镇潼津大道,13979312540,116.85496819418,29.523278513598
1206,361100,绿源电动车(庙前乡店),江西省上饶市鄱阳县庙前乡,13698030298,116.76741469982,28.985870201315
1207,361100,绿源电动车(鄱阳镇店),江西省上饶市鄱阳县鄱阳镇（城北湖城学校旁）,18079363208,116.6977168163,29.018367262334
1208,361100,绿源电动车(新民路3店),江西省上饶市鄱阳县新民路,07936284115,116.67894721018,28.998184360483
1209,361100,绿源电动车(平安大道店),江西省上饶市鄱阳县平安大道（饶洲监狱）,13694850502,116.76978279311,28.798260320889
1210,361100,绿源电动车(油墩街店),江西省上饶市鄱阳县油墩街镇,15170362268,116.63477695032,29.404269081101
1211,361100,绿源电动车(油墩街南路店),江西省上饶市鄱阳县油墩街镇油墩街南路,13803595697,116.65201625861,29.378690742272
1212,361100,绿源电动车(复兴中路店),江西省上饶市铅山县复兴中路79号,18079317618,117.71945982676,28.313372237479
1213,361100,绿源电动车(蒋家村店),江西省上饶市铅山县新滩乡蒋家村,13979333203,117.66326329191,28.311379401592
1214,361100,绿源电动车(永杨路店),江西省上饶市铅山县永平镇永杨路,18770380468,117.77786857235,28.221049505412
1215,361100,绿源电动车(紫溪镇店),江西上饶县紫溪镇,,117.79406501446,28.076192091949
1216,361100,绿源电动车(茶亭镇专卖店),江西省上饶市上饶县旭鹅线茶亭镇,13320035288,117.9062221746,28.378692061522
1217,361100,绿源电动车(卫林车行店),江西省上饶市上饶县320国道董团乡,13870384098,117.75718596505,28.433328995978
1218,361100,绿源电动车(太平村店),江西省上饶市上饶县董团乡（太平村）,13979380945,117.83221730789,28.375197286877
1219,361100,绿源电动车(枫岭头镇店),江西省上饶市上饶县320国道枫岭头镇,15779375388,117.84443907435,28.466841086888
1220,361100,绿源电动车(湖村乡店),江西省上饶市上饶县湖村乡,13767345726,117.76458558441,28.529336006375
1221,361100,绿源电动车(步行街路店),江西省上饶市上饶县花厅镇步行街路口,13507039677,118.16259516435,28.298714595018
1222,361100,绿源电动车(紫阳大道店),江西省上饶市信州区紫阳大道D1栋137-140号,07938118889,117.98235412896,28.46715988907
1223,361100,绿源电动车(应家乡店),江西省上饶市上饶县应家乡,13879370269,118.02891454772,28.271383383383
1224,361100,绿源电动车(郑坊大道店),江西省上饶市上饶县郑坊大道,13870363898,117.89104744064,28.708684934262
1225,361100,绿源电动车(尊桥乡店),江西省上饶市上饶县尊桥乡（乡政府旁）,13767339935,117.97158351802,28.361613304143
1226,361100,绿源电动车(万昌大道店),江西省上饶市万年县万昌大道91号,13879377376,117.07599966232,28.69378796748
1227,361100,绿源电动车(乐安路店),江西省上饶市万年县乐安路,13755733755,116.87485936251,28.852991746004
1228,361100,绿源电动车(清华新街店),婺源县清华镇清华新街98号,,117.7870597291,29.421756521043
1229,361100,绿源电动车(茶乡东路店),江西省上饶市婺源县茶乡东路,13870330572,117.86905276949,29.264114921297
1230,361100,绿源电动车(城南路店),江西省上饶市婺源县城南路,13870330572,117.86409543138,29.247539524697
1231,361100,绿源电动车(朝阳乡店),江西省上饶市信州区朝阳乡七沙线,13979364605,118.07317303025,28.445093405466
1232,361100,绿源电动车(经济开发区店),江西省上饶市上饶县前山经济开发区,15970382828,117.90422462494,28.421575860736
1233,361100,绿源电动车(秦峰乡店),江西省上饶市信州区秦峰乡,13879333250,118.12213007456,28.539056368103
1234,361100,绿源电动车(夏布路店),江西省上饶市信州区夏布路,13479338852,118.10548221851,28.578080898225
1235,361100,绿源电动车(曹溪镇店),江西省上饶市弋阳县曹溪镇（曹溪中学旁）,13970385425,117.34502375034,28.706833895296
1236,361100,绿源电动车(圭峰镇店),江西省上饶市弋阳县圭峰镇（镇政府对面）,15946864168,117.34966749194,28.321295754189
1237,361100,绿源电动车(漆工大道店),江西省上饶市弋阳县漆工大道,07937115912,117.4439926057,28.418331754227
1238,361100,绿源电动车(南岩镇店),弋阳县南岩镇1号,,117.44890946389,28.397395054413
1239,361100,绿源电动车(杨桥村店),弋阳县漆工镇杨桥村1号,,117.50693183988,28.625055155449
1240,361100,绿源电动车(兴樟路店),江西省上饶市弋阳县樟树墩镇兴樟路,13397933488,117.465795549,28.542625738376
1241,361100,绿源电动车(朱坑镇店),江西省上饶市弋阳县朱坑镇320国道（永安驾校旁）,13755327905,117.52613361735,28.382688270545
1242,361100,绿源电动车(白马桥镇店),江西省上饶市余干县白马桥镇,15107038818,116.7366340217,28.645745042277
1243,361100,绿源电动车(中桥街店),江西省上饶市余干县古埠镇中桥街,15007038578,116.81180890861,28.717460471329
1244,361100,绿源电动车(禾斛岭镇店),江西省上饶市余干县禾斛岭镇,15970364882,116.60449866283,28.539726122513
1245,361100,绿源电动车(龙津镇店),江西省上饶市余干县洪家嘴乡龙津镇,13097396380,116.66151989005,28.657769840032
1246,361100,绿源电动车(黄金埠镇店),江西省上饶市余干县黄金埠镇,13426642808,116.82354393832,28.491140495213
1247,361100,绿源电动车(江埠乡店),江西省上饶市余干县江埠乡,13576363630,116.59142089885,28.637148287728
1248,361100,绿源电动车(枫港乡店),江西省上饶市余干县枫港乡,18770332613,116.6279344333,28.608539413509
1249,361100,绿源电动车(杨埠镇店),江西省上饶市余干县杨埠镇197乡道,,116.79945819821,28.6077422162
1250,361100,绿源电动车(沿湖路店),江西省上饶市余干县沿湖路,13879352767,116.70178589907,28.692369264236
1251,361100,绿源电动车(冰溪路店),江西省上饶市玉山县冰溪路,07932560036,118.25792267552,28.676254169585
1252,361100,绿源电动车(坞鹰乡店),江西省玉山县文城镇坞鹰乡1号,,118.21401554673,28.658170392187
1253,361100,绿源电动车(镇白桥村店),江西省上饶市玉山县下镇镇白桥村,18770373291,118.2578628429,28.67630372242
1254,361100,绿源电动车(樟村镇专卖店),江西省上饶市玉山县203省道樟村镇桥北,15350478092,117.97341671873,28.7820996902
1255,370100,绿源电动车(归德镇专卖店),山东济南归德镇商业街南首398号,,116.67812580005,36.490364349714
1256,370100,绿源电动车(曲堤镇专卖店),山东济南曲堤镇富民街13号,,117.29305780411,37.10825900021
1257,370100,绿源电动车(安城镇专卖店),山东省济南市平阴县安城镇220国道,05382682595,116.26927655637,36.158073720186
1258,370100,绿源电动车(东阿镇专卖店),山东省济南市平阴县东阿镇石姜线,053187625578,116.28809969134,36.180440185198
1259,370100,绿源电动车(黄河路专卖店),山东省济南市平阴县黄河路,053183106487,116.45963812804,36.28962036247
1260,370100,绿源电动车(玫瑰街专卖店),山东省济南市平阴县玫瑰街,18663738710,116.39459686645,36.243520772223
1261,370100,绿源电动车(济微路店),山东省济南市市中区济微路七贤镇绿源电动车,15588865356,116.95611027623,36.614386062827
1262,370100,绿源电动车(万寿路专卖店),山东省济南市市中区万寿路于玉兴路交叉口向南200米路西,13105310023,117.01327656139,36.607391904338
1263,370100,绿源电动车(西仙办公事处专卖二店),山东省济南市市中区十六里河镇西仙村,13475962268,116.99393290255,36.556467488211
1264,370100,绿源电动车(刁镇专卖店),山东省济南市章丘市刁镇321省道,13553169378,117.5524429393,36.866337970042
1265,370100,绿源电动车(圣井镇专卖店),山东省济南市章丘市圣井镇经十东路,13573176545,117.43601384614,36.679492013832
1266,370100,绿源电动车(相公镇专卖店),山东省济南市章丘市相公镇303县道,13954167680,117.53422591759,36.771040407125
1267,370100,绿源电动车(绣惠镇专卖店),山东省济南市章丘市绣惠镇,13406982352,117.51754394517,36.819046335201
1268,370100,绿源电动车(枣园镇专卖店),山东省济南市章丘市枣园大街,13969085768,117.47833161498,36.738212532645
1269,370200,绿源电动车(泊里镇专卖店),山东省青岛市黄岛区泊里镇藏马路121号泊里二路,13589393212,119.78433871175,35.707493835836
1270,370200,绿源电动车(王台镇专卖店),山东省青岛市胶州市王台镇环台北路70号环台北路,15865555267,120.01134724106,36.089762257782
1271,370200,绿源电动车(马店社区专卖店),山东省青岛市胶州市胶莱镇马店社区,13964225887,120.02180230187,36.391413112325
1272,370200,绿源电动车(九龙镇专卖店),山东省青岛市胶州市九龙镇营里路,13465863238,120.00924823406,36.177219510547
1273,370200,绿源电动车(铺集镇专卖店),山东省青岛市胶州市铺集镇217省道,13589212937,119.72203267196,36.129331568869
1274,370200,绿源电动车(营海镇专卖店),山东省青岛市胶州市营海镇爱民街,15963235072,120.0800893256,36.239487657317
1275,370200,绿源电动车(沈阳路专卖店),山东省青岛市市北区沈阳路75号沈阳支路,,120.36150977331,36.098971155397
1276,370200,绿源电动车(九水路店),山东省青岛市李沧区九水路39-13号,053288238757,120.43355466075,36.163444058945
1277,370300,绿源电动车(新城镇店),山东省淄博市桓台县321省道,05332628228,117.955298182,36.962120796556
1278,370300,绿源电动车(南定镇店),山东省淄博市张店区张南路149甲3号,18816101977,118.05406609199,36.75913196332
1279,370300,绿源电动车(松龄东路店),山东省淄博市淄川区松龄东路中国银行对面19-5-6,05335186811,117.97625820194,36.655618042602
1280,370400,绿源电动车(邾国路专卖店),山东省枣庄市山亭区山城街道邾国路,13969498429,117.47124473307,35.097097886817
1281,370400,绿源电动车(鲍沟镇专卖店),鲁枣庄市滕州鲍沟镇中心街1号,,117.16990935114,34.987455570462
1282,370400,绿源电动车(城头镇专卖店),鲁枣庄市滕州城头镇商业街1号,,117.32005092122,35.148683375872
1283,370400,绿源电动车(大坞镇店),山东省枣庄市滕州市大坞镇复兴街,06322303499,116.99859720504,35.126063106173
1284,370400,绿源电动车(龙阳镇店),山东省枣庄市滕州市京台高速公路龙阳老兵车行,15866214867,117.16938821807,35.162466476148
1285,370400,金泰嘉园销售门店,山东省枣庄市薛城区中和路,06324446768,117.2833958891,34.784298263509
1286,370400,绿源电动车(陶庄镇3店),山东省枣庄市薛城区陶庄镇中兴路,06324812345,117.3625266095,34.877011944435
1287,370600,绿源电动车(文兴路3店),山东省烟台市牟平区文兴路600号文兴路,05354337135,121.60674405437,37.386179519432
1288,370600,绿源电动车(刘家夼桥专卖店),山东省烟台市牟平区水道镇刘家夼桥,13256454646,121.50889474537,37.17441949053
1289,370600,绿源电动车(桃村镇专卖店),山东省烟台市栖霞市桃村镇西安路,13884650483,121.15965852082,37.18944478042
1290,370600,绿源电动车(长江路4店),山东省烟台市开发区长江路208号鑫源大厦楼下,05352160833,121.24539878885,37.568414083264
1291,370600,绿源电动车(机场路专卖店),山东省烟台市芝罘区机场路149号,13625358731,121.37121163223,37.515293064773
1292,370600,绿源电动车(芝罘屯路专卖店),山东省烟台市芝罘区芝罘屯路43号,13181518151,121.36702080361,37.563661964054
1293,370700,绿源电动车(民生东街专卖店),山东省潍坊市奎文区民生东街48号,15269665264,119.13173400553,36.707847961904
1294,370700,绿源电动车(朐山路专卖店),山东省潍坊市临朐县朐山路6008号,05363726788,118.53780597903,36.512012938845
1295,370700,绿源电动车(东高镇专卖店),山东省潍坊市青州市309国道,05363257508,118.44109649174,36.777996610853
1296,370700,绿源电动车(龙山路店),山东省潍坊市青州市龙山路556号,05363257508,118.49398167397,36.709516349134
1297,370700,绿源电动车(弥河镇专卖店),山东省潍坊市青州市弥河镇233省道,15910058458,118.54534567669,36.569956316679
1298,370800,绿源电动车(杨营镇专卖店),山东省济宁市梁山县杨营镇254省道,15069737868,115.95825267516,35.844030359778
1299,370800,绿源电动车(胡营社区专卖店),山东省济宁市任城区安居镇胡营社区,13953721294,116.52108202329,35.414203345533
1300,370800,绿源电动车(接庄街道专卖店),山东省济宁市任城区接庄镇接庄街道,05373988031,116.70166459965,35.385752613691
1301,370800,绿源电动车(古槐路专卖店),山东省济宁市任城区金城街道益民西区古槐路17号,13721903789,116.58725345405,35.428067626459
1302,370800,绿源电动车(北宿镇专卖店),济宁市邹城市北宿镇派出所对过1号,,116.993083543,35.39758037856
1303,370800,绿源电动车(西尚河村店),山东省济宁市邹城市城前镇西尚河村,13563763833,117.41999410535,35.440519025437
1304,370800,绿源电动车(运河路店),山东省济宁市任城区运河路,3988031,116.59512471688,35.410536744144
1305,370800,绿源电动车(运河路店),山东省济宁市任城区运河路46-1号,05373988031,116.59551650343,35.408249592537
1306,370800,绿源电动车(铁山路店),山东省济宁市邹城市铁山路265号,05373988031,116.97125052274,35.40896430524
1307,370800,绿源电动车(石桥镇专卖店),山东济宁任城区石桥镇绿源专卖,,116.71097792526,35.319655080751
1308,370800,绿源电动车(峄山镇店),山东省济宁市邹城市峄山镇104国道,05373988031,117.00206990115,35.307178879242
1309,370900,绿源电动车(满庄镇店),山东省泰安市岱岳区满庄镇泰星大街,15153856780,117.03010627629,36.08398577744
1310,370900,绿源电动车(山口镇店),山东省泰安市岱岳区山口镇中心大街,,117.27796044495,36.262591840212
1311,370900,绿源电动车(朱阳镇专卖店),泰安市朱阳镇卫生院对面,,117.34907787507,36.256695258146
1312,370900,慧昕粮油经销部销售门店,山东省泰安市东平县,05382215088,116.56457936278,35.997955637446
1313,370900,绿源电动车(夏伍新村专卖店),东平县接山乡夏伍新村,15908098398,116.58405791391,35.986719444828
1314,370900,绿源电动车（旧县大桥专卖店）,山东省泰安市泰山区旧县大桥,05387177258,117.20726767967,36.110811896557
1315,370900,绿源电动车（旧县乡专卖店）,东平县旧县乡街道西段,13953885780,116.25008174955,36.13377287149
1316,370900,绿源电动车(商老庄乡专卖店),东平县商老庄乡街道西,15953858312,116.10595411997,35.925048298898
1317,370900,绿源电动车(湖屯镇专卖店),山东省泰安市肥城市湖屯镇湖屯中学东邻,05383612629,116.59605890792,36.209152483976
1318,370900,绿源电动车(泰临路店),山东省泰安市肥城市泰临路58号,05383277966,116.776819164,36.19603347796
1319,370900,绿源电动车(孙伯镇专卖店),山东省泰安市肥城市孙伯镇牛孙路,05383780758,116.69570071827,35.968610004171
1320,370900,绿源电动车(桃园镇专卖店),山东省泰安市肥城市桃园镇250省道,05383561261,116.63844882629,36.149877861662
1321,370900,绿源电动车(磁窑镇专卖店),山东省泰安市宁阳县磁窑镇财源街南首路东,15854833366,117.1052223222,35.907259089596
1322,370900,绿源电动车(邱家店镇专卖店),山东省泰安市泰山区邱家店卸甲河桥,,117.26123129433,36.166304174486
1323,370900,绿源电动车(青年路专卖4店),山东省泰安市泰山区青年路22号,05388212778,117.13546144144,36.193125334955
1324,370900,绿源电动车(东都镇专卖店),新泰市东都镇西都社区,,117.72501024135,35.858462780085
1325,370900,绿源电动车(蒙馆路店),山东省泰安市新泰市楼德镇蒙馆路,015269854165,117.32323629309,35.865817643505
1326,370900,绿源电动车(泉沟镇专卖店),山东省泰安市新泰市泉沟镇莲花山路,05387532163,117.64868599088,35.989952894879
1327,370900,绿源电动车(天宝镇专卖店),山东省泰安市新泰市244省道,13665384006,117.37511405322,35.956302239668
1328,370900,绿源电动车(张庄镇专卖店),山东省泰安市新泰市008县道,13583885419,117.60631081723,35.95807315757
1329,370900,绿源电动车(羊流镇专卖店),山东省泰安市新泰市103省道,05387450335,117.52622447741,36.006632608598
1330,371100,绿源电动车(南湖镇专卖店),山东省日照市东港区南湖镇南湖大道,18206339089,119.35902083477,35.483711870301
1331,371100,绿源电动车(两城镇专卖店),山东省日照市东港区204国道,06338123457,119.57770855061,35.579736585932
1332,371100,绿源电动车(山东东路专卖店),山东省日照市东港区山东东路,06338222223,119.54970885892,35.438206696132
1333,371100,绿源电动车(海曲中路专卖店),山东省日照市东港区海曲中路,06338213636,119.47192162245,35.431415692431
1334,371100,绿源电动车(万斛路专卖店),山东省日照市岚山区万斛路77号,06332235923,119.32593056273,35.118537322602
1335,371100,绿源电动车(涛雒镇专卖二店),山东省日照市东港区涛雒镇小明星幼儿园,06338563685,119.37290545384,35.241530523121
1336,371100,绿源电动车(涛雒镇专卖店),山东省日照市东港区涛雒镇南店大桥,13561941366,119.38110380109,35.270623732874
1337,371100,绿源电动车(孙家村专卖店),山东省日照市东港区涛雒镇渔羊鲜酒楼,06338863668,119.39850144347,35.23688729937
1338,371100,绿源电动车(安庄镇店),山东省日照市莒县莒安路安庄镇政府南50米,13963303688,118.81371279473,35.814160655655
1339,371100,绿源电动车(库山镇专卖店),山东省日照市莒县库山镇孟双线,15963846116,118.97798833414,35.92378897018
1340,371100,绿源电动车(中楼镇专卖店),山东省日照市莒县中楼镇,13626335633,119.00629531957,35.407248632852
1341,371100,绿源电动车(玉泉二路专卖店),日照市岚山区玉泉二路公交公司对过1号,,119.35988250266,35.104752123946
1342,371100,绿源电动车(碑廓镇专卖店),山东省日照市岚山区碑廓镇碑廊中路,13468311333,119.18718708791,35.17520463331
1343,371100,绿源电动车(向阳路专卖店),山东省日照市东港区后村镇美尚宾馆婚宴大厅,13863340296,119.30008385944,35.390264335668
1344,371100,绿源电动车(虎山镇专卖店),山东省日照市岚山区虎山镇疏港大道,06338123456,119.34488993459,35.177119282943
1345,371100,日照市岚山区巨峰镇刘家庄村金港路1号,山东省日照市岚山区巨峰镇青赵线金港路交叉口,,119.27106052323,35.301445650741
1346,371100,绿源电动车(阿掖山南路专卖店),山东省日照市岚山区岚山头街道阿掖山南路甜园小区,06338522222,119.36508603672,35.114107611856
1347,371100,绿源电动车(童海二路专卖店),山东省日照市岚山区安岚大道童海二路,18863325266,119.37725668488,35.12280991972
1348,371300,绿源电动车(北伊村专卖店),山东省临沂市费县北伊村,18905499227,118.11335468293,35.250310611358
1349,371300,绿源电动车(八湖镇专卖店),河东区八湖镇十字路口西300米路南1号,13235391392,118.54400334887,35.192624511065
1350,371300,绿源电动车(刘店子乡专卖店),山东省临沂市河东区刘店子乡汤大线路,15866993986,118.58517384234,35.24877728686
1351,371300,绿源电动车(汤河镇专卖店),山东省临沂市河东区汤河镇程梅线,13853947865,118.56465730729,35.084359501499
1352,371300,绿源电动车(汤头镇专卖店),山东省临沂市河东区汤头镇中心十字路口东200米路南,13082660803,118.52536377789,35.272606255833
1353,371300,绿源电动车（金岭镇专卖店）,山东省临沂市兰陵县金岭镇卜庄,13153914789,118.07097340909,34.937481774068
1354,371300,绿源电动车(曹湾镇专卖店),山东省临沂市兰陵县向城镇曹湾村兴隆桥向东200米,,117.94806814549,34.80840406557
1355,371300,绿源电动车(兰陵镇专卖店),山东省临沂市兰陵县兰陵镇横山小学边上,13625397311,117.91742105149,34.732941892177
1356,371300,绿源电动车(芦柞镇专卖店),山东临沂苍山芦柞镇农机加油站北绿源专卖店1号,,118.08896008619,34.768546662077
1357,371300,绿源电动车(南桥镇专卖店),苍山县南桥镇绿源电动车专卖店1号,,118.00299307069,34.721189708542
1358,371300,绿源电动车(向城镇专卖店),山东临沂苍山向城镇杨丰龙车辆超市1号,,117.94489552905,34.855690672998
1359,371300,绿源电动车(中孙沟村专卖店),山东省临沂市兰山区半程镇中孙沟村,15065951018,118.3505121967,35.277020578744
1360,371300,绿源电动车(新桥村专卖店),山东省临沂市兰山区方城镇新桥村,15069938382,118.20140892387,35.2384491974
1361,371300,绿源电动车(银雀山路专卖店),山东省临沂市兰山区银雀山路与通达路交汇处西南角86号,05398169078,118.33516090742,35.066426724327
1362,371300,绿源电动车(李官镇专卖店),山东省临沂市兰山区李官镇镇政府东200米路北,13805495327,118.41917932762,35.278894553698
1363,371300,绿源电动车(店头镇专卖店),山东省临沂市临沭县店头镇官庄,05396972670,118.6305700787,34.791444424256
1364,371300,绿源电动车(新城路3店),山东省临沂市蒙阴县新城路,05394811856,117.96139276206,35.712298151096
1365,371300,绿源电动车(刘官庄村专卖店),山东省临沂市蒙阴县蒙阴镇刘官庄村,15264491937,118.03503511978,35.704187989503
1366,371300,绿源电动车(归昌乡客运站店),山东省临沂市郯城县刘瓦线归昌乡客运站,15963359609,118.2727903616,34.509000574869
1367,371300,绿源电动车(归义乡专卖店),山东省临沂市郯城县归义乡邮政局边,15965390400,118.40457716291,34.655239141671
1368,371300,绿源电动车(沙墩镇专卖店),郯城县沙墩镇医院东临1号,,118.38809028371,34.815485544306
1369,371300,绿源电动车(十里小学专卖店),山东省临沂市郯城县十里镇十里小学,15866418898,118.35892302569,34.686240508983
1370,371300,绿源电动车(新城村小学专卖店),郯城县新城村小学对面1号,,118.31689252861,34.740633836411
1371,371300,绿源电动车(建设路12店),山东省临沂市郯城县建设路129号,05396220171,118.35233622357,34.614368088354
1372,371300,绿源电动车(新村乡专卖店),郯城县新村乡十字路口南300米路东1号,,118.15303973497,34.587438729521
1373,371300,绿源电动车(小埠村专卖店),沂南县双候小埠村205国道11号,,118.20410235483,35.530052171596
1374,371300,绿源电动车(马站镇专卖店),山东省临沂市沂水县227省道,13853979232,118.75892497796,36.063968548846
1375,371300,绿源电动车(沙沟镇专卖店),山东省临沂市沂水县沙沟镇泮池村,05392381290,118.60558543991,36.079158833854
1376,371300,绿源电动车(许家湖镇专卖店),山东省临沂市沂水县许家湖镇227省道,15866416378,118.62833543662,35.729854770944
1377,371300,绿源电动车(长安中路店),山东省临沂市沂水县长安中路,05392259285,118.64444163172,35.787611223339
1378,371300,绿源电动车(小河路专卖店),山东省临沂市沂水县小河路,13854939508,118.63226832287,35.793865118984
1379,371600,绿源电动车(长山镇专卖店),山东省滨州市邹平县长山镇复兴路,4858483,117.87513920296,36.892161187681
1380,371600,绿源电动车(礼叁镇专卖店),山东省滨州市邹平县高新街道办事处礼叁镇市场东三路,13475431897,117.82563800608,36.884699558284
1381,371600,绿源电动车(魏纺路专卖店),山东省滨州市邹平县高新街道会仙二路291号魏纺路,05434892028,117.78173534346,36.889541062164
1382,371600,绿源电动车(罗家村专卖店),山东省滨州市邹平县246省道孙镇客运站对面罗家村,13561577577,117.73948990329,36.892845339815
1383,371700,绿源电动车(湘江路专卖店),山东省菏泽市曹县湘江路A12棟13-18号,05303893088,115.57538427484,34.843098121557
1384,371700,绿源电动车(魏湾镇专卖店),山东省菏泽市曹县魏湾镇中学东门,13475028111,115.37223262866,34.887159115123
1385,371700,绿源电动车(砖庙镇专卖店),山东省菏泽市曹县砖庙镇庄青路,17705409898,115.42571219572,34.949100356626
1386,371700,绿源电动车(胜利西路店),山东省菏泽市单县胜利西路西段路北,15865112998,116.08777648921,34.80114344438
1387,371700,绿源电动车(蔡堂镇专卖店),山东省菏泽市单县蔡堂镇351省道,15054681686,116.25282210208,34.642860878876
1388,371700,绿源电动车(黄岗镇专卖店),山东省菏泽市单县黄岗镇256省道,15020171859,116.05357019088,34.652461645119
1389,371700,绿源电动车(王庙镇店),山东省菏泽市单县龙中路,15163006214,116.19425924564,34.708806213077
1390,371700,绿源电动车(杨楼镇专卖店),山东省菏泽市单县杨楼镇万隆路,18005404966,116.20005639037,34.623575049724
1391,371700,绿源电动车(五四路3店),山东省菏泽市东明县五四路,18369032999,115.10209881111,35.298548452827
1392,371700,绿源电动车(码头南村街专卖店),山东省菏泽东明县码头南村街1号,,115.09610259931,35.295699502205
1393,371700,绿源电动车(左营乡店),山东省菏泽市鄄城县左营乡,15854000139,115.63638850821,35.700635748246
1394,371700,绿源电动车(丁里长镇专卖店),山东省菏泽市郓城县,15264088228,115.99757841253,35.537255343201
1395,371700,绿源电动车(黄安镇店),山东省菏泽市郓城县黄安镇黄北大街,15065083167,115.73780150751,35.467219541538
1396,371700,绿源电动车(水堡镇店),山东省菏泽市郓城县宋江路,13853043998,115.75245043275,35.634283437031
1397,371700,绿源电动车(金河路3店),山东省菏泽市郓城县金河路,05306777775,115.94092813118,35.599082284731
1398,371700,绿源电动车(玉皇庙镇店),山东省菏泽市郓城县玉皇庙镇,15865039345,115.81591314991,35.641525661005
1399,411600,绿源电动车(大桥北路3店),安徽省阜阳市界首市大桥北路263号人民路,05584832626,115.37078263386,33.265660675847
1400,411600,绿源电动车（人民路店）,安徽省阜阳市界首市人民路,05584832626,115.36563377622,33.266992118798
1401,411600,绿源电动车(付井镇店),河南省周口市沈丘县付井国税分局,03945322680,115.28468167829,33.276957617123
1402,411600,绿源电动车(周营乡店),河南省周口市沈丘县238省道,15938605433,115.21936938146,33.313945494535
1403,411600,绿源电动车(范集镇店),河南省周口市项城市奋进大道范集镇,18939402733,114.80977022246,33.321501288441
1404,411700,绿源电动车(挚地大道专卖店),河南省驻马店市平舆县挚地大道78号,18939679533,114.64688153407,32.966634279573
1405,410100,绿源电动车(嵩山路店),河南省郑州市登封市嵩山路,62877687,113.04026143442,34.452804343281
1406,410100,绿源电动车(少林大道店),河南省郑州市登封市少林大道250-5号,037162877687,113.03497132186,34.461591208712
1407,410100,绿源电动车(大金店镇店),河南省郑州市登封市大金店镇绿源专卖店,037162760098,112.97715264888,34.382783898387
1408,410100,绿源电动车(阳城大道店),河南省郑州市登封市阳城大道,62651396,113.15551784176,34.40192165156
1409,410100,绿源电动车(先锋路店),河南省郑州市二七区先锋路,15937168821,113.53872127484,34.714732620181
1410,410100,绿源电动车(政通路店),河南省郑州市二七区庆丰街50号政通路店,,113.65763737368,34.731734325714
1411,410100,绿源电动车(航海东路店),河南省郑州市管城回族区航海东路159号,,113.70204982715,34.727098182882
1412,410100,绿源电动车(京广中路店),河南省郑州市二七区京广中路,037168589303,113.66331304726,34.742958578743
1413,410100,绿源电动车(黄河路店),河南省郑州市金水区黄河路,037155399382,113.6769493621,34.782026939113
1414,410100,绿源电动车(通桥路店),河南省郑州市巩义市通桥路果品批发市场,15038033611,112.9754234597,34.761008859084
1415,410100,绿源电动车(站街镇店),河南省郑州市巩义市052县道站街镇镇政府附近,13137711230,113.0661541801,34.795244409098
1416,410100,绿源电动车(新安路店),河南省郑州市上街区新安路,037168934027,113.30267892295,34.821139603756
1417,410100,绿源电动车(华南城专卖店),河南省郑州市新郑市华南城三路,18336540337,113.74194779839,34.605001129895
1418,410100,绿源电动车(新建路店),河南省郑州市新郑市新建路339号新建路,13298141801,113.73927811805,34.404152716897
1419,410100,绿源电动车(万山路店),河南省郑州市荥阳市索河街道万山路,18838119000,113.38907118173,34.794725014241
1420,410100,绿源电动车(毛庄村店),河南省郑州市中牟县万滩镇毛庄村,15137198191,113.96458320646,34.875087376072
1421,410200,绿源电动车(仙人庄村店),开封市古楼区开尉路仙人庄村188号,13723258549,114.3120451894,34.706529864955
1422,410200,绿源电动车(祥符区店),河南省开封市祥符区220国道,15837891897,114.68439270172,34.834927516544
1423,410200,绿源电动车(白庄乡店),河南省开封市祥符区白庄乡,13839957361,114.19966636393,34.672676403521
1424,410200,绿源电动车(牛庄村专卖店),开封市龙亭区柳园口乡牛庄村93号,13781175433,114.36789788873,34.865042172754
1425,410200,绿源电动车(北郊乡店),开封市龙亭区北郊乡集贸市场对面,15938563339,114.36903579628,34.830293184004
1426,410200,绿源电动车(板木大街店),开封市杞县板木乡板木大街南段门牌58号,18736900259,114.79603951738,34.305832817869
1427,410200,绿源电动车(五里河乡店),河南省开封市杞县106国道,15890943249,114.79861028266,34.523062290392
1428,410200,绿源电动车(圉镇镇专卖店),河南省开封市杞县213省道圉镇镇,15515216884,114.72224716136,34.346448668037
1429,410200,绿源电动车(大营镇店),开封市尉氏县大营镇东段67号,,114.21396694622,34.413940761747
1430,410200,绿源电动车(道齐寨乡店),河南省开封市顺河回族区018县道齐寨乡,15837887883,114.44430554826,34.853043807532
1431,410200,绿源电动车(宋门关大街店),河南省开封市顺河回族区宋门关大街,037122670610,114.37759494207,34.792396518673
1432,410200,绿源电动车(公园路店),河南省开封市顺河回族区公园路,15938563339,114.37920677392,34.794292393322
1433,410200,绿源电动车(大梁路店),河南省开封市鼓楼区大梁路8号楼大梁路,13323781791,114.33471501783,34.807605196994
1434,410200,绿源电动车(岗李乡店),河南省开封市尉氏县岗李乡中心社区中段58号,,113.92793144699,34.374983256184
1435,410200,绿源电动车(南郊乡店),开封市禹王台区南郊乡机场东路1507号,15225481110,114.36595758298,34.768639543182
1436,410300,绿源电动车（兴宁中路二店）,河南省洛阳市洛宁县兴宁中路,037966238566,111.64952071264,34.395028841649
1437,410300,绿源电动车(建设路店),河南省洛阳市涧西区建设路15号建设路,037980880923,112.41754769278,34.669587670372
1438,410300,绿源电动车(春都路店),河南省洛阳市西工区春都路115号春都路,18637980599,112.45561261526,34.694885758662
1439,410300,绿源电动车(慕容街店),河南省洛阳市新安县慕容街,037960908092,112.16337233782,34.728995313501
1440,410300,绿源电动车(民主路店),河南省洛阳市偃师市民主路44号,037965103388,112.79180571163,34.73513347682
1441,410400,绿源电动车(前营乡店),河南省平顶山市宝丰县前营乡,03755169789,112.9187218271,33.98206450347
1442,410400,绿源电动车(商务镇专卖店),河南省平顶山市宝丰县商务镇,13949461683,112.99455366046,33.95406497774
1443,410400,绿源电动车(石桥镇店),河南省平顶山市宝丰县石桥镇,13937569752,113.1658368011,33.923935488501
1444,410400,绿源电动车（广天镇店）,郏县广天镇主席像南50米路西,,113.17811058035,33.970472431936
1445,410400,绿源电动车(黄道乡专卖店),河南省平顶山市郏县,13783263307,113.16920776973,34.067091459265
1446,410400,绿源电动车(王集乡店),河南省平顶山市郏县,13849569953,113.27564916738,33.93632024504
1447,410400,绿源电动车(复兴路店),河南省平顶山市郏县复兴路326号,03755169789,113.24104130219,33.977433192106
1448,410500,绿源电动车(平原路北段店),河南省安阳市文峰区平原路北段182号平原路,13525818432,114.3841066852,36.109989170894
1449,410500,绿源电动车(文明路店),河南省安阳市滑县中州大道与文明路交叉口,03728180868,114.54496479422,35.576350809584
1450,410500,绿源电动车(上官镇店),河南省安阳市滑县215省道,03728311618,114.64326592471,35.446393051921
1451,410600,绿源电动车(道鹤壁集店店),河南省鹤壁市鹤山区221省道鹤壁集店,03922832794,114.16222474111,35.979412832712
1452,410700,绿源电动车(黑羊山客运站店),河南省新乡市原阳县,03737556399,113.88768723788,35.104569786125
1453,410700,绿源电动车(冯村乡店),河南省新乡市封丘县311省道,15836045236,114.52535361636,35.089021585902
1454,410700,绿源电动车(北干道店),河南省新乡市封丘县北干道工商局旁,15836045236,114.43999709599,35.050170340156
1455,410700,绿源电动车(薄壁镇店),河南省新乡市辉县市306省道薄壁镇中海石油对面,0373-6560373,113.52882264455,35.453087893037
1456,410700,绿源电动车(九山路专卖店),河南省新乡市辉县市九山路共青大道,03736226899,113.81251111659,35.460858714313
1457,410700,绿源电动车(吴村镇店),河南省新乡市辉县市吴村中学东邻隔壁,03736520558,113.50313290179,35.367412848661
1458,410700,绿源电动车（太山乡店）,河南省新乡市获嘉县太山乡,03737296876,113.68796303691,35.191375839582
1459,410700,绿源电动车(胜利路店),河南省新乡市原阳县胜利路,03737296876,113.97447231237,35.062018133455
1460,410700,绿源电动车(大宾乡店),河南省新乡市原阳县大宾乡小辉大卖场,03737561218,114.04329104994,35.018886146577
1461,410700,绿源电动车(桥北乡店),河南省新乡市原阳县桥北乡靖阳购物广场对面,03737595446,113.69487490416,34.974993352298
1462,410700,绿源电动车(原武镇东街店),河南省新乡市原阳县原武镇东街绿源专卖店,03737532609,113.79635200037,35.005707562568
1463,410800,绿源电动车(覃怀中路店),河南省焦作市沁阳市覃怀中路建设南路3号,03915600577,112.93928069482,35.093706444129
1464,410800,绿源电动车(紫陵镇店),河南省焦作市沁阳市紫陵镇,18317268733,112.80025883808,35.174964881545
1465,410800,绿源电动车(人民大街店),河南省焦作市温县人民大街,03916103838,113.08510068459,34.959537965963
1466,410900,绿源电动车(濮城镇店),河南省濮阳市范县濮城,13461662633,115.37460658374,35.726568088483
1467,410900,绿源电动车(张庄工商所店),河南省濮阳市范县张庄工商所南,18939397227,115.67874858579,35.844439689372
1468,410900,绿源电动车(铁丘路专卖店),河南省濮阳市濮阳县铁丘路工业路口,13103936567,115.0466278438,35.727329683203
1469,410900,绿源电动车(双庙乡店),河南省濮阳市清丰县015县道双庙乡,7804283,115.18343509574,35.825752493032
1470,410900,绿源电动车(纬二路店),河南省濮阳市台前县纬二路,03932272768,115.86973856483,35.984042820131
1471,410900,绿源电动车(打渔陈乡专卖店),河南省濮阳市台前县101省道,13700808248,115.94109432357,36.002343316804
1472,410900,绿源电动车（后方乡店）,河南省濮阳市台前县党马线后方乡卫生院,13525255387,115.81762239975,35.961170501987
1473,410900,绿源电动车（党马线店）,河南省濮阳市台前县党马线,13525255387,115.81865456941,35.961510432856
1474,410900,绿源电动车(台前县店),河南省濮阳市台前县101省道候庙镇红绿灯旁,03932869666,115.75076767512,35.929651115684
1475,410900,绿源电动车(侯庙店),河南省濮阳市台前县二清线侯庙,03932869666,115.75001194207,35.928850982596
1476,411100,绿源电动车(辽河路店),河南省漯河市郾城区辽河路783号辽河路,03956113998,114.00051630908,33.59807676346
1477,411300,绿源电动车(东一环路店),河南省南阳市邓州市东一环路,132620664582,112.11414312906,32.671693121189
1478,411300,绿源电动车(社旗大市场店),河南省南阳市社旗县长江路,15936107598,112.95003825756,33.050134185931
1479,411300,绿源电动车(厚坡镇店),河南省南阳市淅川县岗楼线厚坡镇,13782193059,111.76192318001,32.857438703431
1480,411300,绿源电动车（施庵镇店）,新野县施庵镇施庵车站路口1号,13853776834,112.55690686364,32.596889002569
1481,411300,绿源电动车(晁陂镇店),河南镇平县晁陂镇农业银行向南200米1号,13782120263,112.11699602292,33.04108416052
1482,411400,绿源电动车(北关乡店),河南省商丘市民权县211省道北关乡,03708618111,115.30168333585,34.80178759631
1483,411400,绿源电动车(芒砀路店),永城市演集镇芒砀路与水暖一条街交叉口向西200米78号,152938321718,116.44804699442,33.942396579568
1484,411500,绿源电动车（三角店村店）,固始县胡族铺镇三角店村312国道路北1号,15083483190,115.42704653335,32.182770615882
1485,411500,绿源电动车(息夫人大道店),河南省信阳市息县息夫人大道中段71号息夫人大道,18638380662,114.7560389203,32.358170352106
1486,420100,绿源电动车(汉阳大街店),湖北省武汉市蔡甸区汉阳大街,02769811901,114.03990667169,30.585834949038
1487,420100,绿源电动车(东吴大道专卖店),湖北省武汉市东西湖区东吴大道1021号,02783080362,114.15055036417,30.629626278706
1488,420100,绿源电动车(十里铺店),湖北省武汉市汉阳区十里铺360号,13628607822,114.22592058736,30.562349829
1489,420100,绿源电动车(喻家湖东路店),湖北省武汉市洪山区喻家湖东路12号喻家湖东路,13971387724,114.43259604149,30.515948549913
1490,420100,绿源电动车(石牌岭路店),湖北省武汉市洪山区石牌岭路15号石牌岭路,13971390944,114.3475266928,30.529660938056
1491,420100,绿源电动车(横店大街店),湖北省武汉市黄陂区横店大街,02761761880,114.3007703973,30.804584675452
1492,420100,绿源电动车(木兰大道店),湖北省黄陂区木兰乡木兰大道173号,02761552005,114.46726686935,31.10601624951
1493,420100,绿源电动车(双凤大道专卖店),湖北省武汉市黄陂区双凤大道452号,02761005953,114.38326351582,30.88109233886
1494,420100,绿源电动车(满春路店),湖北省武汉市江汉区中山大道满春路29号,15072391860,114.28723332642,30.580049886396
1495,420100,绿源电动车(金桥大道店),武汉市江岸区金桥大道万国摩配城B6819-822号,02763371827,114.29873654684,30.653475066251
1496,420100,绿源电动车(高新大道店),湖北省武汉市洪山区高新大道111号高新大道,13297025398,114.4210833518,30.50306834147
1497,420100,绿源电动车(解放路店),湖北省武汉市武昌区解放路66号,13797005813,114.3024224852,30.537544309826
1498,420100,绿源电动车(平安路店),湖北省武汉市平安路南湖花园城,18627736223,114.32553844108,30.526484259927
1499,420100,绿源电动车(琴园路店),湖北省武汉市武昌区琴园路（武汉市湖北大学店）,15068653848,114.33939680083,30.579745766464
1500,420100,绿源电动车(白沙洲大道店),湖北省武汉市武昌区白沙洲大道,13720224200,114.31364331662,30.527491874699
1501,420100,绿源电动车(新竹路专卖店),湖北省武汉市洪山区新竹路3号,13429875837,114.40439363935,30.497449116303
1502,420100,绿源电动车(齐安大道专卖店),湖北省武汉市新洲区齐安大道143号,13072736450,114.8097345893,30.837389577898
1503,420100,绿源电动车(齐安大道店),湖北省武汉市新洲区齐安大道240号,13072736450,114.81072986059,30.863230603198
1504,420100,绿源电动车(平江东路专卖店),湖北省武汉市新洲区平江东路68号平江大道,15377567387,114.57390978466,30.664053924365
1505,420200,绿源电动车(金阳路专卖店),湖北省黄石市大冶市金阳路,18772329099,114.96436858458,30.126697808504
1506,420200,绿源电动车(龙港大道专卖店),阳新县龙港镇龙港大道156号,15072033225,114.96203338427,29.62465376072
1507,420200,绿源电动车(兴国大道店),湖北省黄石市阳新县兴国大道113-4号,07147328191,115.22314485969,29.839515486826
1508,420300,绿源电动车(城关镇店),湖北省十堰市房县城关镇房陵大道,07193246981,110.7521048924,32.058252757675
1509,420300,绿源电动车(人民路店),湖北省十堰市竹山县人民路城西公寓,13597901019,110.23219327656,32.237978568765
1510,420300,绿源电动车(观音阁路专卖店),湖北省十堰市竹溪县观音阁路,,109.73188194107,32.322818960412
1511,420500,绿源电动车(长坂路店),湖北省宜昌市当阳市长坂路155号,13507200196,111.81338772203,30.822019418317
1512,420500,绿源电动车(五峰店),湖北省宜昌市五峰土家族自治县242省道,07175759319,111.081478959,30.172662885885
1513,420500,绿源电动车(夷陵大道专卖店),湖北省宜昌市伍家岗区夷陵大道229号,,111.32297738515,30.682437009179
1514,420500,绿源电动车(夷陵大道店),湖北省宜昌市伍家岗区夷陵大道269号,07176919799,111.32751516604,30.677694056723
1515,420500,绿源电动车(锦江东路专卖店),湖北省宜昌市夷陵区锦江东路36号,13507200196,111.31143051909,30.774529171618
1516,420500,绿源电动车(龙泉镇店),湖北省宜昌市夷陵区龙泉镇,13872552695,111.50370464105,30.73097623048
1517,420600,绿源电动车(团山大道店),湖北省襄阳市樊城区团山大道19号,18771513038,112.14297704234,32.10509585693
1518,420600,绿源电动车(人民路店),湖北省襄阳市樊城区人民路182号,07103817686,112.14752062785,32.046833372713
1519,420600,绿源电动车(竹条镇专卖店),湖北省襄阳市樊城区竹条镇卫生院对面,18727195515,112.03557771681,32.090339234961
1520,420600,绿源电动车(双雄路店),湖北省襄阳市谷城县双雄路121号,07107243188,111.65048954156,32.263567953677
1521,420600,绿源电动车(汉江大道店),湖北省襄阳市老河口市酂阳街道汉江大道老河口客运站,07178241618,111.6797153392,32.385530299569
1522,420600,绿源电动车(孟楼镇店),湖北省襄阳市老河口市孟楼镇楚孟大道,15872306738,111.84709426813,32.531879601622
1523,420600,绿源电动车(李楼街专卖店),湖北省老河口市李楼镇李楼街94号,13677104036,111.71206089905,32.367153253181
1524,420600,绿源电动车（荩忱大道店）,湖北省襄阳市南漳县武安镇荩忱大道,18307205752,112.01400411483,31.690413438017
1525,420600,绿源电动车(交通路店),湖北省襄阳市襄州区程河镇交通路98号,13117216660,112.44659800528,32.292566500594
1526,420600,绿源电动车(清河路服务站),湖北省襄阳市樊城区清河路,07103341009,112.16246258815,32.073005723172
1527,420600,绿源电动车(朝阳西路专卖店),湖北省襄阳市宜城市板桥镇朝阳西路48号,18372261039,112.52220187924,31.756330229607
1528,420600,绿源电动车(宜城县店),湖北省襄阳市宜城市306省道,4889401,112.3568518916,31.731753885906
1529,420600,绿源电动车(南街店),湖北省襄阳市宜城市王集镇南街10号,18372262626,112.23432682032,31.830794902102
1530,420600,绿源电动车(小河镇专卖店),湖北省襄阳市宜城市207国道,13094106957,112.16498075803,31.800951453242
1531,420600,绿源电动车(襄沙大道专卖店),湖北省襄阳市宜城市襄沙大道58号,07104900319,112.26651129769,31.710525940323
1532,420600,绿源电动车(朱市镇店),湖北省襄阳市宜城县朱市镇菜园小学18号,13797588589,112.14058609458,31.722575984442
1533,420600,绿源电动车(万象城专卖店),湖北省枣阳市万象城F126-127,07106227605,112.76408649823,32.126738527516
1534,420600,绿源电动车(汉盟路店),湖北省枣阳市七方镇汉盟路308号,13635792558,112.57672418658,32.211123993715
1535,420600,绿源电动车(寺沙路店),湖北省襄阳市枣阳市寺沙路156号,07106726539,112.77978049247,31.988290991235
1536,420700,绿源电动车(江碧路售后店),湖北省鄂州市鄂城区江碧路69-2号,07115911779,114.88567174963,30.406565068189
1537,420700,绿源电动车(葛洪大道店),湖北省鄂州市华容区葛洪大道292号葛洪大道,18571110035,114.64853006897,30.539643975389
1538,420700,绿源电动车(葛店镇店),湖北省鄂州市葛店镇大湾社区,13886332012,114.6681877802,30.489681275605
1539,420700,绿源电动车(脉岭东街店),湖北省鄂州市华容区脉岭东街110号,13476477457,114.62258065533,30.449322340193
1540,420700,绿源电动车(江碧路专卖店),湖北省鄂州市鄂城区江碧路112号,07115906368,114.88576673166,30.407803823291
1541,420900,绿源电动车(文昌路3店),湖北省孝感市安陆市文昌路10号,07125223498,113.70086601209,31.264423743784
1542,420900,绿源电动车(滨湖大道店),湖北省孝感市汉川市城隍镇106省道富笛超市(城隍店),07128461822,113.77304118663,30.629074561803
1543,420900,绿源电动车(汉川市专卖二店),湖北省孝感市汉川市106省道,13971947814,113.65685559273,30.586184632507
1544,420900,绿源电动车(韩集汽车镇店),湖北省汉川市韩集镇韩集汽车镇对面,15072636808,113.60790519173,30.677781061441
1545,420900,绿源电动车(蚌湖店),湖北省孝感市汉川市106省道蚌湖,15972348689,113.71495727802,30.620952691619
1546,420900,绿源电动车(仙女大道店),湖北省孝感市汉川市172-3号仙女大道,07128388667,113.8357016257,30.661877530428
1547,420900,绿源电动车(汉川市店),湖北省孝感市汉川市311省道,13227175533,113.52186418059,30.712226023448
1548,420900,绿源电动车(汉川市专卖店),湖北省孝感市汉川市杨林镇,13886352596,113.73537200171,30.638337087629
1549,420900,绿源电动车(槐荫大道专卖店),湖北省孝感市孝南区槐荫大道121号,07122827033,113.9239387704,30.924616966933
1550,420900,绿源电动车(园林路服务站),湖北省孝感市孝南区园林路14-4号园林路,07122849228,113.92576793629,30.926084656152
1551,420900,绿源电动车(槐荫大道专卖二店),湖北省孝感市孝南区槐荫大道251号,07122838772,113.92515972118,30.923976081803
1552,420900,绿源电动车(新苑街店),湖北省孝感市孝昌县新苑街97号,07124765786,113.99616337007,31.263354732002
1553,420900,绿源电动车(分丝路专卖店),湖北省孝感市孝南区分丝路99号分丝路,15926852813,113.92464106797,30.941347476372
1554,420900,绿源电动车（胜利街专卖店）,湖北省孝感市孝南区胜利街39号,07122570710,113.93150558169,30.963904243723
1555,420900,绿源电动车(城站路店),湖北省孝感市孝南区城站路123号建设路,13607298949,113.9284158113,30.936592563539
1556,420900,绿源电动车（肖港镇店）,湖北省孝感市孝南区肖港镇,13035152950,113.94908630984,31.080631628351
1557,420900,绿源电动车（新铺镇店）,湖北省孝感市南区新铺镇老街342号,07122338805,113.99024116333,30.984102402122
1558,420900,绿源电动车(蒲阳大道店),湖北省孝感市应城市大西线蒲阳大道45号,13277019939,113.57679728114,30.94677420489
1559,420900,绿源电动车(云陡线店),湖北省孝感市云梦县云陡线,13477726332,113.77273624922,31.031339684458
1560,420900,绿源电动车(梦泽大道店),湖北省孝感市云梦县梦泽大道124号,15072599009,113.75479799011,31.030439289406
1561,421000,绿源电动车(北京中路专卖店),湖北省荆州市沙市区北京中路,07168117388,112.26870873313,30.311286885294
1562,421000,绿源电动车(燕窝镇专卖店),湖北省洪湖市燕窝镇绵花采购门面,13872378739,114.02897416647,30.086971123045
1563,421000,绿源电动车(洪湖市店),湖北省荆州市洪湖市214省道,13677169555,113.47982711157,30.007230746128
1564,421000,绿源电动车(幸福路店),湖北省荆州市洪湖市大同镇幸福路,13886604144,113.72740318726,30.046744165559
1565,421000,绿源电动车(建峰路专卖店),湖北省荆州市洪湖市峰口镇建峰路58号,13886630299,113.35954472483,30.087257344
1566,421000,绿源电动车(井桥路店),湖北省洪湖县府场镇石码头村井桥路192-1号,18972389106,113.53241580769,29.849958055518
1567,421000,绿源电动车(黄家口镇店),湖北省荆州市洪湖市黄家口镇,15572115990,113.56135299325,30.072975087209
1568,421000,绿源电动车(峰瞿公路店),湖北省荆州市洪湖市沙口镇峰瞿公路,13872221803,113.2922380995,29.984675263391
1569,421000,绿源电动车(宏伟南路店),湖北省荆州市洪湖市宏伟南路17号,13797399922,113.46711079921,29.823374493715
1570,421000,绿源电动车(芙蓉家园专卖店),湖北洪湖市宏伟南路芙蓉家园7-8号门面,13797399922,113.4669110355,29.823334417087
1571,421000,绿源电动车(沙洪大道店),湖北省荆州市监利县沙洪大道,13627179721,113.21200194903,29.556724240669
1572,421000,绿源电动车(汴河镇专卖店),湖北省荆州市监利县随岳高速公路,13317216267,113.08208089402,29.800329159236
1573,421000,绿源电动车(交通路专卖店),湖北省荆州市监利县交通路,07163268429,112.90539365609,29.827793781901
1574,421000,绿源电动车(干南大道店),湖北省荆州市监利县干南大道66号,15926513818,112.71841426234,29.979667377666
1575,421000,绿源电动车(弥市镇店),湖北荆州市荆州区弥市镇黄金堂客运站旁,07168716056,112.12576257278,30.22642499749
1576,421000,绿源电动车(言程路店),湖北省荆州市松滋市言程路105号,15171189222,111.78148269012,30.182086251406
1577,421100,绿源电动车(大河镇店),湖北省黄冈市黄梅县大河镇新桥头,13971738060,115.84869945329,30.091072198555
1578,421100,绿源电动车(五祖大道专卖店),湖北省黄冈市黄梅县五祖大道341号,07133323511,115.94876465613,30.084630294804
1579,421100,绿源电动车(张河乡店),湖北省黄冈市黄梅县孔垄镇张河乡,18972758770,115.91642145597,29.850251280538
1580,421100,绿源电动车(孔垄镇店),湖北省黄冈市黄梅县孔垄镇,13872035399,115.91300586034,29.889708122381
1581,421100,绿源电动车(交通大道店),湖北省黄冈市黄梅县龙感湖交通大道168号,13635870538,116.00399803264,29.888994829665
1582,421100,绿源电动车(黄梅县二店),湖北省黄冈市黄梅县316县道,15629660300,115.82405452034,29.818569589939
1583,421100,绿源电动车(濯港镇专卖店),湖北省黄冈市黄梅县濯港镇,15335989906,115.88957214937,30.015095781861
1584,421100,绿源电动车(陈策楼镇店),湖北省黄冈市黄州区陈策楼镇,15897923918,115.04037719611,30.602773797415
1585,421100,绿源电动车(鹰岭乡专卖店),湖北省黄冈市黄州区陈策楼镇鹰岭乡120号,07138461234,115.0141560081,30.586061775374
1586,421100,绿源电动车(堵城镇店),湖北省黄冈市黄州区堵城镇,18907257285,114.91258961097,30.5516281459
1587,421100,绿源电动车(新港大道专卖店),湖北省黄冈市黄州区新港大道68号新港大道,18971705986,114.91830651177,30.462363859756
1588,421100,绿源电动车(胜利街店),湖北省黄冈市黄州区胜利街9号,18671315537,114.87534506977,30.453566887149
1589,421100,绿源电动车(宝塔大道二店),湖北省黄冈市黄州区宝塔大道118号,13477635970,114.89526253315,30.434653781958
1590,421100,绿源电动车(宝塔大道店),湖北省黄冈市黄州区宝塔大道41号,15971385814,114.88538590889,30.442730185322
1591,421100,绿源电动车(陶店大道专卖店),黄冈市黄州区陶店乡陶店大道68号,13297583899,114.97992457575,30.54173613207
1592,421100,绿源电动车(慈云街专卖店),湖北省黄冈市罗田县罗田县慈云街13号,13872022085,115.40095903537,30.786026212011
1593,421100,绿源电动车(建设路店),湖北省黄冈市麻城市建设路15号建设路,18163011618,115.03394635007,31.188078290858
1594,421100,绿源电动车(八里湖农场店),湖北省黄冈市蕲春县八里湖农场,18162885737,115.35841919326,30.135451786083
1595,421100,绿源电动车(蕲春大道店),湖北省黄冈市蕲春县蕲春大道145号,13476709178,115.44271329855,30.251890227004
1596,421100,绿源电动车(田河街道店),湖北省黄冈市蕲春县田河街道,07137261687,115.49396426412,30.23402188762
1597,421100,绿源电动车(齐昌大道店),湖北省黄冈市蕲春县齐昌大道286号,07137213560,115.43918379259,30.245322236059
1598,421100,绿源电动车(南征街道店),湖北省黄冈市蕲春县管窑镇南征街道,18972709022,115.33355110314,30.208750859639
1599,421100,绿源电动车(横车镇店),湖北省黄冈市蕲春县横车镇,13409874048,115.37874765152,30.313489137914
1600,421100,绿源电动车(马畈村店),湖北省黄冈市蕲春县横车镇马畈村,15327718931,115.45566137036,30.317083815833
1601,421100,绿源电动车(刘河镇专卖店),湖北省黄冈市蕲春县刘河镇,07137485186,115.59943884152,30.309268986435
1602,421100,绿源电动车(茅山村专卖店),湖北省黄冈市蕲春县彭思镇茅山村,15972880493,115.26502773581,30.223206280507
1603,421100,绿源电动车(彭思大道店),湖北省黄冈市蕲春县彭思大道119号,18671495373,115.28435748157,30.282281240803
1604,421100,绿源电动车(彭思镇店),湖北省黄冈市蕲春县彭思镇螺丝港18号,13409710330,115.26437219372,30.222941045927
1605,421100,绿源电动车(蕲州镇店),湖北省黄冈市蕲春县蕲州镇蕲州大道89号,15171341981,115.34712898634,30.070711469625
1606,421100,绿源电动车(青石大道专卖店),湖北省黄冈市蕲春县青石大道346号青石大道,07137361031,115.70191607201,30.311432867847
1607,421100,绿源电动车(狮子镇店),湖北省黄冈市蕲春县狮子镇光明大道,13971707775,115.61683534655,30.38944314868
1608,421100,绿源电动车(白水街道店),湖北省黄冈市蕲春向桥乡白水街道16号,13972953416,115.77365519175,30.335339358694
1609,421100,绿源电动车(黄州大道服务站),湖北省黄冈市黄州区黄州大道(售后门店),07138128289,114.89115404844,30.458658092572
1610,421100,绿源电动车(黄州大道专卖店),湖北省黄冈市黄州区黄州大道43号,07138120787,114.89036314575,30.458356749081
1611,421100,绿源电动车(马曹庙镇店),湖北省黄冈市团风县马曹庙镇,07136172456,115.02680738885,30.665365787155
1612,421100,绿源电动车(团风县店),湖北省黄冈市团风县上巴河镇磨盘冲,07136132619,115.08698997129,30.638841745642
1613,421100,绿源电动车(团风大道店),湖北省黄冈市团风县团风大道54号,15098012481,114.88299799319,30.640779989954
1614,421100,绿源电动车(咀新公路店),湖北省黄冈市团风县总路咀新公路312号,07136052215,115.07620883319,30.704553760031
1615,421100,绿源电动车(利济路店),武穴市大法寺镇利济路13号,07136613180,115.4887315872,29.95399625387
1616,421100,绿源电动车(育才东路店),湖北省黄冈市武穴市育才东路,13871998815,115.73219366194,30.014921804017
1617,421100,绿源电动车（刊江大道店）,湖北省黄冈市武穴市刊江大道华中金港市场112-113号,15571382567,115.55164630847,29.870156116214
1618,421100,绿源电动车(民主路店),湖北省黄冈市武穴市民主路三号路95号,07136395858,115.5676249877,29.857201465999
1619,421100,绿源电动车（道桥街店）,湖北省黄冈市浠水县兰溪镇道桥街信合斜对面,18626059158,115.2219388089,30.348562720335
1620,421100,绿源电动车(丽文北路店),湖北省黄冈市浠水县丽文北路222号丽文大道,15327718333,115.26344671666,30.468391067446
1621,421100,绿源电动车(马垅街店),湖北省黄冈市浠水县散花镇马垅街87号,18062213979,115.17002067565,30.307156594468
1622,421100,绿源电动车(涂墩村店),湖北省黄冈市浠水县散花镇涂墩村63号,15549659178,115.10847367559,30.252471957417
1623,421200,绿源电动车(陆水湖大道店),湖北省咸宁市赤壁市陆水湖大道,07155288555,113.90275099162,29.721478893206
1624,421200,绿源电动车(沿河大道专卖店),湖北省咸宁市崇阳县沿河大道357号,07153386866,114.0512426753,29.542328286962
1625,421200,绿源电动车(民主路4店),湖北省咸宁市通城县民主路,07154329799,113.8185296392,29.261305435839
1626,421300,绿源电动车(中山大道店),湖北省随州市广水市中山大道342号,13237263553,114.00931129214,31.622243126837
1627,423100,绿源电动车(彭场大道店),湖北省仙桃市仙桃彭场镇彭场大道裕民公司对面  ,13545984207,113.52638676595,30.260564780711
1628,423100,绿源电动车（沙湖镇店）,沙湖镇街道127号,15671144288,113.68493836938,30.177001687268
1629,423100,绿源电动车(大新路店),湖北省仙桃市仙桃市大新路中雅广场,07288232088,113.4539399156,30.37408438351
1630,423200,绿源电动车(五七大道店),湖北省潜江市广华办事处广华五七大道（警苑小区）,15271177171,112.70918319784,30.461731915734
1631,423200,绿源电动车(浩口镇店),湖北省潜江市潜江市318国道,15271209227,112.65164517536,30.385477315823
1632,423200,绿源电动车(五七大道专卖二店),湖北省潜江市潜江市五七大道,13094297999,112.76575843142,30.463877869144
1633,423200,绿源电动车(老新路专卖店),湖北省潜江市老新镇老新路152号,0728-6843369,112.86214475554,30.200202123666
1634,423200,绿源电动车(章华南路店),湖北省潜江市潜江市章华南路,13545963003,112.90998052985,30.373242304272
1635,423200,绿源电动车(王场镇店),湖北省潜江市王场镇品上家居,07286701620,112.7774585953,30.512680825581
1636,423200,绿源电动车(章华北路店),湖北省潜江市潜江市章华北路350号章华北路,13597421873,112.88267662444,30.485436629155
1637,423200,绿源电动车(马昌垸路专卖店),湖北省潜江市园林办事处马昌垸路32栋,13872955666,112.91389837581,30.424032032172
1638,423200,绿源电动车(潜阳中路专卖店),湖北省潜江市潜江市环保巷6号,,112.89915880544,30.421086413484
1639,423200,绿源电动车(竹根滩镇店),湖北省潜江市潜江市竹根滩,15271239223,112.91929411539,30.495502854396
1640,423200,绿源电动车(三江路店),湖北省潜江市潜江市三江路,13085144344,112.9234429805,30.453516932683
1641,423300,绿源电动车(龙兴大道专卖店),湖北省天门市天门市龙兴大道,15907221306,113.04637278057,30.618862450771
1642,423300,绿源电动车(横林大道店),湖北省天门市天门市横林大道,13093297067,113.19403171707,30.541089526631
1643,423300,绿源电动车（东湖路专卖店）,湖北省天门市天门市东湖路南,07285335058,113.17596182364,30.648650439697
1644,423300,绿源电动车(四牌楼街专卖店),湖北省天门市天门市四牌楼街2号,07285228995,113.17609358993,30.657933177719
1645,423300,绿源电动车(小板镇店),湖北省天门市小板镇荷沙公路,13697389798,113.23207791878,30.614188075788
1646,423300,绿源电动车（解放大道店）,湖北省天门市天门市解放大道81号,15171522100,113.09098695389,30.518783385866
1647,423300,绿源电动车(景峰街专卖店),湖北省天门市天门市景峰街,07284642195,112.88680407115,30.580867174135
1648,430100,绿源电动车(干杉卫生院店),湖南省长沙市长沙县秋江线干杉卫生院,18974891675,113.20668013347,28.152066006084
1649,430100,绿源电动车(朝晖路店),湖南省长沙市雨花区怡园街161号朝晖路（高桥火焰市场）,073188155033,113.02891357161,28.183001034891
1650,430100,绿源电动车(樃梨镇店),长沙樃梨镇,,113.12303846984,28.1893813039
1651,430100,绿源电动车(远大二路3店),湖南省长沙市长沙县远大二路297号,13908487702,113.11797872315,28.217590254099
1652,430100,绿源电动车(远大二路店),湖南省长沙市开福区远大二路1621号,,112.99191118192,28.262729677853
1653,430100,绿源电动车(三一路3店),湖南省长沙市长沙县三一路18号板仓中路（星沙）,13755193658,113.08456817292,28.24856174379
1654,430100,绿源电动车(嘉雨路店),湖南省长沙市芙蓉区嘉雨路427号荷花路（马王堆）,073182500718,113.0421725332,28.197762411269
1655,430100,绿源电动车(城南东路店),湖南省长沙市雨花区车站南路678号,,113.01596043529,28.181860536074
1656,430100,绿源电动车(车站西路店),湖南省长沙市浏阳市车站西路10号,,113.63143397201,28.150720525656
1657,430100,绿源电动车(福元西路店),湖南省长沙市开福区福元西路,15874936930,113.01240423321,28.258401984376
1658,430100,绿源电动车(蒿塘南路店),湖南省长沙市开福区沙坪镇蒿塘南路,13874914678,113.0268244257,28.371441988626
1659,430100,绿源电动车(瑶浏路店),湖南省长沙市浏阳市瑶浏路149号,13574186641,113.72730034161,27.978270234244
1660,430100,绿源电动车（车站西路店）,湖南省长沙市浏阳市车站西路77号车站西路,15116193618,113.63295100337,28.151597287008
1661,430100,绿源电动车(新港北路专卖店),湖南省长沙市浏阳市社港镇新港北路,073183547483,113.5683173917,28.476076397704
1662,430100,绿源电动车(八一西路店),湖南省长沙市宁乡县八一西路楚沩中路208号,073187842728,112.55180748526,28.260023245833
1663,430100,绿源电动车(雷锋北大道店),湖南省长沙市望城区雷锋北大道靖港镇绿源专卖店,18627582825,112.75247702391,28.450237803066
1664,430100,绿源电动车(洞裕路店),湖南省长沙市雨花区洞裕路中意一路683号（南站）,07318996418,113.02232530627,28.105919797945
1665,430200,绿源电动车(云阳大街店),湖南省株洲市茶陵县云阳大街,073125240990,113.54240740588,26.798278536876
1666,430200,绿源电动车(新华东路店),湖南省株洲市荷塘区新华东路1065号（株洲耳鼻喉专科医院）,18975358448,113.17683364555,27.821798007576
1667,430200,绿源电动车(建设中路店),湖南省株洲市芦淞区建设中路620号建设中路,073122658249,113.14325388086,27.856393318859
1668,430200,绿源电动车(鑫盛路店),湖南省株洲市芦淞区鑫盛路89号鑫盛路,073122851997,113.17693284848,27.821591619637
1669,430300,绿源电动车(韶山中路专卖店),湖南省湘潭市韶山市韶山中路62号,18273203919,112.53820082988,27.927175009454
1670,430300,绿源电动车(韶山西路店),湖南省湘潭市雨湖区韶山西路229号,073155573449,112.89831867535,27.866282244297
1671,430300,绿源电动车(凤凰中路店),湖南省湘潭市湘潭县凤凰中路408号,13762207397,112.9649313317,27.794914104225
1672,430300,绿源电动车(科大赤马路店),湖南省湘潭市雨湖区科大赤马路爱情公寓,13873297285,112.92266368906,27.904416224192
1673,430300,绿源电动车(江南中路店),湖南省湘潭市湘潭县江南中路楠竹山派出所对面,18163915088,112.66802428466,27.851736367681
1674,430300,绿源电动车(九华杉山店),湖南省湘潭市雨湖区九华杉山安置区,18973286675,112.93788400035,27.940727156819
1675,430300,绿源电动车(霞光路店),湖南省湘潭市岳塘区霞光路,073155581879,112.92444588672,27.834222567088
1676,430400,绿源电动车(祁丰路店),湖南省衡阳市祁东县祁丰路156号,07346268155,112.10873140873,26.793258400636
1677,430400,绿源电动车(船山路店),湖南省衡阳市石鼓区船山路25号建设大厦对面,07348264288,112.61302975623,26.909745795134
1678,430500,绿源电动车(蓼湄路店),湖南省邵阳市洞口县蓼湄路48号蓼湄路,07397253199,110.68786351753,26.963298430212
1679,430500,绿源电动车(黄桥城郊加油站店),湖南省邵阳市洞口县060县道黄桥城郊加油站,13712725551,110.85429085074,27.031602412491
1680,430500,绿源电动车(蔡锷南路店),湖南省邵阳市洞口县蔡锷南路,,110.59634356701,27.048307170592
1681,430500,绿源电动车(桃洪西路店),湖南省邵阳市隆回县桃洪西路179号,07392977016,111.01907435367,27.120021150875
1682,430500,绿源电动车(宝庆东路店),湖南省邵阳市双清区建设路3-6号,07392950828,111.49196266248,27.239522140716
1683,430600,绿源电动车(港东南路专卖店),湖南省岳阳市华容县港东南路,07304236009,112.57327479363,29.51982967344
1684,430600,绿源电动车(君山街店),湖南省岳阳市君山镇君山街1号,,113.01905274712,29.394418668366
1685,430600,绿源电动车(城关镇5店),湖南省岳阳市平江县城关镇老大桥桥头绿源专卖店,07306668363,113.58504699579,28.705558283318
1686,430600,绿源电动车(巴陵中路专卖店),湖南省岳阳市岳阳楼区巴陵中路,07308263658,113.13357110822,29.378695300494
1687,430600,绿源电动车(洞庭大道店),湖南省岳阳市岳阳楼区洞庭大道,07308209358,113.14508764065,29.367604361378
1688,430600,绿源电动车(金盆路店),湖南省岳阳市云溪区金盆路,07308484738,113.30571449696,29.474044203288
1689,431000,绿源电动车(东云路店),湖南省郴州市临武县东云路451,,112.57476797045,25.287580459012
1690,431000,绿源电动车(燕泉北路店),湖南省郴州市北湖区燕泉北路,07352233356,113.0338524686,25.794863429923
1691,431000,绿源电动车(文明南路店),湖南省郴州市宜章县文明南路47号,,112.95545771476,25.398709247492
1692,431100,绿源电动车(建设大道店),湖南省永州市东安县建设大道70号,07464233981,111.31082962682,26.403505188884
1693,431100,绿源电动车(江永县店),湖南省永州市江永县325省道,07465750342,111.3526076765,25.274453765129
1694,431100,绿源电动车(湘粤路店),湖南省永州市蓝山县湘粤路188号,,112.19894770502,25.384061470288
1695,431100,绿源电动车(南津南路店),湖南省永州市零陵区南津南路6号南津南路,13874707472,111.63726783154,26.222454702925
1696,431100,绿源电动车(建设路店),湖南省永州市宁远县建设路109号,07467324606,111.9506115474,25.589884680312
1697,431100,绿源电动车(浯溪中路店),湖南省永州市祁阳县浯溪中路336号,,111.85987497881,26.59473715347
1698,431100,绿源电动车(车站路专卖店),湖南省永州市冷水滩区凤凰南路,07468219286,111.60447044525,26.463378998017
1699,431100,绿源电动车(新华东路店),湖南省永州市新田县新华东路22号,13574615620,112.23152070794,25.918665512084
1700,431200,绿源电动车(怀北路店),湖南省怀化市鹤城区怀北路95号怀北路,15111593456,109.96916462,27.564204570117
1701,431200,绿源电动车(怀东路店),湖南省怀化市鹤城区怀东路297号石门车行,15580637010,110.03360002699,27.583898291968
1702,431200,绿源电动车(舞水路店),湖南省怀化市鹤城区舞水路148号舞水路,07452273059,109.96654888845,27.558483924576
1703,431200,绿源电动车(中山路店),湖南省怀化市新晃侗族自治县中山路83号,07452273059,109.18523165437,27.360827932686
1704,431200,绿源电动车(凯旋路3店),湖南省怀化市芷江侗族自治县凯旋路,,109.70033778274,27.43461527011
1705,431300,绿源电动车(上梅西路店),湖南省娄底市新化县上梅西路,07383312068,111.30525753866,27.739940499031
1706,433102,绿源电动车(石门桥 店),湖南省常德市鼎城区石门桥镇常24线,07367580080,111.73893723184,28.856793437453
1707,433102,绿源电动车(汉沧路店),湖南省常德市汉寿县汉沧路,13487368409,111.89877861769,28.9146955238
1708,433102,绿源电动车(沧浪西路店),湖南省常德市汉寿县沧浪西路308号,07362559188,111.9670757802,28.916060706351
1709,433102,绿源电动车(汉寿聂家桥店),湖南省常德市汉寿县汉寿聂家桥农村客运站,15080665758,111.8090954943,28.892926718512
1710,433102,绿源电动车(康普大道店),湖南省常德市汉寿县康普大道太子庙镇,18573602386,111.9583332409,28.780177616281
1711,433102,绿源电动车(滨湖路店),湖南省常德市武陵区滨湖路21号,07367256169,111.71113843549,29.052725824929
1712,433102,绿源电动车(漳江南路店),湖南省常德市桃源县漳江南路,07362571988,111.48718759441,28.895718247461
1713,433102,绿源电动车(石门桥 店),湖南省常德市鼎城区石门桥镇常24线,07367580080,111.73893723184,28.856793437453
1714,433102,绿源电动车(汉沧路店),湖南省常德市汉寿县汉沧路,13487368409,111.89877861769,28.9146955238
1715,433102,绿源电动车(沧浪西路店),湖南省常德市汉寿县沧浪西路308号,07362559188,111.9670757802,28.916060706351
1716,433102,绿源电动车(汉寿聂家桥店),湖南省常德市汉寿县汉寿聂家桥农村客运站,15080665758,111.8090954943,28.892926718512
1717,433102,绿源电动车(康普大道店),湖南省常德市汉寿县康普大道太子庙镇,18573602386,111.9583332409,28.780177616281
1718,433102,绿源电动车(滨湖路店),湖南省常德市武陵区滨湖路21号,07367256169,111.71113843549,29.052725824929
1719,433102,绿源电动车(漳江南路店),湖南省常德市桃源县漳江南路,07362571988,111.48718759441,28.895718247461
1720,440100,绿源电动车（沿沙路专卖店）,广东省广州市番禺区沿沙路19号沿沙路,13632855502,113.29788046076,23.045822487175
1721,440100,绿源电动车(云山大道专卖店),广东省广州市花都区云山大道28号,,113.2167545505,23.389720159122
1722,440100,绿源电动车（萝岗荔红路专卖店）,广东省广州市黄埔区萝岗街道荔红路63号,18929591689,113.51103504721,23.181357654401
1723,440100,绿源电动车（雅瑶大道专卖店）,广东省广州市增城区新塘镇新沙大道北80号,18929591689,113.66324375794,23.160507068498
1724,440100,绿源电动车(新风路专卖店),广东省广州市增城区新塘镇摩托车市场新风路122号,02082785556,113.61265024283,23.12796569022
1725,440100,绿源电动车（广深大道专卖店）,广东省广州市增城区广深大道中155号广深大道中,18929591689,113.61235010257,23.127906662365
1726,440100,绿源电动车（永和街道专卖店）,广东省广州市增城区永宁街道新城中路新城市场(新城中路店),13544530336,113.59324847823,23.187611015936
1727,440200,绿源电动车（人民南路专卖店）,广东省韶关市乐昌市人民南路11号人民南路,07515559202,113.37131061263,25.121834048871
1728,440300,绿源电动车（上星路店）,广东省深圳市宝安区上星路,075527227403,113.83884321972,22.730310558881
1729,440300,绿源电动车（和沙路店）,广东省深圳市宝安区和沙路14号,075523148882,113.81045353993,22.704576098721
1730,440300,绿源电动车(荔都路专卖店),广东省深圳市宝安区光明新区楼村荔都路,13590297744,113.93415545167,22.789642228483
1731,440300,绿源电动车(金安路店),广东省深圳市宝安区金安路红绿灯路口,075529722870,113.8960392249,22.784854868445
1732,440300,绿源电动车(东方大道专卖店),广东省深圳市宝安区松岗街道东方大道68号,,113.85247659765,22.769723752122
1733,440300,绿源电动车（田湾路店）,广东省深圳市宝安区公明街道田湾路,13560733836,113.91105549585,22.739671833275
1734,440300,绿源电动车（华旺路店）,广东省深圳市龙华区大浪街道华旺路289号,13640941669,114.01047245966,22.685379162947
1735,440400,绿源电动车(井湾路3店),广东省珠海市斗门区井湾路498号,07565559879,113.30437587894,22.209099248543
1736,440500,绿源电动车（井都镇专卖店）,广东省汕头市潮南区井都镇337省道,15815053999,116.56420522666,23.20004691199
1737,440500,绿源电动车（广汕公路专卖店）,广东省汕头市潮南区广汕公路旁,15816717090,116.39342455997,23.26382662309
1738,440500,绿源电动车（疏港路专卖店）,汕头市潮阳区海门镇疏港路23号,,116.63496201246,23.204335148662
1739,440500,绿源电动车（河溪镇专卖店）,汕头市潮阳区河溪镇桥头1号,,116.60901271405,23.265140810145
1740,440500,绿源电动车（下窖乡专卖店）,广东省汕头市澄海区澄华街道澄华路,,116.74493972015,23.470881889934
1741,440500,绿源电动车（金新路专卖店）,广东省汕头市龙湖区金新路236号金新北路,15918935898,116.72015602153,23.402972054414
1742,440500,绿源电动车(金砂西路专卖店),广东省汕头市金平区金砂西路,075488316135,116.69959345823,23.373006169631
1743,440600,绿源电动车(沧江路专卖店),广东省佛山市高明区沧江路63号,13424603555,112.89491738083,22.907158890419
1744,440600,绿源电动车（永安中路专卖二店）,广东省佛山市南海区永安中路85号永安路,075783697932,113.20893234311,23.032125253775
1745,440900,绿源电动车（291省道专卖店）,广东省茂名市茂南区金塘镇291省道,15915287170,110.8448915196,21.751091452631
1746,440900,绿源电动车（627县道专卖店）,广东省茂名市茂南区金塘镇627县道,13423525699,110.85258115173,21.753365866379
1747,441300,绿源电动车（石湾镇专卖店）,广东省惠州市博罗县石湾镇明月一路555,07526928358,113.87399933601,23.139444220928
1748,441300,绿源电动车（惠州八中专卖店）,惠州市惠城区上排惠州八中对面1号,,114.39699544632,23.083423570148
1749,441800,绿源电动车（环城二路店）,广东省清远市清城区环城二路北四座地下,07636807719,113.03212459948,23.716325018076
1750,441900,绿源电动车(长东路店),广东省东莞市长安镇长盛社区长东路47-7号铺位,13823667152,113.81751664948,22.807804530741
1751,442000,绿源电动车（大板步街专卖店）,广东省中山市大板步街板埔路8号,075723897537,113.47295361037,22.560349926539
1752,442000,绿源电动车（文昌中路店）,广东省中山市三乡镇文昌中路富丽苑1-4号铺,076086195355,113.43240968741,22.359292449724
1753,442000,绿源电动车(莲塘路店),广东省中山市石岐区莲塘路48号,076088329798,113.38717167382,22.535946724328
1754,442000,绿源电动车（土瓜岭大街专卖店）,广东省中山市石岐区土瓜岭大街18号土瓜岭大街,18022163699,113.40848822675,22.526485508211
1755,442000,绿源电动车（宝源路专卖店）,广东省中山市小榄镇宝源路187号,15914612876,113.23460859191,22.689389448081
1756,445100,绿源电动车（钱东镇专卖店）,广东省饶平县钱东镇粮所东侧,,116.92602291773,23.674874085682
1757,445100,绿源电动车(安丰路专卖店),广东省潮州市潮安区安丰路,,116.60603067726,23.66220167875
1758,445100,绿源电动车(绿榕北路专卖店),广东省潮州市湘桥区绿榕北路367号,13727996663,116.63568551253,23.677709743956
1759,445200,绿源电动车（钱坑镇专卖店）,广东省揭阳市揭西县钱坑镇100县道,0663891613,116.00354484334,23.395997331873
1760,445200,绿源电动车(兰花新村店),广东省揭阳市普宁市流沙大兰花新村1幢东起1-2间,06632645666,116.16565079618,23.307512452987
1761,445200,绿源电动车(流沙大道专卖店),广东省揭阳市普宁市流沙大道东265号,06632152345,116.18403468246,23.301482621
1762,445200,绿源电动车（洪阳镇专卖店）,广东省揭阳市普宁市洪阳镇236省道,06633872852,116.2251216943,23.43628125717
1763,445200,绿源电动车(里湖镇店),广东省揭阳市普宁市县道里湖镇S096,13580288231,116.04648891668,23.360930683358
1764,445200,绿源电动车（占陇镇专卖店）,广东省揭阳市普宁市占陇镇立新路,06638359425,116.26023896095,23.295277174083
1765,445200,绿源电动车（渔湖镇专卖店）,广东省揭阳市榕城区渔湖镇1号,,116.4210830184,23.522360445247
1766,450100,绿源电动车(东环路专卖店),广西壮族自治区南宁市宾阳县东环路南一段西排9-10号,15977121755,108.82467533552,23.221658908465
1767,450100,绿源电动车(枫江路专卖店),广西壮族自治区南宁市宾阳县枫江路枫江路工业品综合批发大市场第一栋A单元一层128号,07718383272,108.80161722846,23.223257675556
1768,450100,绿源电动车(金龙大道专卖店),广西壮族自治区南宁市宾阳县黎塘镇金龙大道203号,13768583707,109.13205190825,23.202496208537
1769,450100,绿源电动车(武陵镇专卖店),广西壮族自治区南宁市宾阳县武陵镇487县道(旧),07718301888,108.90196761841,23.145955316279
1770,450100,绿源电动车(江北大道店),广西壮族自治区南宁市横县江北大道243号贵源国际新城12-14号门面,07717205890,109.27953619555,22.696238674766
1771,450100,绿源电动车（蝶城路店）,广西壮族自治区南宁市隆安县城厢镇蝶城路258号,07716527118,107.69802797372,23.173869315693
1772,450100,绿源电动车(碟城路专卖店),广西壮族自治区南宁市隆安县民生街与碟城路交汇处363-364号,18977170014,107.69638580629,23.175586071907
1773,450100,绿源电动车(隆武街专卖店),广西壮族自治区南宁市隆安县那桐镇隆武街125-1号036县道,15878132051,107.87205601429,23.046623696259
1774,450100,绿源电动车(新兴街专卖店),广西壮族自治区南宁市马山县新兴大道新兴街1号,13978152878,108.17144811471,23.714561024877
1775,450100,绿源电动车(白圩镇专卖店),广西壮族自治区南宁市上林县白圩镇209省道,13471036160,108.75850993795,23.413938304239
1776,450100,绿源电动车(新丰街专卖店),广西壮族自治区南宁市上林县大丰镇新丰街96号农业局小区,13077700751,108.60931883538,23.432188986009
1777,450100,绿源电动车(中华路专卖店),广西壮族自治区南宁市西乡塘区中华路2号,07712442581,108.31132917822,22.826234941275
1778,450100,绿源电动车(南建路专卖店),广西壮族自治区南宁市江南区江南街道南建路4-41号,07713815655,108.30111364333,22.799832031056
1779,450100,绿源电动车(军供大厦专卖店),广西壮族自治区南宁市兴宁区军供大厦59号,07712442581,108.32809470065,22.832896334345
1780,450100,绿源电动车(标营路专卖店),广西壮族自治区南宁市武鸣区城厢镇万隆国际小区(四期)万隆国际小区,07716232312,108.29067203311,23.157232425076
1781,450200,绿源电动车(卫生院专卖店),广西壮族自治区柳州市鹿寨县建中东路29-1号,13768690868,109.75806100349,24.489282540154
1782,450200,绿源电动车(建中东路专卖店),广西壮族自治区柳州市鹿寨县建中东路30-2号,07726817011,109.75886027635,24.489402734321
1783,450200,绿源电动车(元宝小区服务站),广西壮族自治区柳州市鹿寨县元宝小区C-11号,13768690868,109.76021026293,24.486300806803
1784,450200,绿源电动车(东宝小区专卖店),广西壮族自治区柳州市鹿寨县建中东路东宝小区A0A1号,13768690868,109.75736150107,24.489423073019
1785,450200,绿源电动车(河东大道店),广西壮族自治区柳州市柳城县河东大道怡和苑一楼429号,07727615353,109.24584331059,24.665000041558
1786,450200,绿源电动车（柳堡路专卖店）,广西壮族自治区柳州市柳江区柳堡路599号,07726618286,109.34995319896,24.266867891748
1787,450200,绿源电动车（柳堡路二店）,广西壮族自治区柳州市柳江县柳堡路683号,07726618286,109.35025319244,24.266898365452
1788,450200,绿源电动车(蜜园路店),广西壮族自治区柳州市鱼峰区雒容镇蜜园路1号,07726511116,109.61197518515,24.407060053146
1789,450200,绿源电动车(雒柳路专卖店),广西壮族自治区柳州市鱼峰区雒容镇雒柳路,13597256697,109.61378210997,24.407572117111
1790,450200,绿源电动车(寨沙镇专卖店),广西壮族自治区柳州市鹿寨县寨沙镇323国道,15077268178,109.97637109248,24.497235521849
1791,450200,绿源电动车(广场西路专卖店),广西壮族自治区柳州市融安县广场西路3号,07728115228,109.41342496706,25.2243634604
1792,450200,绿源电动车(和睦镇专卖店),广西壮族自治区柳州市融水苗族自治县和睦镇204省道,18276251339,109.16500902021,24.905713181412
1793,450200,绿源电动车（朝阳西路专卖二店）,广西壮族自治区柳州市融水苗族自治县朝阳西路38号,13517526203,109.2561500643,25.074045035078
1794,450200,绿源电动车（朝阳西路专卖店）,广西壮族自治区柳州市融水苗族自治县朝阳西路,13517526203,109.25656771853,25.073237531367
1795,450200,绿源电动车(商贸城专卖店),广西壮族自治区柳州市融水县商贸城2-3,,109.25507575024,25.076218598965
1796,450200,绿源电动车(屏山大道专卖店),广西壮族自治区柳州市鱼峰区屏山大道252号,07728808186,109.42791254939,24.310369102989
1797,450200,绿源电动车(红锋路专卖店),广西壮族自治区柳州市鱼峰区驾鹤街道屏山大道就业大厦(屏山大道),07723812969,109.41660817053,24.309251244888
1798,450200,绿源电动车(红锋路服务站),广西壮族自治区柳州市鱼峰区红锋路2号,07723812069,109.42060947292,24.310458094182
1799,450200,绿源电动车(北雀路专卖店),广西壮族自治区柳州市柳北区北雀路71-1-4号北雀路,18677228858,109.4042559947,24.369613570859
1800,450300,绿源电动车(中山北路专卖店),广西壮族自治区桂林市叠彩区中山北路137号(群山花苑1号店),18677314949,110.3087074363,25.318207801666
1801,450300,绿源电动车(中山北路专卖店),广西壮族自治区桂林市叠彩区中山北路139号(群山花苑2号店),18677314949,110.30861662488,25.317744172645
1802,450300,绿源电动车(中山南路专卖店),广西壮族自治区桂林市象山区中山南路2号（八一桥店）,18677314949,110.29045597195,25.255809814552
1803,450300,绿源电动车(灌江中路店),广西壮族自治区桂林市灌阳县灌江中路灌江路25号,07734219719,111.16258219214,25.494054493436
1804,450300,绿源电动车(马岭镇专卖店),广西壮族自治区桂林市荔浦县马岭镇321国道,13977366638,110.44328203064,24.616247380826
1805,450300,绿源电动车(灵川大道专卖店),广西壮族自治区桂林市灵川县灵川大道51号灵川大道,13978342889,110.31204530665,25.349660169323
1806,450300,绿源电动车(月城街专卖店),广西壮族自治区桂林市平乐县月城街16号月城街,18977352230,110.67438584256,24.627979217748
1807,450300,绿源电动车(大西江街专卖店),广西省全州县大西江镇大西江街1号,,111.03297169959,26.209105917722
1808,450300,绿源电动车(漓江路店),广西壮族自治区桂林市七星区漓江路（三里店大店）,07735811639,110.31240338134,25.266784306071
1809,450300,绿源电动车(中山南路南门专卖店),广西壮族自治区桂林市象山区中山南路5号（南门店）,07733823049,110.29033565479,25.258551481322
1810,450300,绿源电动车(界首镇专卖店),广西壮族自治区桂林市兴安县界首镇303省道,18978315126,110.75926935449,25.735439903093
1811,450300,绿源电动车(溶江镇专卖店),广西壮族自治区桂林市兴安县溶江镇商业街,18777327988,110.48556006157,25.565984732454
1812,450300,绿源电动车(兴桂路店),广西壮族自治区桂林市兴安县兴桂路212-7号,13635143453,110.67442433726,25.622730887586
1813,450300,绿源电动车(吉祥北街专卖店),广西壮族自治区桂林市阳朔县白沙镇吉祥北街,13132836766,110.42827859706,24.821786040891
1814,450300,绿源电动车(城西路专卖店),广西壮族自治区桂林市阳朔县城西路79号,13768718666,110.48630968162,24.78351264057
1815,450300,绿源电动车(凤阁路专卖店),广西壮族自治区桂林市永福县凤阁路老财政局对面,07738551938,109.99140294095,24.994321869487
1816,450400,绿源电动车(龙圩镇专卖店),广西壮族自治区梧州市龙圩区龙圩镇城南大道58号,13807742062,111.24852452911,23.411966993377
1817,450400,绿源电动车(蒙山镇店),广西壮族自治区梧州市蒙山县蒙山镇明珠宾馆(中共蒙山县委员会西南),07746289378,110.53058227269,24.199331362565
1818,450400,绿源电动车(文澜路店),广西壮族自治区梧州市万秀区文澜路28号文澜路,3984068,111.3116423827,23.480934700087
1819,450400,绿源电动车(文澜路专卖店),广西壮族自治区梧州市万秀区文澜路19号,3984068,111.31164223342,23.480875408535
1820,450500,绿源电动车(还珠东路店),广西壮族自治区北海市合浦县还珠东路镇政府旁,07797206028,109.20833760501,21.668037437552
1821,450500,绿源电动车(北部湾中路专卖店),广西壮族自治区北海市海城区北部湾中路4号（总站店）,2036678,109.1322768902,21.488637887922
1822,450500,绿源电动车(北部湾东路总站专卖店),广西壮族自治区北海市海城区北部湾东路鸿翔大夏3号铺（供销店）,07792051278,109.13637219208,21.4907136541
1823,450600,绿源电动车(长山街专卖店),广西壮族自治区防城港市防城区长山街32号,07703254006,108.36926276374,21.769522872581
1824,450600,绿源电动车(渔万路专卖店),广西壮族自治区防城港市港口区渔万路,07702833006,108.35463713957,21.62026635856
1825,450600,绿源电动车(中华路店),广西壮族自治区防城港市上思县思阳镇中华路123号,15507709897,107.98612276547,22.155020867188
1826,450700,绿源电动车(钟秀路店),广西壮族自治区钦州市灵山县钟秀路,07776886600,109.29711037536,22.430627105697
1827,450700,绿源电动车(竹围街专卖店),广西壮族自治区钦州市灵山县298县道太平镇竹围街,13788095855,108.82083451278,22.433786584398
1828,450700,绿源电动车(中山路专卖店),广西壮族自治区钦州市钦北区大寺镇中山路,07775719588,108.45943213115,22.132424293505
1829,450700,绿源电动车(兴财路专卖店),广西壮族自治区钦州市钦南区木井街兴财路12号,07773606088,108.62728012389,21.972294167513
1830,450700,绿源电动车(南珠西大街潮流天地专卖店),广西壮族自治区钦州市钦南区南珠西大街（潮流天地）,18007776118,108.62868299239,21.969592982389
1831,450700,绿源电动车(南珠西大街专卖3店),广西壮族自治区钦州市钦南区南珠街道南珠西大街71-6号,07773606088,108.62648125084,21.970686615937
1832,450700,绿源电动车(南珠西大街专卖3店),广西壮族自治区钦州市钦南区南珠街道南珠西大街83号,07773606088,108.62598069746,21.971048056384
1833,450700,绿源电动车(犀牛脚镇船厂村专卖店),广西壮族自治区钦州市钦南区犀牛脚镇船厂村295县道,15977004482,108.81551824711,21.656141238788
1834,450800,绿源电动车(庆丰镇专卖店),广西壮族自治区贵港市港北区庆丰镇县道A39,18688477085,109.77697557131,23.255178948132
1835,450800,绿源电动车(江北路专卖店),广西壮族自治区贵港市港南区桥圩镇江北路121号,13397855889,109.76876154853,22.96229301735
1836,450800,绿源电动车（中山路专卖店）,广西壮族自治区贵港市港北区中山路中段10号324国道(旧),07754233048,109.6058553259,23.097766309318
1837,450800,绿源电动车（贵城街道店）,广西壮族自治区贵港市港北区贵城街道中山路288号,07754237887,109.60525270923,23.099740169539
1838,450800,绿源电动车(中山路服务站),广西壮族自治区贵港市港北区中山路中山路141号（矿产公司大院内）,13207899669,109.60495303679,23.099599318337
1839,450800,绿源电动车(振西街专卖店),广西壮族自治区贵港市覃塘区东龙镇振西街,13737577250,109.47767169383,23.300148826417
1840,450800,绿源电动车(一中路专卖店),广西壮族自治区贵港市覃塘区石卡镇一中路中段,13481597692,109.53417914217,22.956882453845
1841,450900,绿源电动车(白马乡专卖店),广西壮族自治区玉林市北流市白马乡425县道,07756541938,110.674916966,22.341262099217
1842,450900,绿源电动车(城东一路专卖店),广西壮族自治区玉林市北流市城东一路0009号,07756232226,110.35687633869,22.714525273094
1843,450900,绿源电动车(城西一路专卖店),广西壮族自治区玉林市北流市城西一路0080号,13768992776,110.35010552368,22.710803464531
1844,450900,绿源电动车(民北路专卖店),广西壮族自治区玉林市北流市民乐镇民北路,6663389,110.36288835386,22.793394882803
1845,450900,绿源电动车(平政镇专卖店),广西壮族自治区玉林市北流市平政镇,18978727682,110.53917270388,22.383037625456
1846,450900,绿源电动车(清湾镇专卖店),广西壮族自治区玉林市北流市清湾镇,07756222478,110.61393724257,22.234529555084
1847,450900,绿源电动车(新荣镇店),广西壮族自治区玉林市北流市新荣镇,14777590240,110.45867506393,22.688202032214
1848,450900,绿源电动车(顿谷镇专卖店),广西壮族自治区玉林市博白县顿谷镇410县道,15078003652,109.79462853708,22.138708051823
1849,450900,绿源电动车(新田路专卖店),广西壮族自治区玉林市博白县凤山镇新田路33号,07758716372,110.00936146255,22.050702537771
1850,450900,绿源电动车(人民北路店),广西壮族自治区玉林市博白县博白镇人民北路55号,07758338686,109.9896414208,22.278399878681
1851,450900,绿源电动车(英桥镇专卖店),广西壮族自治区玉林市博白县英桥镇221省道,18378069307,110.08325250544,21.90659382666
1852,450900,绿源电动车(古城镇专卖店),广西壮族自治区玉林市陆川县古城镇岭盘线,07757181399,110.35095477665,21.942234430913
1853,450900,绿源电动车(通政路店),广西壮族自治区玉林市陆川县良田镇通政路,13097700088,110.23959338935,22.04643030831
1854,450900,绿源电动车(城西路专卖3店),广西壮族自治区玉林市容县城西路50号,15878876936,110.55495522398,22.860075251711
1855,450900,绿源电动车（美林街专卖二店）,广西壮族自治区玉林市玉州区美林街325号,07753159866,110.15757533606,22.640788346607
1856,450900,绿源电动车(美林街一店专卖店),广西壮族自治区玉林市玉州区美林街美林商业街264-268,2308017,110.15781081684,22.640478992556
1857,450900,绿源电动车(南街路店),广西壮族自治区玉林市兴业县南街路,07753769901,109.88291730027,22.744020940021
1858,450900,绿源电动车(旺街村路专卖店),广西壮族自治区玉林市玉州区成均镇旺街村路口对面,15077505571,109.9972440948,22.57815607129
1859,450900,绿源电动车(玉福大道专卖店),广西壮族自治区玉林市福绵区玉福大道318号,07752200761,110.05944139366,22.587992488763
1860,451000,绿源电动车(德盛路专卖店),广西壮族自治区百色市德保县德盛路172号,07763828816,106.62665944438,23.328251980201
1861,451000,绿源电动车(新兴路店),广西壮族自治区百色市平果县马头镇新兴路173号,07765828886,107.58195980317,23.329785029128
1862,451000,绿源电动车(城北二路专卖店),广西壮族自治区百色市右江区城北二路凤凰城电大巷路口电影公司,,106.61732234227,23.905429142628
1863,451000,绿源电动车(城北二路专卖4店),广西壮族自治区百色市右江区城北二路凤凰城14号,07762835890,106.61654985884,23.904841208971
1864,451000,绿源电动车(城北二路服务站),广西壮族自治区百色市右江区城北二路电大巷路口电影公司小区内,2835828,106.61834679992,23.905297099548
1865,451000,绿源电动车(人民路25店),广西壮族自治区百色市田东县东宁西路东鑫巷16号D,07762596560,107.12882959013,23.607619235434
1866,451000,绿源电动车(马大桥专卖店),广西壮族自治区百色市田林县马店大桥红绿灯往转盘方向50米,17097011578,106.24676392722,24.292114584559
1867,451000,绿源电动车(福州街专卖店),广西壮族自治区百色市右江区福州街C75号福州街,13977695091,106.661355945,23.883121924973
1868,451100,绿源电动车(南门街专卖店),广西壮族自治区贺州市八步区桂岭镇南门街,18807842788,111.81650954044,24.672327262244
1869,451100,绿源电动车(贺街镇专卖店),广西壮族自治区贺州市八步区贺街镇726县道,18070661318,111.66619563211,24.335429063138
1870,451100,绿源电动车(莲塘镇专卖店),广西壮族自治区贺州市八步区莲塘镇726县道,15578411391,111.63335691962,24.41628976689
1871,451100,绿源电动车(建设中路专卖店),广西壮族自治区贺州市八步区建设中路167号建设中路,07745287929,111.54742968749,24.420113908336
1872,451100,绿源电动车(建设中路服务站),广西壮族自治区贺州市八步区建设中路133-1号,07745687686,111.5484286307,24.420143868755
1873,451100,绿源电动车(八步第五小学专卖店),广西壮族自治区贺州市八步区建设中路145号建设中路,13117645443,111.54812902778,24.420073512782
1874,451100,绿源电动车(建设中路专卖店),广西壮族自治区贺州市八步区八步街道建设中路143号,07745687929,111.54792921787,24.420083617242
1875,451100,绿源电动车(前进西路专卖店),广西壮族自治区贺州市八步区前进西路57号建设中路,13117645443,111.54663026979,24.420295154733
1876,451100,绿源电动车(气象局专卖店),广西壮族自治区贺州市八步区建设中路51号,,111.53604126382,24.419844673719
1877,451200,绿源电动车(寿乡大道专卖店),广西壮族自治区河池市巴马瑶族自治县寿乡大道A35号寿乡大道,15977846778,107.24975515025,24.152820304679
1878,451200,绿源电动车(解放东路专卖店),广西壮族自治区河池市金城江区解放东路42-1号,15277889639,108.07838494742,24.70342442568
1879,451200,绿源电动车(南新东路店),广西壮族自治区河池市金城江区东江镇南新东路,07782271999,108.08337346779,24.693665188847
1880,451200,绿源电动车(朝阳路专卖店),广西壮族自治区河池市罗城仫佬族自治县东门镇朝阳路181号1一50,13647784959,108.90770444383,24.784411690327
1881,451200,绿源电动车(龙岗路店),广西壮族自治区河池市宜州市龙岗路14号,07783214612,108.65887094286,24.496148735056
1882,451300,绿源电动车(雅文路专卖店),广西壮族自治区来宾市金秀瑶族自治县雅文路76号,07726355028,109.9906003366,24.198211470406
1883,451300,绿源电动车(柳来路专卖店),广西壮族自治区来宾市兴宾区柳来路233号柳来路,07724220100,109.23892527662,23.738076776102
1884,451300,绿源电动车(兴宾区维欢路专卖店),广西来宾市兴宾区维欢路92号,13377289891,109.2389152909,23.740750705117
1885,451300,绿源电动车(城北路专卖店),广西壮族自治区来宾市武宣县城北路179-1-5号,07725217048,109.66887373534,23.613567840058
1886,451300,绿源电动车(建新路店),广西壮族自治区来宾市象州县建新路147号,07724352577,109.69021472709,23.962182023177
1887,451300,绿源电动车(高安乡专卖店),广西壮族自治区来宾市兴宾区高安乡信用社对面,15177215510,109.48438803116,23.763029869095
1888,451300,绿源电动车(大桥路专卖店),广西壮族自治区来宾市兴宾区长梅路127号,,109.22298624287,23.72863656668
1889,451400,绿源电动车(富民路店),广西壮族自治区崇左市大新县桃城镇富民路6号,07713630929,107.20744964541,22.838352008235
1890,451400,绿源电动车（都兴街专卖店）,广西壮族自治区崇左市龙州县都兴街,13669615694,106.86303482516,22.354531178225
1891,451400,绿源电动车（兴宁大道专卖店）,广西壮族自治区崇左市宁明县城中镇兴宁大道东214号凤凰市场,07718635788,107.0909560087,22.136982743889
1892,451400,绿源电动车(江南街道店),广西壮族自治区崇左市江州区江南街道平阳路,07717825683,107.36627397932,22.413999138275
1893,460100,绿源电动车(新华南路专卖二店),海南省海口市龙华区东湖路5号,15659585999,110.35254247013,20.042548714592
1894,460100,绿源电动车(新华南路专卖店),海南省海口市龙华区东湖路新华南路2号,15659585999,110.35100402545,20.042615777225
1895,460100,绿源电动车(商业东街专卖店),海南省海口市龙华区龙桥镇商业东街22号,15595865643,110.36942401931,19.916733460671
1896,460100,绿源电动车(解放路店),海南省三亚市解放路胜利路266号,089888699002,109.51045008592,18.247501532542
1897,460100,绿源电动车(凤凰路店),海南省三亚市凤凰路243号,089888614191,109.46306100234,18.304247953118
1898,460100,绿源电动车(金江镇专卖店),海南省澄迈县金江镇人民西路96号,089867625428,110.01253518636,19.73995956776
1899,460100,绿源电动车(人民南路专卖8店),海南省定安县定安县人民南路8号,089863820369,110.33109238557,19.702736870942
1900,460100,绿源电动车(翰林镇专卖店),海南省定安县定安县翰林镇229县道,13016218986,110.27099571491,19.33656919978
1901,460100,绿源电动车(雷鸣镇专卖店),海南省定安县定安县雷鸣镇214省道,13707560186,110.33193067411,19.562185584452
1902,460100,绿源电动车(感思路店),海南省乐东黎族自治县乐东黎族自治县感思路,,109.1903198733,18.743757576547
1903,460100,绿源电动车（225国道店）,海南省乐东黎族自治县乐东黎族自治县225国道,089885803389,108.74424039408,18.581381926133
1904,460100,绿源电动车(利国镇专卖店),海南省乐东黎族自治县乐东黎族自治县225国道利国镇望楼桥桥东,089885803389,108.90673999449,18.474172215555
1905,460100,绿源电动车(新盈车站专卖店),海南省临高县临高县跃进路,089831168488,109.68474716236,19.914332552204
1906,460100,绿源电动车(新建路7店),海南省陵水黎族自治县陵水黎族自治县新建路99号,089883326233,110.04571786346,18.510021872576
1907,460100,绿源电动车(富海路店),海南省琼海市琼海市富海路16号,089831695278,110.4743429828,19.255897606488
1908,460100,绿源电动车(人民西路10店),海南省万宁市万宁市人民西路,089862185822,110.38617052956,18.80236328782
1909,460100,绿源电动车(兴隆国道专卖店),海南省万宁市兴隆镇兴隆国道财政局旁边1号,13136018739,110.2180044873,18.757722125224
1910,500100,绿源电动车(聚贤大道店),重庆市涪陵区聚贤大道,13512316899,107.2786028015,29.750403106515
1911,500100,绿源电动车(上什字西路店),重庆市合川区上什字西路126-130号,02342704341,106.26813221631,29.983857718352
1912,500100,绿源电动车(西门路专卖店),重庆市江津区西门路125号,02347535678,106.26048338347,29.286761921547
1913,500100,绿源电动车(金佛大道店),重庆市南川区西城金佛大道48号龙福小区A、B-2-1门市,18581221829,107.09815993285,29.159510352579
1914,500100,绿源电动车(渝西大道专卖店),重庆市永川区渝西大道中段-495号,02385359118,105.91484497429,29.360440978233
1915,500100,绿源电动车（合兴街店）,重庆市永川区何埂镇合兴街43-45号,02349501319,105.87655879349,29.142070581992
1916,500100,绿源电动车(双龙西路店),重庆市永川区双桥镇双龙西路48号,13635473242,105.91496141071,29.370005200281
1917,500100,绿源电动车(长江路店),重庆市永川区朱沱镇长江路,18581488498,105.85703697057,29.022306333066
1918,500100,绿源电动车(双湖路店),重庆市渝北区双湖路519号附12号（宝桐医院斜对面）,13638293061,106.61446933197,29.685932397956
1919,500100,绿源电动车(汉渝路店),重庆市渝北区汉渝路203号,13667622256,106.63588248031,29.734815942017
1920,500100,绿源电动车（一环北路二店）,重庆市大足区一环北路西段295号,02385359118,105.71029686396,29.706875167658
1921,500100,绿源电动车(工农北路专卖店),重庆市垫江县工农北路,02374681899,107.36151753935,30.343134582219
1922,500100,绿源电动车(平都大道店),重庆市丰都县三合街道平都大道东段351号,02370718976,107.74906959544,29.879750820533
1923,500100,绿源电动车(竹枝路店),重庆市奉节县竹枝路270号,85984028,109.46212235612,31.029618961838
1924,500100,绿源电动车(开州大道店),重庆市开州区开州大道西体育场对面,02387408678,108.39397602295,31.16750538803
1925,500100,绿源电动车(机场路店),重庆市梁平县机场路888号,13668431515,107.79183775286,30.676210163925
1926,500100,绿源电动车(夏露街店),重庆市潼南县夏露街37-41号,02344581122,105.85171484027,30.195689286485
1927,500100,绿源电动车(滨江大道店),重庆市云阳县滨江大道2516号,0235522276,108.69713960674,30.937467640935
1928,510100,剑龙钢材城销售门店,四川省成都市金牛区沙河源街道古柏社区一组电动车商城1楼24号,13320989206,104.05158302085,30.745995692292
1929,510100,龙湖·北城天街销售门店,四川省成都市金牛区五块石街道五福桥东路9号,13881989361,104.07382889903,30.718061482692
1930,510100,绿源电动车(南丝路店),四川省成都市蒲江县南丝路66号,02888551142,103.52580697497,30.197567292275
1931,510400,绿源电动车(大坪北路店),四川省攀枝花市米易县攀莲镇大坪北路8号,13408123958,102.10827629438,26.895257240806
1932,510500,绿源电动车(龙脑大道店),四川省泸州市泸县龙脑大道773号,13882710077,105.38018034683,29.153060011877
1933,510500,绿源电动车(向阳路店),四川省泸州市龙马潭区向阳路189号,08302590698,105.44619635168,28.903867453656
1934,510800,绿源电动车(红军路店),四川省广元市苍溪县红军路东段503号,08395283908,105.94788948091,31.745582523412
1935,510800,绿源电动车(富康街专卖店),四川省广元市利州区荣山镇富康街38-42号,13696090552,105.98797237171,32.402094675904
1936,510800,绿源电动车(文化路财政局专卖店),四川省广元市利州区文化路76-86号,08393241708,105.84959255203,32.438707098514
1937,510800,绿源电动车(宝轮路店),四川省广元市利州区宝轮路东段,08398565315,105.65699679937,32.388546265335
1938,510800,绿源电动车(文化路广铝厂专卖店),四川省广元市利州区东坝街道文化路149号,08393267718,105.85059423915,32.438565084977
1939,510800,绿源电动车(蜀门北路店),四川省广元市利州区蜀门北路,2860202,105.83342110089,32.451285814308
1940,510900,绿源电动车(新阳街店),四川省遂宁市射洪县太和镇新阳街545号,08256765666,105.38209726088,30.880102459266
1941,511000,绿源电动车(新华街专卖店),四川省内江市隆昌县新华街三段125-137号,08323965696,105.29592671065,29.340280325263
1942,511000,绿源电动车(交通路店),四川省内江市市中区交通路197号,08322111986,105.07420533799,29.582571209018
1943,511000,绿源电动车(东兴大道店),四川省内江市东兴区东兴大道923号,08322567981,105.08654863241,29.604096328156
1944,511100,绿源电动车(王水井街店),四川省乐山市夹江县王水井街,08335131889,103.58634374095,29.742270966761
1945,511100,绿源电动车(志远街专卖店),四川省乐山市市中区茅桥镇志远街176号,13408231418,103.88916281567,29.534270578523
1946,511500,绿源电动车(竹都大道专卖店),四川省宜宾市长宁县竹都大道一段117-119号,08314626079,104.91747037708,28.58679825397
1947,511500,绿源电动车(少娥街专卖店),四川省宜宾市宜宾县少娥街64-72号,08316208333,104.55758040697,28.709314694342
1948,511500,绿源电动车(外南街店),四川省宜宾市翠屏区外南街53-55号,08318355001,104.63165247966,28.768791499128
1949,511500,绿源电动车(兴盛路店),四川省宜宾市高县符江镇兴盛路16号,5582010,104.52511041902,28.44040052453
1950,511500,绿源电动车（滨河东街店）,四川省宜宾市珙县巡场镇滨河东街北二段44号,13558959133,104.7159846643,28.46592350661
1951,511500,绿源电动车(竹海大道店),四川省宜宾市江安县竹海大道89号,08312628408,105.08242404483,28.731830170592
1952,511500,绿源电动车（307省道专卖店）,四川省宜宾市江安县307省道,18784161787,105.12673517131,28.828544493901
1953,511500,绿源电动车(学士路店),四川省宜宾市筠连县学士路1号煤都大道,08317728011,104.51028895545,28.162579537649
1954,511500,绿源电动车（北环路店）,四川省宜宾市筠连县北环路44-46号,15348156631,104.50997851507,28.162510327181
1955,511500,绿源电动车(古宋镇二店),四川省宜宾市兴文县古宋镇宋河北街149号,15328809937,105.24945145595,28.310660086369
1956,511500,绿源电动车(宜泥路店),四川省宜宾市宜宾县蕨溪镇宜泥路,13096210003,104.27032775205,28.919788747805
1957,511600,绿源电动车(弘前大道店),四川省广安市前锋区弘前大道167号,15884937179,106.89689019449,30.503876318974
1958,511600,绿源电动车(广宁北路店),四川省广安市广安区广宁北路39号,18982651468,106.64267911309,30.468336365548
1959,511600,绿源电动车(下东街店),四川省广安市武胜县下东街255号,15196535073,106.30357624296,30.35116074244
1960,511600,绿源电动车(九龙大街店),四川省广安市岳池县九龙大街488号,08265220396,106.45121589914,30.536794194378
1961,511700,绿源电动车（通达西路店）,四川省达州市达川区通达西路560号,18782893496,107.50761621469,31.20970238179
1962,511700,绿源电动车(龙都路店),四川省达州市渠县静边镇龙都路86号,13882897829,106.84793034871,31.01889800396
1963,511700,绿源电动车(五一街口店),四川省达州市渠县李馥乡五一街口1号,14781861580,107.01804653643,30.95126746784
1964,511700,绿源电动车(临流路店),四川省达州市渠县临巴镇临流路新街114号,13198755698,107.06892792838,30.902217094436
1965,511700,绿源电动车(清望路店),四川省达州市渠县清溪场乡清望路113号,13981489165,106.82593566512,30.897084820596
1966,511700,绿源电动车(营渠路3店),四川省达州市渠县万兴广场天桥旁万喜苑25-29号,15892423445,106.97376336043,30.836944533182
1967,511700,绿源电动车(营渠路3店),四川省达州市渠县营渠路6号,15892423445,106.97417516408,30.837930035409
1968,511700,绿源电动车(吊街子店),四川省达州市渠县有庆镇吊街子83-85号,15982982351,106.84399084535,30.810997700556
1969,511700,绿源电动车(嘉豪摩托城店),四川省达州市达川区2号干道嘉豪摩托城,18780871790,107.51002551551,31.178461171794
1970,511800,绿源电动车(始阳镇店),四川省雅安市天全县始阳镇318国道,08357338776,102.84221089077,30.027401429594
1971,511800,绿源电动车(康宁路店),四川省雅安市荥经县康宁路西一段235号,08357732778,102.842484811,29.801256879777
1972,511900,绿源电动车(望王路店),四川省巴中市巴州区望王路东段468号,18113754653,106.7708859087,31.866914766228
1973,511900,绿源电动车（插旗山路店）,四川省巴中市巴州区插旗山路248号,08272261980,106.78579780795,31.857961816726
1974,511900,绿源电动车(米仓山大道店),四川省巴中市南江县光雾山大道,18181384766,106.86178500449,32.366526526657
1975,511900,绿源电动车(红军路店),四川省巴中市巴州区红军路219-221号,13884421399,106.76081772704,31.859555512811
1976,511900,绿源电动车(红军路4店),四川省巴中市巴州区西城街道红军路427号,18382757770,106.75717205289,31.86106271516
1977,511900,绿源电动车(南池东路店),四川省巴中市巴州区南池东路4号,08275556199,106.77331014703,31.852691917686
1978,513400,绿源电动车(顺城东路专卖店),四川省凉山彝族自治州会理县顺城东路926号,08345656808,102.25487408373,26.67022268777
1979,513400,绿源电动车（西环路专卖店）,四川省凉山彝族自治州会理县西环路西关202号,08345690496,102.24693443618,26.668111679435
1980,513400,绿源电动车(长安中路专卖店),四川省凉山彝族自治州西昌市长安中路195号,08343225277,102.25445510079,27.893094052516
1981,513400,绿源电动车(合营村专卖店),四川省凉山彝族自治州西昌市经久乡合营村六组,15181551669,102.21790730911,27.780977340683
1982,513400,绿源电动车(裕隆村店),四川省凉山彝族自治州西昌市裕隆村67号,13408345147,102.17608878796,27.840012127836
1983,513400,绿源电动车(润盐东街店),四川省凉山彝族自治州盐源县润盐东街176号,08346367828,101.51780308619,27.432232106894
1984,520100,绿源电动车(二桥路店),贵州省贵阳市云岩区二桥路74号,18188110492,106.69525941638,26.587505132411
1985,520100,绿源电动车(沙冲中路店),贵州省贵阳市南明区沙冲路老电视机厂内,18188110492,106.71012827152,26.556558489642
1986,520100,绿源电动车(新添大道店),贵州省贵阳市云岩区新添大道南段114号,13158039582,106.7248214809,26.607741285501
1987,520200,绿源电动车(那平路店),贵州省六盘水市六枝特区那平路休闲广场旁,18188277969,105.47166817995,26.22709808827
1988,520200,绿源电动车(永安路店),贵州省六盘水市水城县发耳乡永安路,18208581598,104.76465454686,26.304440573826
1989,520300,绿源电动车(人民南路店),贵州省遵义市赤水市人民南路319号,13550883380,105.70804273637,28.581979916658
1990,520300,绿源电动车(塔坪路店),贵州省遵义市湄潭县塔坪路42号,13885284634,107.49061101641,27.766316496413
1991,520300,绿源电动车(国酒北路店),贵州省遵义市仁怀市中枢街道国酒南路86,27703972,106.41593092799,27.804485277766
1992,520300,绿源电动车(东方电摩城专卖店),贵州省遵义市红花岗区环城路（东方电摩城）,085127703972,106.94365947253,27.688080072789
1993,520300,绿源电动车(东联路店),贵州省遵义市汇川区东联路山居十二院对面,13765259409,106.95817894658,27.715229948028
1994,520300,绿源电动车(外环路专卖店),贵州省遵义市红花岗区外环路迎红桥 ,085127703972,106.92473859288,27.677522942599
1995,520300,绿源电动车（大连路店）,贵州省遵义市汇川区大连路482号,085127703972,106.94937674734,27.719841505161
1996,520300,绿源电动车（平安东路店）,贵州省遵义市绥阳县平安东路辣椒市场,13765901656,107.20516468223,27.970794183991
1997,520300,绿源电动车(太平新街店),贵州省遵义市桐梓县官仓镇太平新街56号,27703972,106.73670042007,28.019872709068
1998,520300,绿源电动车(东升大道店),贵州省遵义市务川仡佬族苗族自治县东升大道794（务星帝都）,18985269678,107.89988775615,28.549603657221
1999,520300,绿源电动车(习水县二小店),贵州省遵义市习水县二小中段3号,13765210726,106.21609044676,28.32019954061
2000,520300,绿源电动车（乌江中路店）,贵州省遵义市余庆县乌江中路22号,24625711,107.90165954178,27.227583594805
2001,520300,绿源电动车(光辉东路店),贵州省遵义市余庆县龙家镇光辉东路,27703972,107.58510617251,27.52240283406
2002,520300,绿源电动车（它山南路店）,贵州省遵义市余庆县松烟镇它山南路127号,13511855126,107.62906745824,27.607774402009
2003,520300,绿源电动车(遵南大道店),贵州省遵义市遵义县遵南大道,27703972,106.87068567739,27.595614438112
2004,520300,绿源电动车(万寿南街店),贵州省遵义市播州区万寿南街,17785226776,106.83298668039,27.529854512567
2005,520300,绿源电动车(北大街店),贵州省遵义市遵义县虾子镇汇川区北大街366-368号,13639247359,107.19762236916,27.687847965849
2006,520300,绿源电动车(沙滩街店),贵州省遵义市遵义县新舟镇沙滩街,27343018,107.25812894829,27.836626935537
2007,520400,绿源电动车(贵安大道店),贵州省安顺市平坝县贵安大道,13595321175,106.27345978518,26.416928112948
2008,520400,绿源电动车(塔山西路店),贵州省安顺市西秀区塔山西路56号,18501570863,105.9374378086,26.245678149832
2009,520400,绿源电动车(双堡镇店),贵州省安顺市西秀区双堡镇,13985708693,106.19130170112,26.171695240556
2010,520400,绿源电动车(杨武乡专卖店),贵州省安顺市西秀区杨武乡,13985743686,106.19039808255,26.063589829284
2011,520400,绿源电动车(镇坝路专卖店),贵州省安顺市镇宁布依族苗族自治县镇坝路,13885319087,105.77128401398,26.05477739044
2012,520400,绿源电动车(城墙路店),贵州省安顺市紫云苗族布依族自治县城墙路18号,085135239991,106.09353550772,25.753858591969
2013,522200,绿源电动车(民族风情街店),贵州省铜仁市德江县民族风情街（青龙派出所旁边）,15185893376,108.11734094785,28.26083843379
2014,522200,绿源电动车(环城西路店),贵州省铜仁市江口县环城西路,18722918646,108.84655922459,27.6984620792
2015,522200,绿源电动车(沙子镇店),贵州省铜仁市沿河土家族自治县沙子镇（沙子派出所）,13885646997,108.54758232443,28.56223091566
2016,522300,绿源电动车(黄金路3店),贵州省黔西南布依族苗族自治州兴仁县黄金路36号,08592299177,105.20454150043,25.435023353442
2017,522300,绿源电动车(贵州农信专卖店),贵州省黔西南布依族苗族自治州兴义市南环路（贵州农信对面）,08593226918,104.90437114228,25.086216107482
2018,522300,绿源电动车(盘江南路专卖店),贵州省黔西南布依族苗族自治州兴义市盘江南路,08593226918,104.90208788659,25.090406383303
2019,522300,绿源电动车(菜园村店),贵州省黔西南布依族苗族自治州贞丰县珉谷镇菜园村,08596618288,105.65453483502,25.387489376656
2020,522400,绿源电动车(天河路专卖店),贵州省毕节市七星关区天河路112号,08572181999,105.29332777055,27.315202781547
2021,522400,绿源电动车(中华路店),贵州省毕节地区金沙县中华路39号,13885777553,106.25904128403,27.508169102686
2022,522400,绿源电动车（同心大道店）,贵州省毕节市黔西县同心大道,15284697392,106.04400413203,27.002872668771
2023,522400,绿源电动车(斗阁路店),贵州省毕节市威宁彝族回族苗族自治县斗阁路,15519789162,104.29304261451,26.860175997
2024,522600,绿源电动车(灵山南路店),贵州省黔东南苗族侗族自治州三穗县灵山南路121号,13925257125,108.6918512963,26.969425165968
2025,522700,绿源电动车(机动车市场店),贵州省黔南布依族苗族自治州独山县机动车市场,13638013210,107.53666144714,25.822495202518
2026,522700,绿源电动车(大关路专卖店),贵州省黔南布依族苗族自治州罗甸县大关路（客车站旁）,13985775564,106.75926195247,25.441854981176
2027,522700,绿源电动车（河滨南路店）,贵州省黔南布依族苗族自治州罗甸县河滨南路,13985775564,106.75758285552,25.437168356354
2028,522700,绿源电动车(环城东路店),贵州省黔南布依族苗族自治州三都水族自治县环城东路33号,13518547949,107.87911146366,25.994473189736
2029,522701,绿源电动车(环东南路店),贵州省黔南布依族苗族自治州都匀市环东南路,13765494390,107.52696772127,26.248296671211
2030,522701,绿源电动车(环东南路店),贵州省黔南布依族苗族自治州都匀市环东南路,13765494390,107.52696772127,26.248296671211
2031,530100,绿源电动车(北京路3店),云南省昆明市盘龙区北京路1028号,13888710928,102.73234643263,25.085403612931
2032,530300,绿源电动车(龙门街店),云南省曲靖市罗平县龙门街238号,08748252196,104.30976957059,24.890339233285
2033,530500,绿源电动车(甸阳路店),云南省施甸县甸阳路（施甸大酒店正对面）,18287510201,99.188558601894,24.741771287763
2034,530600,绿源电动车(爱民路7号店),云南省昭通市昭阳区爱民路7号裕康商业广场B幢D区1-2层18号内,08702155777,103.71865673936,27.345452492293
2035,530700,绿源电动车(白华路专卖店),云南省丽江市古城区大研镇西安街道白华路,13988890193,100.21968976985,26.880587703222
2036,530800,绿源电动车(瑞屏路店),云南省普洱市景东彝族自治县瑞屏路19号,08796228787,100.84546259491,24.454060366113
2037,530800,绿源电动车（城东路店）,云南省普洱市孟连傣族拉祜族佤族自治县城东路交警大队斜对面,13577905343,99.598792491428,22.336956366886
2038,532300,绿源电动车(团吉路店),云南省楚雄彝族自治州楚雄市团吉路285号,08783120388,101.55663267056,25.046894770047
2039,532500,绿源电动车（建设路专卖店）,云南省红河哈尼族彝族自治州个旧市建设路168号建设路,3116628,103.16214169908,23.394018541756
2040,532500,绿源电动车(清远路店),云南省红河哈尼族彝族自治州建水县临安镇清远路77号,08737620990,102.82290394124,23.622479267345
2041,532600,绿源电动车(开化中路店),云南省文山壮族苗族自治州文山市开化中路17号,08768848417,104.24475927788,23.377975758557
2042,532800,绿源电动车(214国道店),云南省西双版纳傣族自治州勐海县佛双路,13608783780,100.45162709614,21.959222886607
2043,532800,绿源电动车(勐腊南路店),云南省西双版纳傣族自治州勐腊县勐腊农场勐腊南路248号,06918139956,101.57373039766,21.478059218222
2044,532900,绿源电动车(建设东路专卖店),云南省大理白族自治州大理市建设东路37号,08722172270,100.23721537515,25.592423127033
2045,533100,绿源电动车(章丰商贸城店),云南省德宏傣族景颇族自治州陇川县三象北路章丰商贸城1栋2号,06927174491,97.800201076962,24.20101151437
2046,530901,绿源电动车(南天路3店),云南省临沧市临翔区凤翔街道南天路1333号,08832122522,100.10107005328,23.878822271827
2047,530901,绿源电动车(永康镇店),云南省临仓市永德县永康镇光辉车行,0883.5811518,99.387917247709,24.11673929787
2048,530902,绿源电动车(勐泐大道店),云南省西双版纳傣族自治州景洪市勐泐大道22号,06912125644,100.80115441529,22.019079096286
2049,610100,绿源电动车(灞桥西街店),陕西省西安市灞桥区灞桥西街10号,13402960964,109.07838322862,34.316809267935
2050,610100,绿源电动车(郭杜北街店),陕西省西安市长安区郭杜北街22号,15829548275,108.87222337397,34.16789736982
2051,610100,绿源电动车(细柳街道店),陕西省西安市长安区细柳镇细柳街道,13022844565,108.79194606877,34.165186940364
2052,610100,金苑二区销售门店,陕西省西安市高陵区西韩街349号,02986919329,109.10181246678,34.541727559011
2053,610100,鹏程电器销售门店,陕西省西安市高陵区泾渭北路30号（鹏程电器）,18710325730,108.99252532622,34.457261991278
2054,610100,环城公园销售门店,陕西西安北关正街2号永鑫电动车自行车批发市场9号楼1层1-3号9-1号楼梯间,02986239109,108.95183797529,34.284970091797
2055,610100,绿源电动车(东环路4店),陕西省西安市临潼区东环路3号,02983810590,109.21701341308,34.380231676405
2056,610100,绿源电动车(南交路店),陕西省西安市临潼区交口镇南交路,13992860681,109.30381981767,34.580179984375
2057,610100,绿源电动车(庆山路店),陕西省西安市临潼区新丰镇庆山路,13772512384,109.27318656011,34.427599204908
2058,610100,绿源电动车(油槐镇店),陕西省西安市临潼区油槐镇,15829231272,109.40025995097,34.56374538842
2059,610100,绿源电动车(纺一路店),陕西省西安市灞桥区纺一路邮政超市隔壁,83328646,109.08230289766,34.278657680832
2060,610100,美的厨卫专卖店(NO.陕R100006)销售门店,陕西省西安市阎良区文化东路66号,02986867576,109.23826567246,34.669602717011
2061,610100,西部家具城综合门店,陕西省西安市雁塔区青龙路,02982237663,108.98592837346,34.238040999939
2062,610200,绿源电动车(锦阳路店),陕西省铜川市耀州区锦阳路,09196283456,108.97909445432,34.919560453607
2063,610300,绿源电动车(雍城大道店),陕西省宝鸡市凤翔县雍城大道东段,13992751863,107.4019515919,34.521398484131
2064,610300,绿源电动车(南大街二店),陕西省宝鸡市扶风县南大街,09175218791,107.90253076485,34.380648622214
2065,610300,绿源电动车(西宝中线店),陕西省宝鸡市扶风县西宝中线,15091704292,107.95477982621,34.275775912873
2066,610300,绿源电动车(东风路5店),陕西省宝鸡市金台区东风路22号,09173465599,107.18367518899,34.370993392991
2067,610300,绿源电动车(昌隆路店),陕西省宝鸡市眉县昌隆路37-40号,15592666355,107.76150444414,34.27016692559
2068,610300,绿源电动车(安乐镇店),陕西省宝鸡市岐山县安乐镇,15191771804,107.67407014626,34.226374962314
2069,610300,绿源电动车(周五路店),陕西省宝鸡市岐山县五丈原镇周五路,13571732538,107.62036413234,34.291445833832
2070,610300,绿源电动车(宝平路店),陕西省宝鸡市千阳县宝平路,17829078833,107.1228774228,34.655075510215
2071,610400,绿源电动车(西大街店),陕西省咸阳市长武县西大街059号,14729019550,107.79699997534,35.215584628829
2072,610400,绿源电动车(太平镇店),陕西省咸阳市泾阳县太平镇,02936650699,108.74271642581,34.518615116124
2073,610400,绿源电动车(烟霞镇店),陕西省咸阳市礼泉县烟霞镇绿源专卖店,13484579962,108.55362343186,34.581932451121
2074,610400,绿源电动车(池阳街店),陕西省咸阳市三原县池阳街150号,02932274777,108.93938721277,34.618430033659
2075,610400,绿源电动车(东风路专卖店),陕西省咸阳市渭城区东风路15号,18729801168,108.74788765334,34.35265523705
2076,610400,绿源电动车(大庄镇店),陕西省咸阳市武功县大庄镇,18717406426,108.16198778003,34.262655512118
2077,610400,绿源电动车(店张街店),陕西省咸阳市兴平县店张街道绿源专卖店1号,13772609778,108.54009161945,34.434931614952
2078,610500,绿源电动车(安仁街道店),陕西省渭南市大荔县安仁镇安堤路,15991932731,110.09241468969,34.873792369373
2079,610500,绿源电动车(普照东路店),陕西省渭南市韩城市普照东路,13891378139,110.46176017966,35.489462674839
2080,610500,绿源电动车(渭白路店),陕西省渭南市临渭区渭白路中段,13772719819,109.4850056604,34.516171985326
2081,610500,绿源电动车(迎宾路店),陕西省渭南市蒲城县迎宾路,13109651552,109.60184355714,34.965035628147
2082,610600,绿源电动车(长青路店),陕西省延安市宝塔区长青路,13098042051,109.50733298888,36.612317864394
2083,610600,绿源电动车(中心大街店),陕西省延安市洛川县中心大街与凤鸣街交叉口向北100米,13909117434,109.44530626456,35.764962080821
2084,610700,绿源电动车(西二路店),陕西省汉中市城固县西二路,09167386878,107.33173727229,33.15566815965
2085,610700,绿源电动车(崔家山镇店),陕西省汉中市城固县崔家山镇,13991607400,107.1966385729,33.153669096073
2086,610700,绿源电动车(毕七路店),陕西省汉中市城固县上元观镇毕七路,15891169558,107.23640012451,33.089537411489
2087,610700,绿源电动车(虎桥路专卖店),陕西省汉中市虎桥路汉运司汽车站西侧50米,09168105558,107.0349906804,33.087876989092
2088,610700,绿源电动车(铺镇店),陕西省汉中市汉台区铺镇316国道,09162571578,107.13227995083,33.094352778192
2089,610700,绿源电动车(武乡镇店),陕西省汉中市汉台区武乡镇,13891664480,107.05690712474,33.193629086828
2090,610700,绿源电动车(大河坎镇店),陕西省汉中市南郑县大河坎镇,13084887048,107.03301474956,33.045266502729
2091,610700,绿源电动车(高台下街店),陕西省汉中市南郑县高台镇高台下街,9168105558,106.86902186497,33.022665304413
2092,610700,绿源电动车(东大街7店),陕西省汉中市南郑县汉山镇东大街人民路口,13689162900,106.94562798609,33.013607995898
2093,610700,绿源电动车(黄官镇店),陕西省汉中市南郑县黄官镇黄官车站,8105558,106.86090757037,32.903208661059
2094,610700,绿源电动车(石拱街服务站),陕西省汉中市南郑县梁山镇石拱街,8105558,106.99046848699,33.060025577974
2095,610700,绿源电动车(汉黎路店),陕西省汉中市南郑县新集镇汉黎路,09165562336,106.82194457916,33.010512068325
2096,610800,绿源电动车(西正街店),陕西省榆林市定边县西正街110号新华南街,09124587999,107.59746574166,37.600583702492
2097,610800,绿源电动车(银河西路店),陕西省榆林市米脂县银河西路,09126215828,110.1843412098,37.763052218056
2098,610800,绿源电动车(迎宾路店),陕西省榆林市神木县迎宾路,09128317815,110.51369464143,38.822997957299
2099,610800,绿源电动车(文化路4店),陕西省榆林市榆阳区文化路10排1号,13310999975,109.73893178194,38.286168223243
2100,610900,绿源电动车(农贸街店),陕西省安康市汉滨区恒口镇农贸街,15909150251,108.78653831493,32.744130870822
2101,610900,绿源电动车(五里镇店),陕西省安康市汉滨区五里镇四合桥头对面,18717560324,108.8963920704,32.72921635571
2102,610900,绿源电动车(北城街店),陕西省安康市汉阴县北城街50号,18591502298,108.52174504747,32.895709372331
2103,610900,绿源电动车(新正街店),陕西省安康市平利县新正街（人力资源和社会保障局旁边）,13659153996,109.37583984914,32.391646322426
2104,610900,绿源电动车(北环路店),陕西省安康市石泉县北环路,13891570227,108.25295048365,33.048239769739
2105,610900,绿源电动车(西大街专卖店),陕西省安康市汉滨区西大街32号,09153265278,109.02820325458,32.701594235982
2106,611000,绿源电动车(长新路店),陕西省商洛市商南县长新路,6322683,110.88036733161,33.53681666517
2107,611000,绿源电动车(东新路店),陕西省商洛市商州区东新路15号北新街东段,09142316060,109.95533606264,33.871288345457
2108,620100,绿源电动车(段家滩路店),甘肃省兰州市城关区段家滩路20号,18509311909,103.90080606544,36.051511733419
2109,620100,绿源电动车(西固西路店),甘肃省兰州市西固区西固西路57号,09317362873,103.61769983801,36.115549400865
2110,620100,绿源电动车(雁南路店),甘肃省兰州市城关区雁南路,,103.87158626407,36.066799668119
2111,620200,绿源电动车(五一中路店),甘肃省嘉峪关市五一中路,13909360799,98.288984017814,39.79480037831
2112,620400,绿源电动车(东星街店),甘肃省白银市白银区东星街80号东侧（绿源电动车专卖店）,09438243394,104.18016346924,36.548171232623
2113,620400,绿源电动车(昌泰源店),甘肃省白银市靖远县昌泰源电动车一条街,09436353966,104.69445071971,36.56562547607
2114,620400,绿源电动车(长征东路店),甘肃省白银市平川区长征东路,09436633505,104.84929038453,36.729915252872
2115,620500,绿源电动车(埠南路店),甘肃省天水市麦积区埠南路,13893873388,105.89575341023,34.55773633342
2116,620500,绿源电动车（解放北路店）,甘肃省天水市秦安县解放北路,15309383633,105.68028776209,34.87293848037
2117,620500,绿源电动车（解放路专卖二店）,甘肃省天水市秦州区解放路绿源电动车专卖店,09388211192,105.71772808927,34.586503145282
2118,620500,绿源电动车（轩辕大道店）,甘肃省天水市清水县轩辕大道御景路丁字路口,13909384802,106.1442684427,34.7642535877
2119,620700,绿源电动车(南二环路专卖二店),甘肃省张掖市甘州区南二环路,13909360799,100.47866919472,38.924954345996
2120,620700,绿源电动车(南二环路专卖店),张掖市鸿宇广场西区35号,13909360799,100.47896727422,38.925299173929
2121,620700,绿源电动车(人民西路店),甘肃省张掖市高台县人民西路275号,09365931343,99.819228891085,39.380401603084
2122,620700,绿源电动车(东大街店),甘肃省张掖市山丹县东大街79号,09362731344,101.10107833092,38.789065382712
2123,620800,绿源电动车(城南路店),甘肃省平凉市崆峒区中街街道新世纪商务酒店(新民路)新世纪商厦B座,15809339870,106.69508159168,35.541883768266
2124,620900,绿源电动车(公路巷店),甘肃省酒泉市敦煌市银山路10-13号,13893725525,94.655782076641,40.144434012762
2125,620900,绿源电动车(瓜州中路店),甘肃省酒泉市瓜州县瓜州中路,13893725858,95.782706048925,40.518788012858
2126,620900,绿源电动车(新华街店),甘肃省酒泉市金塔县新华街农业银行旁,09372611313,98.901508868222,39.995628018524
2127,620900,绿源电动车(西环南路店),甘肃省酒泉市肃州区西环南路（金港湾）,09372611313,98.50834724914,39.747731944949
2128,621000,绿源电动车(文化路店),甘肃省庆阳市环县文化路体育馆第四中学斜对面,18794944882,107.31378240685,36.570153232222
2129,621000,绿源电动车(解放东路专卖店),甘肃省庆阳市西峰区解放东路9号,18034607788,107.64974945284,35.748924986325
2130,621100,绿源电动车(荣景园专卖店),甘肃省陇西县城关南大街荣景园,15009323716,104.64103150631,35.007236866495
2131,621100,绿源电动车(岷州中路店),甘肃省定西市岷县岷州中路,18293041662,104.04820490317,34.448080090353
2132,621100,绿源电动车（蒲麻镇店）,甘肃省定西市岷县蒲麻镇,13919697667,104.42524169269,34.541207716211
2133,621200,绿源电动车(陇南中路店),甘肃省陇南市成县陇南中路,15193979084,105.75198462117,33.751464478084
2134,621200,绿源电动车(康县店),甘肃省陇南市康县307省道,13909393539,105.61795707609,33.343409662166
2135,621200,绿源电动车(公园路店),甘肃省陇南市两当县公园路,13993935395,106.31466488092,33.918027654722
2136,621200,绿源电动车(滨河路店),甘肃省陇南市武都区滨河路长江大道天泽·世纪新城A区6号楼,13629390733,104.92691983926,33.395768157914
2137,621200,绿源电动车(香山街专卖店),甘肃省陇南市西和县香山街,13239393185,105.30653815468,34.024353078866
2138,622900,绿源电动车(北滨河中路店),甘肃省临夏回族自治州临夏市北滨河中路2栋(名门大厦旁）,13689301311,103.22258604711,35.591575037677
2139,622900,绿源电动车（滨河中路店）,甘肃省临夏回族自治州临夏市北滨河中路2栋滨河中路,09306313399,103.22271147983,35.591824037844
2140,632100,绿源电动车(川垣大街店),青海省海东市民和回族土族自治县川垣大街47号,09728524709,102.8186627624,36.333275955689
2141,640100,绿源电动车（光明东路专卖店）,宁夏回族自治区银川市贺兰县光明东路42号,13099578308,106.35511066864,38.564832517086
2142,640100,绿源电动车(商都路店),宁夏回族自治区银川市兴庆区商都路5-1-7,18309677702,106.29301719801,38.464088903803
2143,640100,绿源电动车（兴泾镇店）,宁夏回族自治区银川市西夏区兴泾镇富平路,13079594203,106.10318232683,38.392787015672
2144,640100,绿源电动车(望远镇店),宁夏回族自治区银川市永宁县望远镇商贸中心4-38号,18995136963,106.27228957386,38.385970842303
2145,640100,绿源电动车（杨和街店）,宁夏回族自治区银川市永宁县杨和街,13895399681,106.25787481738,38.275440634201
2146,640200,绿源电动车（迎宾路店）,宁夏回族自治区石嘴山市惠农区迎宾路,15209526648,106.71978994461,39.132266619552
2147,640300,绿源电动车(利宁南街店),宁夏回族自治区吴忠市利通区利宁南街61号,13895227778,106.1989823465,37.991167932619
2148,640300,绿源电动车(利宁北街店),宁夏回族自治区吴忠市利通区利宁北街50号,13895227778,106.19936738455,37.993832937281
2149,640300,绿源电动车(罗山路店),宁夏回族自治区吴忠市红寺堡区罗山路008号,13195056688,106.07796771202,37.430363345024
2150,640300,绿源电动车(解放街4店),宁夏回族自治区吴忠市盐池县解放街94号,13995035408,107.41339216005,37.786810468481
2151,640400,绿源电动车（南城路专卖店）,宁夏回族自治区固原市原州区南城路188号,09542076534,106.27980461285,36.008693715862
2152,640500,绿源电动车(新市南街专卖店),宁夏回族自治区中卫市中宁县新市南街020号,15695098081,105.67893542119,37.495257044558
2153,650100,绿源电动车(河滩北路店),新疆维吾尔自治区乌鲁木齐市沙依巴克区河滩北路789号,09916262550,87.604535124582,43.83104928426
2154,650200,绿源电动车(门户路店),新疆维吾尔自治区克拉玛依市白碱滩区门户路111号-117,09906800339,85.13343812567,45.690545195025
2155,650200,绿源电动车(成都路店),新疆维吾尔自治区克拉玛依市独山子区成都路29-14号,09923653033,84.880112447437,44.337848579181
2156,652100,绿源电动车(木卡姆路专卖店),新疆维吾尔自治区吐鲁番地区鄯善县木卡姆路,09958388019,90.222946543702,42.872020035019
2157,652100,绿源电动车(柏孜克里克路专卖店),新疆维吾尔自治区吐鲁番地区吐鲁番市柏孜克里克路柏孜克勒克路500号,09956260889,89.194966263054,42.949567783983
2158,652100,绿源电动车(解放南路店),新疆维吾尔自治区吐鲁番市托克逊县解放南路110号,09958858606,88.659782337984,42.795513812468
2159,652200,绿源电动车（天山北路店）,新疆维吾尔自治区哈密市伊州区天山北路40号,09022317878,93.508334948508,42.847437699908
2160,652300,绿源电动车(乌伊东路店),新疆维吾尔自治区昌吉回族自治州呼图壁县乌伊东路44号水晶丽舍门面,18799675855,86.904896170351,44.191894015041
2161,652300,绿源电动车(古城南路店),新疆维吾尔自治区昌吉回族自治州奇台县古城南路159号,09947214899,89.592125570312,44.027222409423
2162,652800,绿源电动车(军民路店),新疆维吾尔自治区巴音郭楞蒙古自治州和硕县军民路,13899001155,87.33548506335,42.209335420154
2163,652800,绿源电动车(清水河南路店),新疆维吾尔自治区巴音郭楞蒙古自治州和硕县清水河南路,09965625865,86.870500881524,42.269643319595
2164,652800,绿源电动车(解放路店),新疆维吾尔自治区巴音郭楞蒙古自治州焉耆回族自治县解放路,09966023381,86.576823081045,42.064311570766
2165,652900,绿源电动车(塔中路专卖店),新疆维吾尔自治区阿克苏地区阿克苏市塔中路,09972616449,80.285964518512,41.175074151218
2166,653200,绿源电动车(众一机电城市场专卖店),新疆维吾尔自治区和田地区和田市众一机电城市场2-62,18034878319,79.926893643751,37.162036649846
2167,654000,绿源电动车(静河路店),新疆维吾尔自治区伊犁哈萨克自治州巩留县静河路,09995628182,82.235698609261,43.48909587693
2168,654000,绿源电动车(唐布拉路店),新疆维吾尔自治区伊犁哈萨克自治州尼勒克县唐布拉路388号,13899786975,82.515399210716,43.801575487492
2169,654200,绿源电动车(迎宾路555号店),新疆维吾尔自治区塔城地区额敏县额敏镇阿尔夏特路北二十八巷御景天下,13199789969,83.647035632863,46.54123810687
2170,654200,绿源电动车(沙湾县专卖店),新疆维吾尔自治区塔城地区沙湾县312国道(旧),09936022580,85.666596216268,44.32375136797
2171,654200,绿源电动车(车排子垦区店),新疆维吾尔自治区塔城地区乌苏市车排子垦区123团,09923922266,84.508034076141,44.983358474094
2172,654300,绿源电动车(白湖路店),新疆维吾尔自治区阿勒泰地区布尔津县白湖路8号,13699940965,86.875958258381,47.707195775891
2173,655401,绿源电动车(南环西路专卖店),新疆维吾尔自治区伊犁哈萨克自治州奎屯市南环西路,09923231356,84.854429307405,44.421808507911
2174,655401,绿源电动车(滨河街店),新疆维吾尔自治区伊犁哈萨克自治州奎屯市滨河街,15609927996,84.885908467244,44.448394896647
2175,655402,绿源电动车(红旗路店),新疆维吾尔自治区伊犁哈萨克自治州伊宁市红旗路,09998034628,81.335203926632,43.92506698575
2176,655403,绿源电动车(北京北路店),新疆维吾尔自治区博尔塔拉蒙古自治州博乐市北京北路790号,13679962788,82.083657836096,44.920848750304
2177,655404,绿源电动车(团结路店),新疆维吾尔自治区巴音郭楞蒙古自治州库尔勒市团结路21号,18196207777,86.151607317133,41.760537023208
2178,655404,绿源电动车(栏杆路店),新疆维吾尔自治区巴音郭楞蒙古自治州库尔勒市栏杆路口,13319960137,86.151857718875,41.76065663243
